{
"type": "FeatureCollection",
"name": "geo_03_訪問リハビリテーション",
"crs": { "type": "name", "properties": { "name": "urn:ogc:def:crs:OGC:1.3:CRS84" } },
"features": [
{ "type": "Feature", "properties": { "緯度": 39.6970506, "経度": 141.1488567, "url": "https://www.kaigokensaku.mhlw.go.jp/03/index.php?action_kouhyou_detail_004_kani=true&JigyosyoCd=0310110309-00&ServiceCd=140&Type=search", "url2": "http://www.toyama-byouin.jp", "内容": "医療法人　遠山病院【訪問リハビリテーション】岩手県盛岡市下ノ橋町６－１４", "サービスの種類": "訪問リハビリテーション" }, "geometry": { "type": "Point", "coordinates": [ 141.14885670000001, 39.6970506 ] } },
{ "type": "Feature", "properties": { "緯度": 39.7381734, "経度": 141.1137086, "url": "https://www.kaigokensaku.mhlw.go.jp/03/index.php?action_kouhyou_detail_004_kani=true&JigyosyoCd=0310115506-00&ServiceCd=140&Type=search", "url2": null, "内容": "医療法人　児島内科小児科医院【訪問リハビリテーション】岩手県盛岡市みたけ三丁目11番36号", "サービスの種類": "訪問リハビリテーション" }, "geometry": { "type": "Point", "coordinates": [ 141.1137086, 39.7381734 ] } },
{ "type": "Feature", "properties": { "緯度": 39.7476875, "経度": 141.1652703, "url": "https://www.kaigokensaku.mhlw.go.jp/03/index.php?action_kouhyou_detail_004_kani=true&JigyosyoCd=0310113832-00&ServiceCd=140&Type=search", "url2": "http://www.usui-iin.jp", "内容": "臼井循環器呼吸器内科【訪問リハビリテーション】岩手県盛岡市松園二丁目2番10号", "サービスの種類": "訪問リハビリテーション" }, "geometry": { "type": "Point", "coordinates": [ 141.1652703, 39.7476875 ] } },
{ "type": "Feature", "properties": { "緯度": 39.762384404156101, "経度": 141.17713895026199, "url": "https://www.kaigokensaku.mhlw.go.jp/03/index.php?action_kouhyou_detail_004_kani=true&JigyosyoCd=0370102816-00&ServiceCd=140&Type=search", "url2": "http://www.matsuzono.jp", "内容": "松園病院介護医療院【訪問リハビリテーション】岩手県盛岡市北松園４丁目36番75号", "サービスの種類": "訪問リハビリテーション" }, "geometry": { "type": "Point", "coordinates": [ 141.177138950261991, 39.762384404156101 ] } },
{ "type": "Feature", "properties": { "緯度": 39.6895172, "経度": 141.0235676, "url": "https://www.kaigokensaku.mhlw.go.jp/03/index.php?action_kouhyou_detail_004_kani=true&JigyosyoCd=0310112875-00&ServiceCd=140&Type=search", "url2": "http://tsunagi-hp.net", "内容": "特定医療法人盛岡つなぎ温泉病院【訪問リハビリテーション】岩手県盛岡市繋字尾入野６４番地９", "サービスの種類": "訪問リハビリテーション" }, "geometry": { "type": "Point", "coordinates": [ 141.0235676, 39.6895172 ] } },
{ "type": "Feature", "properties": { "緯度": 39.705795694812501, "経度": 141.14103250555701, "url": "https://www.kaigokensaku.mhlw.go.jp/03/index.php?action_kouhyou_detail_004_kani=true&JigyosyoCd=0310117247-00&ServiceCd=140&Type=search", "url2": "http://mccyuo.byoinnavi.jp/", "内容": "メディケアプラザ中央通りクリニック【訪問リハビリテーション】岩手県盛岡市中央通３丁目16-23メディケアプラザ中央通りクリニック", "サービスの種類": "訪問リハビリテーション" }, "geometry": { "type": "Point", "coordinates": [ 141.141032505557007, 39.705795694812501 ] } },
{ "type": "Feature", "properties": { "緯度": 39.692777, "経度": 141.1646016, "url": "https://www.kaigokensaku.mhlw.go.jp/03/index.php?action_kouhyou_detail_004_kani=true&JigyosyoCd=0310118039-00&ServiceCd=140&Type=search", "url2": "https://www.clinic-osawa.com/", "内容": "大澤クリニック　訪問リハビリテーション【訪問リハビリテーション】岩手県盛岡市茶畑二丁目８番３号", "サービスの種類": "訪問リハビリテーション" }, "geometry": { "type": "Point", "coordinates": [ 141.1646016, 39.692777 ] } },
{ "type": "Feature", "properties": { "緯度": 39.71806, "経度": 141.1760758, "url": "https://www.kaigokensaku.mhlw.go.jp/03/index.php?action_kouhyou_detail_004_kani=true&JigyosyoCd=0310110283-00&ServiceCd=140&Type=search", "url2": "http://www.iwate-nakatugawa-hp.jp", "内容": "中津川病院【訪問リハビリテーション】岩手県盛岡市下米内二丁目４番１２号", "サービスの種類": "訪問リハビリテーション" }, "geometry": { "type": "Point", "coordinates": [ 141.1760758, 39.71806 ] } },
{ "type": "Feature", "properties": { "緯度": 39.7075765, "経度": 141.1542495, "url": "https://www.kaigokensaku.mhlw.go.jp/03/index.php?action_kouhyou_detail_004_kani=true&JigyosyoCd=0370107625-00&ServiceCd=140&Type=search", "url2": "http://uchimaru-hospital.jp/", "内容": "内丸病院【訪問リハビリテーション】岩手県盛岡市本町通一丁目１２番７号", "サービスの種類": "訪問リハビリテーション" }, "geometry": { "type": "Point", "coordinates": [ 141.1542495, 39.7075765 ] } },
{ "type": "Feature", "properties": { "緯度": 39.6681372, "経度": 141.1360706, "url": "https://www.kaigokensaku.mhlw.go.jp/03/index.php?action_kouhyou_detail_004_kani=true&JigyosyoCd=0310117544-00&ServiceCd=140&Type=search", "url2": "https://www.mhc-clinic.jp", "内容": "医療法人葵会もりおか往診ホームケアクリニックもりおかリハビリテーションセンター葵【訪問リハビリテーション】岩手県盛岡市北飯岡3丁目-20-3", "サービスの種類": "訪問リハビリテーション" }, "geometry": { "type": "Point", "coordinates": [ 141.136070600000011, 39.6681372 ] } },
{ "type": "Feature", "properties": { "緯度": 39.6723621, "経度": 141.1564873, "url": "https://www.kaigokensaku.mhlw.go.jp/03/index.php?action_kouhyou_detail_004_kani=true&JigyosyoCd=0310113998-00&ServiceCd=140&Type=search", "url2": "https://www.kawakubo-hos.jp/", "内容": "盛岡医療生活協同組合川久保病院【訪問リハビリテーション】岩手県盛岡市津志田２６－３０－１", "サービスの種類": "訪問リハビリテーション" }, "geometry": { "type": "Point", "coordinates": [ 141.1564873, 39.6723621 ] } },
{ "type": "Feature", "properties": { "緯度": 39.688834934158002, "経度": 141.13768030185199, "url": "https://www.kaigokensaku.mhlw.go.jp/03/index.php?action_kouhyou_detail_004_kani=true&JigyosyoCd=0310115217-00&ServiceCd=140&Type=search", "url2": "https://www.kamata-cl.com", "内容": "鎌田内科クリニック訪問リハビリテーション【訪問リハビリテーション】岩手県盛岡市本宮２－２０－１", "サービスの種類": "訪問リハビリテーション" }, "geometry": { "type": "Point", "coordinates": [ 141.137680301851987, 39.688834934158002 ] } },
{ "type": "Feature", "properties": { "緯度": 39.7004824, "経度": 141.1103212, "url": "https://www.kaigokensaku.mhlw.go.jp/03/index.php?action_kouhyou_detail_004_kani=true&JigyosyoCd=0310116389-00&ServiceCd=140&Type=search", "url2": "https://kojin-hp.jp/", "内容": "孝仁病院【訪問リハビリテーション】岩手県盛岡市中太田泉田２８番地", "サービスの種類": "訪問リハビリテーション" }, "geometry": { "type": "Point", "coordinates": [ 141.110321199999987, 39.7004824 ] } },
{ "type": "Feature", "properties": { "緯度": 39.7247389, "経度": 141.1359237, "url": "https://www.kaigokensaku.mhlw.go.jp/03/index.php?action_kouhyou_detail_004_kani=true&JigyosyoCd=0310116850-00&ServiceCd=140&Type=search", "url2": "https://ohayouclinic.jp/", "内容": "おはようクリニック訪問リハ【訪問リハビリテーション】岩手県盛岡高松２丁目２７－６", "サービスの種類": "訪問リハビリテーション" }, "geometry": { "type": "Point", "coordinates": [ 141.1359237, 39.7247389 ] } },
{ "type": "Feature", "properties": { "緯度": 39.7111071, "経度": 141.1399543, "url": "https://www.kaigokensaku.mhlw.go.jp/03/index.php?action_kouhyou_detail_004_kani=true&JigyosyoCd=0310117312-00&ServiceCd=140&Type=search", "url2": "http://www.o-med.net", "内容": "医療法人天音会おいかわ内科クリニック【訪問リハビリテーション】岩手県盛岡市上田1丁目18番38号リハスペースおいかわ", "サービスの種類": "訪問リハビリテーション" }, "geometry": { "type": "Point", "coordinates": [ 141.1399543, 39.7111071 ] } },
{ "type": "Feature", "properties": { "緯度": 39.701105, "経度": 141.13345, "url": "https://www.kaigokensaku.mhlw.go.jp/03/index.php?action_kouhyou_detail_004_kani=true&JigyosyoCd=0370101685-00&ServiceCd=140&Type=search", "url2": "https://malios-naika.jp", "内容": "マリオス小林内科クリニック【訪問リハビリテーション】岩手県盛岡市盛岡駅西通2-9-1マリオス11階", "サービスの種類": "訪問リハビリテーション" }, "geometry": { "type": "Point", "coordinates": [ 141.13345, 39.701105 ] } },
{ "type": "Feature", "properties": { "緯度": 39.6906394, "経度": 141.1409537, "url": "https://www.kaigokensaku.mhlw.go.jp/03/index.php?action_kouhyou_detail_004_kani=true&JigyosyoCd=0350180022-00&ServiceCd=140&Type=search", "url2": "https://www.oginohospital.jp", "内容": "介護老人保健施設イーハトーブ【訪問リハビリテーション】岩手県盛岡市本宮一丁目6番12号", "サービスの種類": "訪問リハビリテーション" }, "geometry": { "type": "Point", "coordinates": [ 141.140953700000011, 39.6906394 ] } },
{ "type": "Feature", "properties": { "緯度": 39.7278339, "経度": 141.1396516, "url": "https://www.kaigokensaku.mhlw.go.jp/03/index.php?action_kouhyou_detail_004_kani=true&JigyosyoCd=0310117320-00&ServiceCd=140&Type=search", "url2": "http://clinic-watanabe.com", "内容": "わたなべ内科・脳神経内科クリニック　訪問リハビリテーションセンター【訪問リハビリテーション】岩手県盛岡市高松三丁目9-8", "サービスの種類": "訪問リハビリテーション" }, "geometry": { "type": "Point", "coordinates": [ 141.1396516, 39.7278339 ] } },
{ "type": "Feature", "properties": { "緯度": 39.6613159, "経度": 141.1535798, "url": "https://www.kaigokensaku.mhlw.go.jp/03/index.php?action_kouhyou_detail_004_kani=true&JigyosyoCd=0370102675-00&ServiceCd=140&Type=search", "url2": "http://tochicli.com", "内容": "とちない脳神経外科クリニック【訪問リハビリテーション】岩手県盛岡市津志田中央3丁目１７－１０", "サービスの種類": "訪問リハビリテーション" }, "geometry": { "type": "Point", "coordinates": [ 141.153579799999989, 39.6613159 ] } },
{ "type": "Feature", "properties": { "緯度": 39.6792745, "経度": 141.1331697, "url": "https://www.kaigokensaku.mhlw.go.jp/03/index.php?action_kouhyou_detail_004_kani=true&JigyosyoCd=0310117189-00&ServiceCd=140&Type=search", "url2": "http://www.yu-ai.net/", "内容": "ゆうあいの街クリニック【訪問リハビリテーション】岩手県盛岡市北飯岡1丁目2番25号", "サービスの種類": "訪問リハビリテーション" }, "geometry": { "type": "Point", "coordinates": [ 141.1331697, 39.6792745 ] } },
{ "type": "Feature", "properties": { "緯度": 39.6904043, "経度": 141.1408272, "url": "https://www.kaigokensaku.mhlw.go.jp/03/index.php?action_kouhyou_detail_004_kani=true&JigyosyoCd=0310112552-00&ServiceCd=140&Type=search", "url2": "http://www.oginohospital.jp", "内容": "医療法人謙和会　荻野病院【訪問リハビリテーション】岩手県盛岡市本宮一丁目6番12号", "サービスの種類": "訪問リハビリテーション" }, "geometry": { "type": "Point", "coordinates": [ 141.1408272, 39.6904043 ] } },
{ "type": "Feature", "properties": { "緯度": 39.6564692, "経度": 141.1559299, "url": "https://www.kaigokensaku.mhlw.go.jp/03/index.php?action_kouhyou_detail_004_kani=true&JigyosyoCd=0310114038-00&ServiceCd=140&Type=search", "url2": "http://moriokaminami-hp.com/", "内容": "盛岡南病院訪問リハビリテーション【訪問リハビリテーション】岩手県盛岡市津志田13地割18番地4", "サービスの種類": "訪問リハビリテーション" }, "geometry": { "type": "Point", "coordinates": [ 141.1559299, 39.6564692 ] } },
{ "type": "Feature", "properties": { "緯度": 39.6444557, "経度": 141.9471099, "url": "https://www.kaigokensaku.mhlw.go.jp/03/index.php?action_kouhyou_detail_004_kani=true&JigyosyoCd=0310210505-00&ServiceCd=140&Type=search", "url2": "http://www.miyakodaiichi-hp.or.jp", "内容": "宮古第一病院【訪問リハビリテーション】岩手県宮古市保久田８番３７号", "サービスの種類": "訪問リハビリテーション" }, "geometry": { "type": "Point", "coordinates": [ 141.947109899999987, 39.6444557 ] } },
{ "type": "Feature", "properties": { "緯度": 39.6234704, "経度": 141.9531495, "url": "https://www.kaigokensaku.mhlw.go.jp/03/index.php?action_kouhyou_detail_004_kani=true&JigyosyoCd=0310210760-00&ServiceCd=140&Type=search", "url2": "http://www.heartland-miyako.org", "内容": "おかだ外科内科クリニック訪問リハビリテーション事業所【訪問リハビリテーション】岩手県宮古市実田2-5-10", "サービスの種類": "訪問リハビリテーション" }, "geometry": { "type": "Point", "coordinates": [ 141.9531495, 39.6234704 ] } },
{ "type": "Feature", "properties": { "緯度": 39.0710219, "経度": 141.7100664, "url": "https://www.kaigokensaku.mhlw.go.jp/03/index.php?action_kouhyou_detail_004_kani=true&JigyosyoCd=0350380010-00&ServiceCd=140&Type=search", "url2": "http://www.shokyukai.or.jp/", "内容": "気仙苑訪問リハビリテーション【訪問リハビリテーション】岩手県大船渡市大船渡町字山馬越188", "サービスの種類": "訪問リハビリテーション" }, "geometry": { "type": "Point", "coordinates": [ 141.710066399999988, 39.0710219 ] } },
{ "type": "Feature", "properties": { "緯度": 39.4844206, "経度": 141.1492279, "url": "https://www.kaigokensaku.mhlw.go.jp/03/index.php?action_kouhyou_detail_004_kani=true&JigyosyoCd=0310511555-00&ServiceCd=140&Type=search", "url2": "http://chuyokai.or.jp/index2.php", "内容": "花巻市石鳥谷医療センター【訪問リハビリテーション】岩手県花巻市石鳥谷町八幡5-47-2", "サービスの種類": "訪問リハビリテーション" }, "geometry": { "type": "Point", "coordinates": [ 141.1492279, 39.4844206 ] } },
{ "type": "Feature", "properties": { "緯度": 39.3873204, "経度": 141.1241558, "url": "https://www.kaigokensaku.mhlw.go.jp/03/index.php?action_kouhyou_detail_004_kani=true&JigyosyoCd=0310511563-00&ServiceCd=140&Type=search", "url2": "http://tomy-clinic.net", "内容": "医療法人報恩会とみつか脳神経外科クリニック【訪問リハビリテーション】岩手県花巻市御田屋町1-41", "サービスの種類": "訪問リハビリテーション" }, "geometry": { "type": "Point", "coordinates": [ 141.124155800000011, 39.3873204 ] } },
{ "type": "Feature", "properties": { "緯度": 39.2845112, "経度": 141.1170891, "url": "https://www.kaigokensaku.mhlw.go.jp/03/index.php?action_kouhyou_detail_004_kani=true&JigyosyoCd=0310611777-00&ServiceCd=140&Type=search", "url2": "http://hhc-en.jp/", "内容": "ホームケアクリニックえん【訪問リハビリテーション】岩手県北上市青柳町二丁目5番15号", "サービスの種類": "訪問リハビリテーション" }, "geometry": { "type": "Point", "coordinates": [ 141.117089099999987, 39.2845112 ] } },
{ "type": "Feature", "properties": { "緯度": 39.29608, "経度": 141.024027, "url": "https://www.kaigokensaku.mhlw.go.jp/03/index.php?action_kouhyou_detail_004_kani=true&JigyosyoCd=0350680039-00&ServiceCd=140&Type=search", "url2": "http://keiwakai.info/", "内容": "介護老人保健施設まつみ【訪問リハビリテーション】岩手県北上市和賀町長沼5-350-1", "サービスの種類": "訪問リハビリテーション" }, "geometry": { "type": "Point", "coordinates": [ 141.024027, 39.29608 ] } },
{ "type": "Feature", "properties": { "緯度": 39.2930581, "経度": 141.0922065, "url": "https://www.kaigokensaku.mhlw.go.jp/03/index.php?action_kouhyou_detail_004_kani=true&JigyosyoCd=0350690010-00&ServiceCd=140&Type=search", "url2": "http://www.keiwakai.info/", "内容": "介護老人保健施設たいわ【訪問リハビリテーション】岩手県北上市北鬼柳20-20", "サービスの種類": "訪問リハビリテーション" }, "geometry": { "type": "Point", "coordinates": [ 141.0922065, 39.2930581 ] } },
{ "type": "Feature", "properties": { "緯度": 39.291326516123497, "経度": 141.09564424730701, "url": "https://www.kaigokensaku.mhlw.go.jp/03/index.php?action_kouhyou_detail_004_kani=true&JigyosyoCd=0310611157-00&ServiceCd=140&Type=search", "url2": null, "内容": "日高見中央クリニック訪問リハビリ【訪問リハビリテーション】岩手県北上市北鬼柳22-46", "サービスの種類": "訪問リハビリテーション" }, "geometry": { "type": "Point", "coordinates": [ 141.095644247307007, 39.291326516123497 ] } },
{ "type": "Feature", "properties": { "緯度": 40.2003286, "経度": 141.7746293, "url": "https://www.kaigokensaku.mhlw.go.jp/03/index.php?action_kouhyou_detail_004_kani=true&JigyosyoCd=0350780003-00&ServiceCd=140&Type=search", "url2": "http://rehabilitown-kuji.jimdo.com", "内容": "介護老人保健施設　リハビリタウンくじ【訪問リハビリテーション】岩手県久慈市旭町8-100-2", "サービスの種類": "訪問リハビリテーション" }, "geometry": { "type": "Point", "coordinates": [ 141.774629299999987, 40.2003286 ] } },
{ "type": "Feature", "properties": { "緯度": 39.3385531, "経度": 141.5426603, "url": "https://www.kaigokensaku.mhlw.go.jp/03/index.php?action_kouhyou_detail_004_kani=true&JigyosyoCd=0370800468-00&ServiceCd=140&Type=search", "url2": "http://www.tono-hospital.com/", "内容": "岩手県立遠野病院【訪問リハビリテーション】岩手県遠野市松崎町白岩14地割74番地岩手県立遠野病院", "サービスの種類": "訪問リハビリテーション" }, "geometry": { "type": "Point", "coordinates": [ 141.5426603, 39.3385531 ] } },
{ "type": "Feature", "properties": { "緯度": 39.3437294, "経度": 141.5410386, "url": "https://www.kaigokensaku.mhlw.go.jp/03/index.php?action_kouhyou_detail_004_kani=true&JigyosyoCd=0350880019-00&ServiceCd=140&Type=search", "url2": null, "内容": "介護老人保健施設とおの【訪問リハビリテーション】岩手県遠野市松崎町白岩１３－３０－２", "サービスの種類": "訪問リハビリテーション" }, "geometry": { "type": "Point", "coordinates": [ 141.5410386, 39.3437294 ] } },
{ "type": "Feature", "properties": { "緯度": 38.923184, "経度": 141.339498, "url": "https://www.kaigokensaku.mhlw.go.jp/03/index.php?action_kouhyou_detail_004_kani=true&JigyosyoCd=0372700658-00&ServiceCd=140&Type=search", "url2": "http://i3syukai.com", "内容": "介護老人保健施設やまゆり【訪問リハビリテーション】岩手県一関市千厩町千厩字宮敷45番地1", "サービスの種類": "訪問リハビリテーション" }, "geometry": { "type": "Point", "coordinates": [ 141.339498, 38.923184 ] } },
{ "type": "Feature", "properties": { "緯度": 38.9372696, "経度": 141.1287618, "url": "https://www.kaigokensaku.mhlw.go.jp/03/index.php?action_kouhyou_detail_004_kani=true&JigyosyoCd=0370900086-00&ServiceCd=140&Type=search", "url2": "https://i3syukai.com/", "内容": "一関中央クリニック【訪問リハビリテーション】岩手県一関市中央町二丁目4番2号", "サービスの種類": "訪問リハビリテーション" }, "geometry": { "type": "Point", "coordinates": [ 141.1287618, 38.9372696 ] } },
{ "type": "Feature", "properties": { "緯度": 38.881515690096101, "経度": 141.13857519206499, "url": "https://www.kaigokensaku.mhlw.go.jp/03/index.php?action_kouhyou_detail_004_kani=true&JigyosyoCd=0350980017-00&ServiceCd=140&Type=search", "url2": "http://jinaikai-nursing.sakura.ne.jp", "内容": "介護老人保健施設一関ナーシングホーム【訪問リハビリテーション】岩手県一関市真柴字吉ケ沢20番地52", "サービスの種類": "訪問リハビリテーション" }, "geometry": { "type": "Point", "coordinates": [ 141.138575192064991, 38.881515690096101 ] } },
{ "type": "Feature", "properties": { "緯度": 38.9295265, "経度": 141.1348723, "url": "https://www.kaigokensaku.mhlw.go.jp/03/index.php?action_kouhyou_detail_004_kani=true&JigyosyoCd=0310910096-00&ServiceCd=140&Type=search", "url2": "http://www.ichi-hp.jp/", "内容": "一関病院訪問看護ステーションわかば【訪問リハビリテーション】岩手県一関市大手町3-36", "サービスの種類": "訪問リハビリテーション" }, "geometry": { "type": "Point", "coordinates": [ 141.134872300000012, 38.9295265 ] } },
{ "type": "Feature", "properties": { "緯度": 39.0147213, "経度": 141.6487595, "url": "https://www.kaigokensaku.mhlw.go.jp/03/index.php?action_kouhyou_detail_004_kani=true&JigyosyoCd=0351080007-00&ServiceCd=140&Type=search", "url2": "http://www.shokyukai.or.jp", "内容": "介護老人保健施設　松原苑訪問リハビリテーション【訪問リハビリテーション】岩手県陸前高田市高田町字中田69番地2", "サービスの種類": "訪問リハビリテーション" }, "geometry": { "type": "Point", "coordinates": [ 141.648759500000011, 39.0147213 ] } },
{ "type": "Feature", "properties": { "緯度": 40.3205541, "経度": 141.320321, "url": "https://www.kaigokensaku.mhlw.go.jp/03/index.php?action_kouhyou_detail_004_kani=true&JigyosyoCd=0351380019-00&ServiceCd=140&Type=search", "url2": "http://www.reitakukai.net/", "内容": "湯の里にのへ【訪問リハビリテーション】岩手県二戸市金田一字湯田24番地", "サービスの種類": "訪問リハビリテーション" }, "geometry": { "type": "Point", "coordinates": [ 141.320321, 40.3205541 ] } },
{ "type": "Feature", "properties": { "緯度": 39.0413488, "経度": 141.0643546, "url": "https://www.kaigokensaku.mhlw.go.jp/03/index.php?action_kouhyou_detail_004_kani=true&JigyosyoCd=0311510887-00&ServiceCd=140&Type=search", "url2": null, "内容": "奥州市国民健康保険衣川診療所【訪問リハビリテーション】岩手県奥州市衣川区古戸４８番地３", "サービスの種類": "訪問リハビリテーション" }, "geometry": { "type": "Point", "coordinates": [ 141.0643546, 39.0413488 ] } },
{ "type": "Feature", "properties": { "緯度": 39.1813143, "経度": 141.1820637, "url": "https://www.kaigokensaku.mhlw.go.jp/03/index.php?action_kouhyou_detail_004_kani=true&JigyosyoCd=0351280003-00&ServiceCd=140&Type=search", "url2": null, "内容": "介護老人保健施設サンライフえさし【訪問リハビリテーション】岩手県奥州市江刺岩谷堂字下惣田290番地の3", "サービスの種類": "訪問リハビリテーション" }, "geometry": { "type": "Point", "coordinates": [ 141.182063699999986, 39.1813143 ] } },
{ "type": "Feature", "properties": { "緯度": 39.1290421, "経度": 141.0678174, "url": "https://www.kaigokensaku.mhlw.go.jp/03/index.php?action_kouhyou_detail_004_kani=true&JigyosyoCd=0311510879-00&ServiceCd=140&Type=search", "url2": "https://www.city.oshu.iwate.jp/magokoro/index.html", "内容": "奥州市国民健康保険まごころ病院【訪問リハビリテーション】岩手県奥州市胆沢南都田字大持40番地", "サービスの種類": "訪問リハビリテーション" }, "geometry": { "type": "Point", "coordinates": [ 141.0678174, 39.1290421 ] } },
{ "type": "Feature", "properties": { "緯度": 39.070645814903401, "経度": 141.12654898888599, "url": "https://www.kaigokensaku.mhlw.go.jp/03/index.php?action_kouhyou_detail_004_kani=true&JigyosyoCd=0371501289-00&ServiceCd=140&Type=search", "url2": "https://mikihp.jp", "内容": "美希病院　訪問リハビリ【訪問リハビリテーション】岩手県奥州市前沢古城丑沢上野100番地", "サービスの種類": "訪問リハビリテーション" }, "geometry": { "type": "Point", "coordinates": [ 141.126548988885986, 39.070645814903401 ] } },
{ "type": "Feature", "properties": { "緯度": 39.1398099, "経度": 141.147957, "url": "https://www.kaigokensaku.mhlw.go.jp/03/index.php?action_kouhyou_detail_004_kani=true&JigyosyoCd=0311510036-00&ServiceCd=140&Type=search", "url2": "https://www.seiwakai-med.or.jp", "内容": "医療法人清和会奥州病院【訪問リハビリテーション】岩手県奥州市水沢東大通り1丁目5番30号", "サービスの種類": "訪問リハビリテーション" }, "geometry": { "type": "Point", "coordinates": [ 141.147957, 39.1398099 ] } },
{ "type": "Feature", "properties": { "緯度": 39.1396494, "経度": 141.1482492, "url": "https://www.kaigokensaku.mhlw.go.jp/03/index.php?action_kouhyou_detail_004_kani=true&JigyosyoCd=0350480018-00&ServiceCd=140&Type=search", "url2": "https://www.seiwakai-med.or.jp", "内容": "介護老人保健施設清和苑【訪問リハビリテーション】岩手県奥州市水沢東大通り1丁目5番30号", "サービスの種類": "訪問リハビリテーション" }, "geometry": { "type": "Point", "coordinates": [ 141.1482492, 39.1396494 ] } },
{ "type": "Feature", "properties": { "緯度": 39.7346838, "経度": 141.077095, "url": "https://www.kaigokensaku.mhlw.go.jp/03/index.php?action_kouhyou_detail_004_kani=true&JigyosyoCd=0352180038-00&ServiceCd=140&Type=search", "url2": null, "内容": "介護老人保健施設カルモナ訪問リハビリテーション【訪問リハビリテーション】岩手県滝沢市高屋敷平11-39", "サービスの種類": "訪問リハビリテーション" }, "geometry": { "type": "Point", "coordinates": [ 141.077095, 39.7346838 ] } },
{ "type": "Feature", "properties": { "緯度": 39.7525408, "経度": 141.1015482, "url": "https://www.kaigokensaku.mhlw.go.jp/03/index.php?action_kouhyou_detail_004_kani=true&JigyosyoCd=0311610166-00&ServiceCd=140&Type=search", "url2": null, "内容": "こんの神経内科・脳神経外科クリニック【訪問リハビリテーション】岩手県滝沢市牧野林1010-4", "サービスの種類": "訪問リハビリテーション" }, "geometry": { "type": "Point", "coordinates": [ 141.1015482, 39.7525408 ] } },
{ "type": "Feature", "properties": { "緯度": 39.735600386018703, "経度": 141.091219776721, "url": "https://www.kaigokensaku.mhlw.go.jp/03/index.php?action_kouhyou_detail_004_kani=true&JigyosyoCd=0311610232-00&ServiceCd=140&Type=search", "url2": "https://takizawa-hp.jp/", "内容": "医療法人社団松誠会滝沢中央病院【訪問リハビリテーション】岩手県滝沢市鵜飼笹森42番地2", "サービスの種類": "訪問リハビリテーション" }, "geometry": { "type": "Point", "coordinates": [ 141.091219776721005, 39.735600386018703 ] } },
{ "type": "Feature", "properties": { "緯度": 39.6987893, "経度": 141.0576752, "url": "https://www.kaigokensaku.mhlw.go.jp/03/index.php?action_kouhyou_detail_004_kani=true&JigyosyoCd=0311610034-00&ServiceCd=140&Type=search", "url2": "https://www.tochinai2.com", "内容": "栃内第二病院【訪問リハビリテーション】岩手県滝沢市大釜吉水103番地1", "サービスの種類": "訪問リハビリテーション" }, "geometry": { "type": "Point", "coordinates": [ 141.0576752, 39.6987893 ] } },
{ "type": "Feature", "properties": { "緯度": 39.7018823, "経度": 141.0196367, "url": "https://www.kaigokensaku.mhlw.go.jp/03/index.php?action_kouhyou_detail_004_kani=true&JigyosyoCd=0352180046-00&ServiceCd=140&Type=search", "url2": null, "内容": "はーとぽーと雫石指定訪問リハビリテーション事業所【訪問リハビリテーション】岩手県岩手郡雫石町板橋３－７", "サービスの種類": "訪問リハビリテーション" }, "geometry": { "type": "Point", "coordinates": [ 141.0196367, 39.7018823 ] } },
{ "type": "Feature", "properties": { "緯度": 39.7037568, "経度": 141.012918, "url": "https://www.kaigokensaku.mhlw.go.jp/03/index.php?action_kouhyou_detail_004_kani=true&JigyosyoCd=0312110919-00&ServiceCd=140&Type=search", "url2": "http://www.irc.or.jp", "内容": "いわてリハビリテーションセンター【訪問リハビリテーション】岩手県岩手郡雫石町七ツ森16番地243", "サービスの種類": "訪問リハビリテーション" }, "geometry": { "type": "Point", "coordinates": [ 141.012918, 39.7037568 ] } },
{ "type": "Feature", "properties": { "緯度": 39.640355514204799, "経度": 140.944163644155, "url": "https://www.kaigokensaku.mhlw.go.jp/03/index.php?action_kouhyou_detail_004_kani=true&JigyosyoCd=0312110752-00&ServiceCd=140&Type=search", "url2": "http://www.ohshuku.or.jp/", "内容": "鶯宿温泉病院【訪問リハビリテーション】岩手県岩手郡雫石町大字南畑第32地割字南桝沢265番地", "サービスの種類": "訪問リハビリテーション" }, "geometry": { "type": "Point", "coordinates": [ 140.944163644154997, 39.640355514204799 ] } },
{ "type": "Feature", "properties": { "緯度": 39.9661354, "経度": 141.2214735, "url": "https://www.kaigokensaku.mhlw.go.jp/03/index.php?action_kouhyou_detail_004_kani=true&JigyosyoCd=0312111388-00&ServiceCd=140&Type=search", "url2": "http://sawayaka-c.net/", "内容": "さわやかクリニック【訪問リハビリテーション】岩手県岩手郡岩手町大字江刈内10-47-2", "サービスの種類": "訪問リハビリテーション" }, "geometry": { "type": "Point", "coordinates": [ 141.2214735, 39.9661354 ] } },
{ "type": "Feature", "properties": { "緯度": 39.966317330800898, "経度": 141.21181417207501, "url": "https://www.kaigokensaku.mhlw.go.jp/03/index.php?action_kouhyou_detail_004_kani=true&JigyosyoCd=0372101915-00&ServiceCd=140&Type=search", "url2": "https://kitakami-neu.com/", "内容": "北上脳神経外科クリニック訪問リハビリ【訪問リハビリテーション】岩手県岩手郡岩手町大字五日市11-79-65", "サービスの種類": "訪問リハビリテーション" }, "geometry": { "type": "Point", "coordinates": [ 141.211814172075009, 39.966317330800898 ] } },
{ "type": "Feature", "properties": { "緯度": 39.6134187, "経度": 141.1469298, "url": "https://www.kaigokensaku.mhlw.go.jp/03/index.php?action_kouhyou_detail_004_kani=true&JigyosyoCd=0312211105-00&ServiceCd=140&Type=search", "url2": "https://kikodo.or.jp", "内容": "訪問リハビリテーションこずかた【訪問リハビリテーション】岩手県紫波郡矢巾町大字又兵ェ新田第5地割３３５番地医療福祉多機能ビル　ケアセンター南昌", "サービスの種類": "訪問リハビリテーション" }, "geometry": { "type": "Point", "coordinates": [ 141.1469298, 39.6134187 ] } },
{ "type": "Feature", "properties": { "緯度": 39.5831119, "経度": 141.1721423, "url": "https://www.kaigokensaku.mhlw.go.jp/03/index.php?action_kouhyou_detail_004_kani=true&JigyosyoCd=0372200980-00&ServiceCd=140&Type=search", "url2": "http://www.s-souseikai.jp", "内容": "介護老人保健施設シェーンハイムやはば【訪問リハビリテーション】岩手県紫波郡矢巾町土橋第11地割35-1", "サービスの種類": "訪問リハビリテーション" }, "geometry": { "type": "Point", "coordinates": [ 141.1721423, 39.5831119 ] } },
{ "type": "Feature", "properties": { "緯度": 39.3724417, "経度": 140.7614748, "url": "https://www.kaigokensaku.mhlw.go.jp/03/index.php?action_kouhyou_detail_004_kani=true&JigyosyoCd=0312410475-00&ServiceCd=140&Type=search", "url2": "http://www.town.nishiwaga.lg.jp/", "内容": "町立西和賀さわうち病院【訪問リハビリテーション】岩手県和賀郡西和賀町沢内字大野13-3-12", "サービスの種類": "訪問リハビリテーション" }, "geometry": { "type": "Point", "coordinates": [ 140.7614748, 39.3724417 ] } },
{ "type": "Feature", "properties": { "緯度": 38.9960533, "経度": 141.1455961, "url": "https://www.kaigokensaku.mhlw.go.jp/03/index.php?action_kouhyou_detail_004_kani=true&JigyosyoCd=0352680003-00&ServiceCd=140&Type=search", "url2": "https://i3syukai.com", "内容": "介護老人保健施設さわなり苑【訪問リハビリテーション】岩手県西磐井郡平泉町長島字砂子沢６番１", "サービスの種類": "訪問リハビリテーション" }, "geometry": { "type": "Point", "coordinates": [ 141.1455961, 38.9960533 ] } },
{ "type": "Feature", "properties": { "緯度": 39.379303907885301, "経度": 141.845224204419, "url": "https://www.kaigokensaku.mhlw.go.jp/03/index.php?action_kouhyou_detail_004_kani=true&JigyosyoCd=0372900241-00&ServiceCd=140&Type=search", "url2": "http://careplazaotsuchi.webnode.jp/", "内容": "あかね会訪問リハビリテーション事業所【訪問リハビリテーション】岩手県上閉伊郡大槌町小鎚14地割字蕨打直82－1", "サービスの種類": "訪問リハビリテーション" }, "geometry": { "type": "Point", "coordinates": [ 141.845224204418997, 39.379303907885301 ] } },
{ "type": "Feature", "properties": { "緯度": 39.466280670946198, "経度": 141.94604455081799, "url": "https://www.kaigokensaku.mhlw.go.jp/03/index.php?action_kouhyou_detail_004_kani=true&JigyosyoCd=0313010530-00&ServiceCd=140&Type=search", "url2": null, "内容": "近藤医院訪問リハビリテーション【訪問リハビリテーション】岩手県下閉伊郡山田町飯岡9-23-1医療法人晃生会近藤医院", "サービスの種類": "訪問リハビリテーション" }, "geometry": { "type": "Point", "coordinates": [ 141.946044550817987, 39.466280670946198 ] } },
{ "type": "Feature", "properties": { "緯度": 39.8403731, "経度": 141.859285, "url": "https://www.kaigokensaku.mhlw.go.jp/03/index.php?action_kouhyou_detail_004_kani=true&JigyosyoCd=0353080026-00&ServiceCd=140&Type=search", "url2": null, "内容": "ふれんどりー岩泉指定訪問リハビリ事業所【訪問リハビリテーション】岩手県下閉伊郡岩泉町乙茂字上9-12", "サービスの種類": "訪問リハビリテーション" }, "geometry": { "type": "Point", "coordinates": [ 141.859285, 39.8403731 ] } },
{ "type": "Feature", "properties": { "緯度": 40.306543544918597, "経度": 141.78182798095099, "url": "https://www.kaigokensaku.mhlw.go.jp/03/index.php?action_kouhyou_detail_004_kani=true&JigyosyoCd=0353180003-00&ServiceCd=140&Type=search", "url2": "https://utopiashirataki.jimdofree.com/", "内容": "介護老人保健施設ユートピア白滝訪問リハビリテーション【訪問リハビリテーション】岩手県洋野町中野第3地割38-182", "サービスの種類": "訪問リハビリテーション" }, "geometry": { "type": "Point", "coordinates": [ 141.781827980950993, 40.306543544918597 ] } }
]
}
