{
"type": "FeatureCollection",
"name": "geo_03_認知症対応型共同生活介護",
"crs": { "type": "name", "properties": { "name": "urn:ogc:def:crs:OGC:1.3:CRS84" } },
"features": [
{ "type": "Feature", "properties": { "緯度": 39.7207277852185, "経度": 141.11167225396699, "url": "https://www.kaigokensaku.mhlw.go.jp/03/index.php?action_kouhyou_detail_004_kani=true&JigyosyoCd=390100030-00&ServiceCd=320&Type=search", "url2": "https://aino-te.com", "内容": "グループホーム愛の手【認知症対応型共同生活介護】岩手県盛岡市青山一丁目19-51", "サービスの種類": "認知症対応型共同生活介護" }, "geometry": { "type": "Point", "coordinates": [ 141.111672253966987, 39.7207277852185 ] } },
{ "type": "Feature", "properties": { "緯度": 39.7257832, "経度": 141.1208344, "url": "https://www.kaigokensaku.mhlw.go.jp/03/index.php?action_kouhyou_detail_004_kani=true&JigyosyoCd=390100873-00&ServiceCd=320&Type=search", "url2": "https://www.yachidamonoie.com", "内容": "グループホームやちだもの家青山駅前【認知症対応型共同生活介護】岩手県盛岡市上堂二丁目3番16号", "サービスの種類": "認知症対応型共同生活介護" }, "geometry": { "type": "Point", "coordinates": [ 141.1208344, 39.7257832 ] } },
{ "type": "Feature", "properties": { "緯度": 39.7040362, "経度": 141.1601888, "url": "https://www.kaigokensaku.mhlw.go.jp/03/index.php?action_kouhyou_detail_004_kani=true&JigyosyoCd=390100287-00&ServiceCd=320&Type=search", "url2": "https://kikodo.or.jp", "内容": "グループホーム若園荘【認知症対応型共同生活介護】岩手県盛岡市若園町８－１１", "サービスの種類": "認知症対応型共同生活介護" }, "geometry": { "type": "Point", "coordinates": [ 141.160188799999986, 39.7040362 ] } },
{ "type": "Feature", "properties": { "緯度": 39.723404332385897, "経度": 141.17038311719699, "url": "https://www.kaigokensaku.mhlw.go.jp/03/index.php?action_kouhyou_detail_004_kani=true&JigyosyoCd=390100402-00&ServiceCd=320&Type=search", "url2": "https://yachidamonoie.dai-ichi.com/", "内容": "グループホームやちだもの家山岸【認知症対応型共同生活介護】岩手県盛岡市山岸4丁目24-1", "サービスの種類": "認知症対応型共同生活介護" }, "geometry": { "type": "Point", "coordinates": [ 141.170383117196991, 39.723404332385897 ] } },
{ "type": "Feature", "properties": { "緯度": 39.675632146866398, "経度": 141.14883021111501, "url": "https://www.kaigokensaku.mhlw.go.jp/03/index.php?action_kouhyou_detail_004_kani=true&JigyosyoCd=370101610-00&ServiceCd=320&Type=search", "url2": null, "内容": "岩手高齢協ほっと南仙北【認知症対応型共同生活介護】岩手県盛岡市南仙北2-3-37", "サービスの種類": "認知症対応型共同生活介護" }, "geometry": { "type": "Point", "coordinates": [ 141.148830211115012, 39.675632146866398 ] } },
{ "type": "Feature", "properties": { "緯度": 39.6874426, "経度": 141.122126, "url": "https://www.kaigokensaku.mhlw.go.jp/03/index.php?action_kouhyou_detail_004_kani=true&JigyosyoCd=390100022-00&ServiceCd=320&Type=search", "url2": null, "内容": "岩手高齢協ほっともとみや【認知症対応型共同生活介護】岩手県盛岡市本宮６丁目１４－１２", "サービスの種類": "認知症対応型共同生活介護" }, "geometry": { "type": "Point", "coordinates": [ 141.122126, 39.6874426 ] } },
{ "type": "Feature", "properties": { "緯度": 39.7494267, "経度": 141.1975813, "url": "https://www.kaigokensaku.mhlw.go.jp/03/index.php?action_kouhyou_detail_004_kani=true&JigyosyoCd=390100261-00&ServiceCd=320&Type=search", "url2": "http://www.s-yamaboshi.com/", "内容": "グループホームやまぼうし桜台【認知症対応型共同生活介護】岩手県盛岡市桜台二丁目１８番地３号", "サービスの種類": "認知症対応型共同生活介護" }, "geometry": { "type": "Point", "coordinates": [ 141.1975813, 39.7494267 ] } },
{ "type": "Feature", "properties": { "緯度": 39.6799361, "経度": 141.1530568, "url": "https://www.kaigokensaku.mhlw.go.jp/03/index.php?action_kouhyou_detail_004_kani=true&JigyosyoCd=370101362-00&ServiceCd=320&Type=search", "url2": null, "内容": "グループホーム絆【認知症対応型共同生活介護】岩手県盛岡市仙北三丁目１４－４１", "サービスの種類": "認知症対応型共同生活介護" }, "geometry": { "type": "Point", "coordinates": [ 141.1530568, 39.6799361 ] } },
{ "type": "Feature", "properties": { "緯度": 39.869488859799297, "経度": 141.16912889790001, "url": "https://www.kaigokensaku.mhlw.go.jp/03/index.php?action_kouhyou_detail_004_kani=true&JigyosyoCd=390100790-00&ServiceCd=320&Type=search", "url2": null, "内容": "けあビジョンホーム盛岡【認知症対応型共同生活介護】岩手県盛岡市好摩字夏間木70-252", "サービスの種類": "認知症対応型共同生活介護" }, "geometry": { "type": "Point", "coordinates": [ 141.169128897900009, 39.869488859799297 ] } },
{ "type": "Feature", "properties": { "緯度": 39.6363137, "経度": 141.1917639, "url": "https://www.kaigokensaku.mhlw.go.jp/03/index.php?action_kouhyou_detail_004_kani=true&JigyosyoCd=390100055-00&ServiceCd=320&Type=search", "url2": null, "内容": "流通商事株式会社グループホームゆうゆう黒川【認知症対応型共同生活介護】岩手県盛岡市黒川７地割３７番地８", "サービスの種類": "認知症対応型共同生活介護" }, "geometry": { "type": "Point", "coordinates": [ 141.191763900000012, 39.6363137 ] } },
{ "type": "Feature", "properties": { "緯度": 39.7239227, "経度": 141.1600077, "url": "https://www.kaigokensaku.mhlw.go.jp/03/index.php?action_kouhyou_detail_004_kani=true&JigyosyoCd=390100089-00&ServiceCd=320&Type=search", "url2": "https://gh-fukujusou.jp", "内容": "グループホームふくじゅそう【認知症対応型共同生活介護】岩手県盛岡市三ツ割字上岩清水５－１", "サービスの種類": "認知症対応型共同生活介護" }, "geometry": { "type": "Point", "coordinates": [ 141.1600077, 39.7239227 ] } },
{ "type": "Feature", "properties": { "緯度": 39.848141636011803, "経度": 141.16900173599899, "url": "https://www.kaigokensaku.mhlw.go.jp/03/index.php?action_kouhyou_detail_004_kani=true&JigyosyoCd=390100139-00&ServiceCd=320&Type=search", "url2": null, "内容": "グループホームゆうゆう渋民【認知症対応型共同生活介護】岩手県盛岡市渋民字泉田178", "サービスの種類": "認知症対応型共同生活介護" }, "geometry": { "type": "Point", "coordinates": [ 141.169001735998989, 39.848141636011803 ] } },
{ "type": "Feature", "properties": { "緯度": 39.7136359, "経度": 141.1861667, "url": "https://www.kaigokensaku.mhlw.go.jp/03/index.php?action_kouhyou_detail_004_kani=true&JigyosyoCd=390100147-00&ServiceCd=320&Type=search", "url2": "http://www.hearty-m.com/seihukuen/", "内容": "グループホーム浅岸静福園【認知症対応型共同生活介護】岩手県盛岡市浅岸字橋場１６－２", "サービスの種類": "認知症対応型共同生活介護" }, "geometry": { "type": "Point", "coordinates": [ 141.1861667, 39.7136359 ] } },
{ "type": "Feature", "properties": { "緯度": 39.7158179, "経度": 141.1501588, "url": "https://www.kaigokensaku.mhlw.go.jp/03/index.php?action_kouhyou_detail_004_kani=true&JigyosyoCd=390100329-00&ServiceCd=320&Type=search", "url2": "https://nugumaru.com", "内容": "グループホームぬぐまるの家【認知症対応型共同生活介護】岩手県盛岡市北山1丁目16番15号", "サービスの種類": "認知症対応型共同生活介護" }, "geometry": { "type": "Point", "coordinates": [ 141.150158800000014, 39.7158179 ] } },
{ "type": "Feature", "properties": { "緯度": 39.726572570317998, "経度": 141.136234706978, "url": "https://www.kaigokensaku.mhlw.go.jp/03/index.php?action_kouhyou_detail_004_kani=true&JigyosyoCd=390100626-00&ServiceCd=320&Type=search", "url2": "http://nugumaru.com", "内容": "グループホーム喜久〇【認知症対応型共同生活介護】岩手県盛岡市高松4丁目3番6号", "サービスの種類": "認知症対応型共同生活介護" }, "geometry": { "type": "Point", "coordinates": [ 141.136234706978001, 39.726572570317998 ] } },
{ "type": "Feature", "properties": { "緯度": 39.686519120173003, "経度": 141.12428337976201, "url": "https://www.kaigokensaku.mhlw.go.jp/03/index.php?action_kouhyou_detail_004_kani=true&JigyosyoCd=390100774-00&ServiceCd=320&Type=search", "url2": "https://www.tsukui.net/group/2771/news/", "内容": "ツクイ盛岡本宮グループホーム【認知症対応型共同生活介護】岩手県盛岡市本宮6丁目6番10号ツクイ盛岡本宮グループホーム", "サービスの種類": "認知症対応型共同生活介護" }, "geometry": { "type": "Point", "coordinates": [ 141.124283379762005, 39.686519120173003 ] } },
{ "type": "Feature", "properties": { "緯度": 39.6605855, "経度": 141.1590182, "url": "https://www.kaigokensaku.mhlw.go.jp/03/index.php?action_kouhyou_detail_004_kani=true&JigyosyoCd=370101917-00&ServiceCd=320&Type=search", "url2": "http://www.kaigo-gh.co.jp", "内容": "グループホーム都南太陽荘【認知症対応型共同生活介護】岩手県盛岡市津志田中央二丁目3番20号", "サービスの種類": "認知症対応型共同生活介護" }, "geometry": { "type": "Point", "coordinates": [ 141.1590182, 39.6605855 ] } },
{ "type": "Feature", "properties": { "緯度": 39.6500835, "経度": 141.1456451, "url": "https://www.kaigokensaku.mhlw.go.jp/03/index.php?action_kouhyou_detail_004_kani=true&JigyosyoCd=370101404-00&ServiceCd=320&Type=search", "url2": "https://www.morioka-medi-coop.com/", "内容": "盛岡医療生活協同組合グループホーム「さくらの家」【認知症対応型共同生活介護】岩手県盛岡市永井19地割37番地５", "サービスの種類": "認知症対応型共同生活介護" }, "geometry": { "type": "Point", "coordinates": [ 141.1456451, 39.6500835 ] } },
{ "type": "Feature", "properties": { "緯度": 39.6703651, "経度": 141.1709722, "url": "https://www.kaigokensaku.mhlw.go.jp/03/index.php?action_kouhyou_detail_004_kani=true&JigyosyoCd=390100048-00&ServiceCd=320&Type=search", "url2": null, "内容": "グループホームサンパーク笑う門【認知症対応型共同生活介護】岩手県盛岡市門一丁目15-27", "サービスの種類": "認知症対応型共同生活介護" }, "geometry": { "type": "Point", "coordinates": [ 141.1709722, 39.6703651 ] } },
{ "type": "Feature", "properties": { "緯度": 39.762909743521398, "経度": 141.17679234470501, "url": "https://www.kaigokensaku.mhlw.go.jp/03/index.php?action_kouhyou_detail_004_kani=true&JigyosyoCd=390100220-00&ServiceCd=320&Type=search", "url2": "https://emuzu-fukinotou.co.jp", "内容": "グループホームふきのとう北松園【認知症対応型共同生活介護】岩手県盛岡市北松園4丁目36番87号", "サービスの種類": "認知症対応型共同生活介護" }, "geometry": { "type": "Point", "coordinates": [ 141.176792344705007, 39.762909743521398 ] } },
{ "type": "Feature", "properties": { "緯度": 39.843604, "経度": 141.1680561, "url": "https://www.kaigokensaku.mhlw.go.jp/03/index.php?action_kouhyou_detail_004_kani=true&JigyosyoCd=390100154-00&ServiceCd=320&Type=search", "url2": "https://siriuscare.jp", "内容": "グループホームシリウス姫神【認知症対応型共同生活介護】岩手県盛岡市渋民字駅105番地", "サービスの種類": "認知症対応型共同生活介護" }, "geometry": { "type": "Point", "coordinates": [ 141.1680561, 39.843604 ] } },
{ "type": "Feature", "properties": { "緯度": 39.7279881273314, "経度": 141.142428738733, "url": "https://www.kaigokensaku.mhlw.go.jp/03/index.php?action_kouhyou_detail_004_kani=true&JigyosyoCd=390100410-00&ServiceCd=320&Type=search", "url2": "http://www.sakuraginosato.jp/", "内容": "グループホームさくらぎ【認知症対応型共同生活介護】岩手県盛岡市高松3丁目13番15号", "サービスの種類": "認知症対応型共同生活介護" }, "geometry": { "type": "Point", "coordinates": [ 141.142428738733003, 39.7279881273314 ] } },
{ "type": "Feature", "properties": { "緯度": 39.6796266, "経度": 141.164768, "url": "https://www.kaigokensaku.mhlw.go.jp/03/index.php?action_kouhyou_detail_004_kani=true&JigyosyoCd=390100642-00&ServiceCd=320&Type=search", "url2": "https://sankyo-ika.jp", "内容": "あったかいごグループホーム東安庭【認知症対応型共同生活介護】岩手県盛岡市東安庭1丁目23-70あったかいごグループホーム東安庭", "サービスの種類": "認知症対応型共同生活介護" }, "geometry": { "type": "Point", "coordinates": [ 141.164768, 39.6796266 ] } },
{ "type": "Feature", "properties": { "緯度": 39.6886949, "経度": 141.1601699, "url": "https://www.kaigokensaku.mhlw.go.jp/03/index.php?action_kouhyou_detail_004_kani=true&JigyosyoCd=390100659-00&ServiceCd=320&Type=search", "url2": null, "内容": "グループホームあったかいご神子田マルシェ【認知症対応型共同生活介護】岩手県盛岡市神子田町6-12", "サービスの種類": "認知症対応型共同生活介護" }, "geometry": { "type": "Point", "coordinates": [ 141.1601699, 39.6886949 ] } },
{ "type": "Feature", "properties": { "緯度": 39.6806097, "経度": 141.1378145, "url": "https://www.kaigokensaku.mhlw.go.jp/03/index.php?action_kouhyou_detail_004_kani=true&JigyosyoCd=390100675-00&ServiceCd=320&Type=search", "url2": "http://www.sankyo-ika.jp", "内容": "グループホームみんなのいえ【認知症対応型共同生活介護】岩手県盛岡市向中野2丁目55番6号", "サービスの種類": "認知症対応型共同生活介護" }, "geometry": { "type": "Point", "coordinates": [ 141.1378145, 39.6806097 ] } },
{ "type": "Feature", "properties": { "緯度": 39.6960581, "経度": 141.1176068, "url": "https://www.kaigokensaku.mhlw.go.jp/03/index.php?action_kouhyou_detail_004_kani=true&JigyosyoCd=370101875-00&ServiceCd=320&Type=search", "url2": null, "内容": "グループホーム田園【認知症対応型共同生活介護】岩手県盛岡市太田3-17-36", "サービスの種類": "認知症対応型共同生活介護" }, "geometry": { "type": "Point", "coordinates": [ 141.1176068, 39.6960581 ] } },
{ "type": "Feature", "properties": { "緯度": 39.709815055230003, "経度": 141.11638117196699, "url": "https://www.kaigokensaku.mhlw.go.jp/03/index.php?action_kouhyou_detail_004_kani=true&JigyosyoCd=390100170-00&ServiceCd=320&Type=search", "url2": null, "内容": "グループホームたんぽぽ【認知症対応型共同生活介護】岩手県盛岡市稲荷町2-5", "サービスの種類": "認知症対応型共同生活介護" }, "geometry": { "type": "Point", "coordinates": [ 141.116381171966992, 39.709815055230003 ] } },
{ "type": "Feature", "properties": { "緯度": 39.6861022, "経度": 141.1612337, "url": "https://www.kaigokensaku.mhlw.go.jp/03/index.php?action_kouhyou_detail_004_kani=true&JigyosyoCd=390100246-00&ServiceCd=320&Type=search", "url2": "http://www.kyoueitecs.jp/", "内容": "グループホームあやめ【認知症対応型共同生活介護】岩手県盛岡市神子田町８－２７", "サービスの種類": "認知症対応型共同生活介護" }, "geometry": { "type": "Point", "coordinates": [ 141.1612337, 39.6861022 ] } },
{ "type": "Feature", "properties": { "緯度": 39.675181, "経度": 141.1493323, "url": "https://www.kaigokensaku.mhlw.go.jp/03/index.php?action_kouhyou_detail_004_kani=true&JigyosyoCd=390100394-00&ServiceCd=320&Type=search", "url2": null, "内容": "グループホームなの花【認知症対応型共同生活介護】岩手県盛岡市仙北2-4-2", "サービスの種類": "認知症対応型共同生活介護" }, "geometry": { "type": "Point", "coordinates": [ 141.1493323, 39.675181 ] } },
{ "type": "Feature", "properties": { "緯度": 39.709347247929799, "経度": 141.13639389540401, "url": "https://www.kaigokensaku.mhlw.go.jp/03/index.php?action_kouhyou_detail_004_kani=true&JigyosyoCd=390100592-00&ServiceCd=320&Type=search", "url2": "https://www.kyoueitecs.jp", "内容": "グループホームやまぶき【認知症対応型共同生活介護】岩手県盛岡市梨木町5-55", "サービスの種類": "認知症対応型共同生活介護" }, "geometry": { "type": "Point", "coordinates": [ 141.136393895404012, 39.709347247929799 ] } },
{ "type": "Feature", "properties": { "緯度": 39.6162066, "経度": 141.9568958, "url": "https://www.kaigokensaku.mhlw.go.jp/03/index.php?action_kouhyou_detail_004_kani=true&JigyosyoCd=390200152-00&ServiceCd=320&Type=search", "url2": "http://www.hohoeminosato.jp/group/", "内容": "グループホームふじのかわ【認知症対応型共同生活介護】岩手県宮古市藤の川11番5号", "サービスの種類": "認知症対応型共同生活介護" }, "geometry": { "type": "Point", "coordinates": [ 141.956895800000012, 39.6162066 ] } },
{ "type": "Feature", "properties": { "緯度": 39.764192043089899, "経度": 141.96488785026301, "url": "https://www.kaigokensaku.mhlw.go.jp/03/index.php?action_kouhyou_detail_004_kani=true&JigyosyoCd=390200210-00&ServiceCd=320&Type=search", "url2": "http://www.hohoeminosato.jp/", "内容": "グループホームおもつべ【認知症対応型共同生活介護】岩手県宮古市田老字重津部34番地77", "サービスの種類": "認知症対応型共同生活介護" }, "geometry": { "type": "Point", "coordinates": [ 141.964887850263011, 39.764192043089899 ] } },
{ "type": "Feature", "properties": { "緯度": 39.6679919, "経度": 141.958556, "url": "https://www.kaigokensaku.mhlw.go.jp/03/index.php?action_kouhyou_detail_004_kani=true&JigyosyoCd=390200103-00&ServiceCd=320&Type=search", "url2": "http://www.hohoeminosato.jp/group/", "内容": "グループホームすまいる2号館【認知症対応型共同生活介護】岩手県宮古市崎鍬ヶ崎第9地割39番地70", "サービスの種類": "認知症対応型共同生活介護" }, "geometry": { "type": "Point", "coordinates": [ 141.958556, 39.6679919 ] } },
{ "type": "Feature", "properties": { "緯度": 39.6688196, "経度": 141.9580755, "url": "https://www.kaigokensaku.mhlw.go.jp/03/index.php?action_kouhyou_detail_004_kani=true&JigyosyoCd=390200111-00&ServiceCd=320&Type=search", "url2": "http://www.hohoeminosato.jp/group/", "内容": "グループホームすまいる【認知症対応型共同生活介護】岩手県宮古市崎鍬ヶ崎第９地割３９番地３４", "サービスの種類": "認知症対応型共同生活介護" }, "geometry": { "type": "Point", "coordinates": [ 141.9580755, 39.6688196 ] } },
{ "type": "Feature", "properties": { "緯度": 39.6679919, "経度": 141.958556, "url": "https://www.kaigokensaku.mhlw.go.jp/03/index.php?action_kouhyou_detail_004_kani=true&JigyosyoCd=390200129-00&ServiceCd=320&Type=search", "url2": "http://www.hohoeminosato.jp/group/", "内容": "グループホームたろう【認知症対応型共同生活介護】岩手県宮古市崎鍬ヶ崎第９地割３９番地１", "サービスの種類": "認知症対応型共同生活介護" }, "geometry": { "type": "Point", "coordinates": [ 141.958556, 39.6679919 ] } },
{ "type": "Feature", "properties": { "緯度": 39.6481417, "経度": 141.960167, "url": "https://www.kaigokensaku.mhlw.go.jp/03/index.php?action_kouhyou_detail_004_kani=true&JigyosyoCd=390200160-00&ServiceCd=320&Type=search", "url2": null, "内容": "グループホーム・愛宕の丘【認知症対応型共同生活介護】岩手県宮古市中里団地４－１１", "サービスの種類": "認知症対応型共同生活介護" }, "geometry": { "type": "Point", "coordinates": [ 141.960167, 39.6481417 ] } },
{ "type": "Feature", "properties": { "緯度": 39.7111007, "経度": 141.9824332, "url": "https://www.kaigokensaku.mhlw.go.jp/03/index.php?action_kouhyou_detail_004_kani=true&JigyosyoCd=390200202-00&ServiceCd=320&Type=search", "url2": null, "内容": "グループホーム・樫内【認知症対応型共同生活介護】岩手県宮古市田老字西向山119-16", "サービスの種類": "認知症対応型共同生活介護" }, "geometry": { "type": "Point", "coordinates": [ 141.9824332, 39.7111007 ] } },
{ "type": "Feature", "properties": { "緯度": 39.6557372, "経度": 141.9322168, "url": "https://www.kaigokensaku.mhlw.go.jp/03/index.php?action_kouhyou_detail_004_kani=true&JigyosyoCd=370200297-00&ServiceCd=320&Type=search", "url2": "http://www.kakinokihome@shinwa-kai.jp", "内容": "老人グループホーム柿の木ホーム【認知症対応型共同生活介護】岩手県宮古市山口五丁目3-30", "サービスの種類": "認知症対応型共同生活介護" }, "geometry": { "type": "Point", "coordinates": [ 141.9322168, 39.6557372 ] } },
{ "type": "Feature", "properties": { "緯度": 39.558487718897297, "経度": 141.93211524767699, "url": "https://www.kaigokensaku.mhlw.go.jp/03/index.php?action_kouhyou_detail_004_kani=true&JigyosyoCd=390200301-00&ServiceCd=320&Type=search", "url2": null, "内容": "グループホームひなた【認知症対応型共同生活介護】岩手県宮古市津軽石第13地割208番地160", "サービスの種類": "認知症対応型共同生活介護" }, "geometry": { "type": "Point", "coordinates": [ 141.93211524767699, 39.558487718897297 ] } },
{ "type": "Feature", "properties": { "緯度": 39.6480026, "経度": 141.9380159, "url": "https://www.kaigokensaku.mhlw.go.jp/03/index.php?action_kouhyou_detail_004_kani=true&JigyosyoCd=390200319-00&ServiceCd=320&Type=search", "url2": null, "内容": "グループホームあすも【認知症対応型共同生活介護】岩手県宮古市田の神二丁目４番２８号", "サービスの種類": "認知症対応型共同生活介護" }, "geometry": { "type": "Point", "coordinates": [ 141.938015900000011, 39.6480026 ] } },
{ "type": "Feature", "properties": { "緯度": 39.643869, "経度": 141.9272089, "url": "https://www.kaigokensaku.mhlw.go.jp/03/index.php?action_kouhyou_detail_004_kani=true&JigyosyoCd=390200046-00&ServiceCd=320&Type=search", "url2": null, "内容": "グループホームえくぼ【認知症対応型共同生活介護】岩手県宮古市長根四丁目13番1号", "サービスの種類": "認知症対応型共同生活介護" }, "geometry": { "type": "Point", "coordinates": [ 141.927208900000011, 39.643869 ] } },
{ "type": "Feature", "properties": { "緯度": 39.6177326, "経度": 141.9066395, "url": "https://www.kaigokensaku.mhlw.go.jp/03/index.php?action_kouhyou_detail_004_kani=true&JigyosyoCd=390200137-00&ServiceCd=320&Type=search", "url2": null, "内容": "グループホームさくらつつみ【認知症対応型共同生活介護】岩手県宮古市田鎖第５地割３３－４", "サービスの種類": "認知症対応型共同生活介護" }, "geometry": { "type": "Point", "coordinates": [ 141.906639500000011, 39.6177326 ] } },
{ "type": "Feature", "properties": { "緯度": 39.5786859, "経度": 141.9506259, "url": "https://www.kaigokensaku.mhlw.go.jp/03/index.php?action_kouhyou_detail_004_kani=true&JigyosyoCd=390200178-00&ServiceCd=320&Type=search", "url2": null, "内容": "あお空グループホーム赤前【認知症対応型共同生活介護】岩手県宮古市赤前第4地割83番地", "サービスの種類": "認知症対応型共同生活介護" }, "geometry": { "type": "Point", "coordinates": [ 141.9506259, 39.5786859 ] } },
{ "type": "Feature", "properties": { "緯度": 39.6416673, "経度": 141.9542704, "url": "https://www.kaigokensaku.mhlw.go.jp/03/index.php?action_kouhyou_detail_004_kani=true&JigyosyoCd=390200335-00&ServiceCd=320&Type=search", "url2": null, "内容": "あお空グループホーム向町【認知症対応型共同生活介護】岩手県宮古市向町２番34号坂下賃貸ビル3Ｆ", "サービスの種類": "認知症対応型共同生活介護" }, "geometry": { "type": "Point", "coordinates": [ 141.954270400000013, 39.6416673 ] } },
{ "type": "Feature", "properties": { "緯度": 39.6302517, "経度": 141.8378265, "url": "https://www.kaigokensaku.mhlw.go.jp/03/index.php?action_kouhyou_detail_004_kani=true&JigyosyoCd=390200293-00&ServiceCd=320&Type=search", "url2": null, "内容": "JAライフサポートグループホームひきめの森【認知症対応型共同生活介護】岩手県宮古市蟇目第5地割48番2号", "サービスの種類": "認知症対応型共同生活介護" }, "geometry": { "type": "Point", "coordinates": [ 141.8378265, 39.6302517 ] } },
{ "type": "Feature", "properties": { "緯度": 39.6271326, "経度": 141.8372322, "url": "https://www.kaigokensaku.mhlw.go.jp/03/index.php?action_kouhyou_detail_004_kani=true&JigyosyoCd=390200327-00&ServiceCd=320&Type=search", "url2": null, "内容": "ＪＡライフサポートグループホーム花＊花【認知症対応型共同生活介護】岩手県宮古市蟇目第3地割15番1", "サービスの種類": "認知症対応型共同生活介護" }, "geometry": { "type": "Point", "coordinates": [ 141.837232199999988, 39.6271326 ] } },
{ "type": "Feature", "properties": { "緯度": 39.6375055, "経度": 141.9158045, "url": "https://www.kaigokensaku.mhlw.go.jp/03/index.php?action_kouhyou_detail_004_kani=true&JigyosyoCd=390200079-00&ServiceCd=320&Type=search", "url2": "http://www.wakatakekai.or.jp/", "内容": "グループホームサンフラワー【認知症対応型共同生活介護】岩手県宮古市板屋4丁目4番2号", "サービスの種類": "認知症対応型共同生活介護" }, "geometry": { "type": "Point", "coordinates": [ 141.9158045, 39.6375055 ] } },
{ "type": "Feature", "properties": { "緯度": 39.616769163964697, "経度": 141.94089950248599, "url": "https://www.kaigokensaku.mhlw.go.jp/03/index.php?action_kouhyou_detail_004_kani=true&JigyosyoCd=390200228-00&ServiceCd=320&Type=search", "url2": "https://lifesupportyuyu.com", "内容": "グループホームゆうゆう八木沢【認知症対応型共同生活介護】岩手県宮古市八木沢第５地割８５番地１", "サービスの種類": "認知症対応型共同生活介護" }, "geometry": { "type": "Point", "coordinates": [ 141.940899502485991, 39.616769163964697 ] } },
{ "type": "Feature", "properties": { "緯度": 39.6168966, "経度": 141.9418658, "url": "https://www.kaigokensaku.mhlw.go.jp/03/index.php?action_kouhyou_detail_004_kani=true&JigyosyoCd=390200376-00&ServiceCd=320&Type=search", "url2": null, "内容": "グループホームゆい八木沢【認知症対応型共同生活介護】岩手県宮古市八木沢四丁目５番33号", "サービスの種類": "認知症対応型共同生活介護" }, "geometry": { "type": "Point", "coordinates": [ 141.941865799999988, 39.6168966 ] } },
{ "type": "Feature", "properties": { "緯度": 39.1252822596865, "経度": 141.80618906881699, "url": "https://www.kaigokensaku.mhlw.go.jp/03/index.php?action_kouhyou_detail_004_kani=true&JigyosyoCd=370300196-00&ServiceCd=320&Type=search", "url2": null, "内容": "認知症高齢者グループホームさんりく【認知症対応型共同生活介護】岩手県大船渡市三陸町越喜来字所通９１番地", "サービスの種類": "認知症対応型共同生活介護" }, "geometry": { "type": "Point", "coordinates": [ 141.806189068816991, 39.1252822596865 ] } },
{ "type": "Feature", "properties": { "緯度": 39.0770862, "経度": 141.746641, "url": "https://www.kaigokensaku.mhlw.go.jp/03/index.php?action_kouhyou_detail_004_kani=true&JigyosyoCd=390300085-00&ServiceCd=320&Type=search", "url2": null, "内容": "グループホーム「後ノ入」【認知症対応型共同生活介護】岩手県大船渡市赤崎町字後ノ入７３番地３", "サービスの種類": "認知症対応型共同生活介護" }, "geometry": { "type": "Point", "coordinates": [ 141.746641, 39.0770862 ] } },
{ "type": "Feature", "properties": { "緯度": 39.070629, "経度": 141.7110161, "url": "https://www.kaigokensaku.mhlw.go.jp/03/index.php?action_kouhyou_detail_004_kani=true&JigyosyoCd=390300176-00&ServiceCd=320&Type=search", "url2": "http://tenjinkai.com", "内容": "グループホーム「ひまわり」【認知症対応型共同生活介護】岩手県大船渡市大船渡町字山馬越197番地", "サービスの種類": "認知症対応型共同生活介護" }, "geometry": { "type": "Point", "coordinates": [ 141.7110161, 39.070629 ] } },
{ "type": "Feature", "properties": { "緯度": 39.0428422, "経度": 141.7173247, "url": "https://www.kaigokensaku.mhlw.go.jp/03/index.php?action_kouhyou_detail_004_kani=true&JigyosyoCd=390300077-00&ServiceCd=320&Type=search", "url2": "http://www.tenjinkai.com/", "内容": "グループホーム「平」【認知症対応型共同生活介護】岩手県大船渡市大船渡町字下平２４－１", "サービスの種類": "認知症対応型共同生活介護" }, "geometry": { "type": "Point", "coordinates": [ 141.7173247, 39.0428422 ] } },
{ "type": "Feature", "properties": { "緯度": 39.054656713836103, "経度": 141.797217954384, "url": "https://www.kaigokensaku.mhlw.go.jp/03/index.php?action_kouhyou_detail_004_kani=true&JigyosyoCd=370300311-00&ServiceCd=320&Type=search", "url2": "http://www.shokyukai.or.jp", "内容": "グループホーム「綾の里」【認知症対応型共同生活介護】岩手県大船渡市三陸町綾里字清水１２５－２", "サービスの種類": "認知症対応型共同生活介護" }, "geometry": { "type": "Point", "coordinates": [ 141.797217954383996, 39.054656713836103 ] } },
{ "type": "Feature", "properties": { "緯度": 39.0867588, "経度": 141.707716, "url": "https://www.kaigokensaku.mhlw.go.jp/03/index.php?action_kouhyou_detail_004_kani=true&JigyosyoCd=390300051-00&ServiceCd=320&Type=search", "url2": "http://www.i-seijinkai.jp/", "内容": "グループホームまちぐるみ【認知症対応型共同生活介護】岩手県大船渡市盛町字町3-1蔵ハウス大船渡　グループホームまちぐるみ", "サービスの種類": "認知症対応型共同生活介護" }, "geometry": { "type": "Point", "coordinates": [ 141.707716, 39.0867588 ] } },
{ "type": "Feature", "properties": { "緯度": 39.0863303, "経度": 141.7079842, "url": "https://www.kaigokensaku.mhlw.go.jp/03/index.php?action_kouhyou_detail_004_kani=true&JigyosyoCd=390300192-00&ServiceCd=320&Type=search", "url2": "http://www.i-seijinkai.jp/", "内容": "グループホームさくら亭【認知症対応型共同生活介護】岩手県大船渡市盛町字町３－８", "サービスの種類": "認知症対応型共同生活介護" }, "geometry": { "type": "Point", "coordinates": [ 141.7079842, 39.0863303 ] } },
{ "type": "Feature", "properties": { "緯度": 39.357680764507101, "経度": 141.051331914017, "url": "https://www.kaigokensaku.mhlw.go.jp/03/index.php?action_kouhyou_detail_004_kani=true&JigyosyoCd=390500296-00&ServiceCd=320&Type=search", "url2": "https://www.jahanamaki.or.jp/fukushi/community_based/index.html", "内容": "JAいわて花巻グループホームとどろき【認知症対応型共同生活介護】岩手県花巻市北笹間13地割71番地", "サービスの種類": "認知症対応型共同生活介護" }, "geometry": { "type": "Point", "coordinates": [ 141.051331914016998, 39.357680764507101 ] } },
{ "type": "Feature", "properties": { "緯度": 39.4424261, "経度": 141.0711622, "url": "https://www.kaigokensaku.mhlw.go.jp/03/index.php?action_kouhyou_detail_004_kani=true&JigyosyoCd=390500304-00&ServiceCd=320&Type=search", "url2": null, "内容": "グループホーム金矢【認知症対応型共同生活介護】岩手県花巻市湯本第19地割380番地1", "サービスの種類": "認知症対応型共同生活介護" }, "geometry": { "type": "Point", "coordinates": [ 141.0711622, 39.4424261 ] } },
{ "type": "Feature", "properties": { "緯度": 39.3973654, "経度": 141.1967023, "url": "https://www.kaigokensaku.mhlw.go.jp/03/index.php?action_kouhyou_detail_004_kani=true&JigyosyoCd=370500449-00&ServiceCd=320&Type=search", "url2": "http://www.ginganosato.com", "内容": "認知症高齢者グループホーム銀河の里【認知症対応型共同生活介護】岩手県花巻市幸田4-116-1", "サービスの種類": "認知症対応型共同生活介護" }, "geometry": { "type": "Point", "coordinates": [ 141.1967023, 39.3973654 ] } },
{ "type": "Feature", "properties": { "緯度": 39.4025843, "経度": 141.2020933, "url": "https://www.kaigokensaku.mhlw.go.jp/03/index.php?action_kouhyou_detail_004_kani=true&JigyosyoCd=390500205-00&ServiceCd=320&Type=search", "url2": "http://www.ginganosato.com/", "内容": "認知症高齢者グループホーム銀河の里第２【認知症対応型共同生活介護】岩手県花巻市幸田4-116-1", "サービスの種類": "認知症対応型共同生活介護" }, "geometry": { "type": "Point", "coordinates": [ 141.2020933, 39.4025843 ] } },
{ "type": "Feature", "properties": { "緯度": 39.469234, "経度": 141.291847, "url": "https://www.kaigokensaku.mhlw.go.jp/03/index.php?action_kouhyou_detail_004_kani=true&JigyosyoCd=372300327-00&ServiceCd=320&Type=search", "url2": "https://tomoniayumukai.com/", "内容": "グループホームぶどう苑【認知症対応型共同生活介護】岩手県花巻市大迫町大迫1-4-55", "サービスの種類": "認知症対応型共同生活介護" }, "geometry": { "type": "Point", "coordinates": [ 141.291847, 39.469234 ] } },
{ "type": "Feature", "properties": { "緯度": 39.3850699, "経度": 141.2237196, "url": "https://www.kaigokensaku.mhlw.go.jp/03/index.php?action_kouhyou_detail_004_kani=true&JigyosyoCd=372400259-00&ServiceCd=320&Type=search", "url2": "http://www.yuyu-nagomi.com", "内容": "グループホームなごみ【認知症対応型共同生活介護】岩手県花巻市東和町安俵６区９７番地", "サービスの種類": "認知症対応型共同生活介護" }, "geometry": { "type": "Point", "coordinates": [ 141.22371960000001, 39.3850699 ] } },
{ "type": "Feature", "properties": { "緯度": 39.3850699, "経度": 141.2237196, "url": "https://www.kaigokensaku.mhlw.go.jp/03/index.php?action_kouhyou_detail_004_kani=true&JigyosyoCd=390500114-00&ServiceCd=320&Type=search", "url2": "http://www.yuyu-nagomi.com", "内容": "グループホームなごみⅡ【認知症対応型共同生活介護】岩手県花巻市東和町安俵6区97番地", "サービスの種類": "認知症対応型共同生活介護" }, "geometry": { "type": "Point", "coordinates": [ 141.22371960000001, 39.3850699 ] } },
{ "type": "Feature", "properties": { "緯度": 39.4995102, "経度": 141.1396978, "url": "https://www.kaigokensaku.mhlw.go.jp/03/index.php?action_kouhyou_detail_004_kani=true&JigyosyoCd=390500130-00&ServiceCd=320&Type=search", "url2": "https://www.ghrindo.com/", "内容": "グループホームりんどう【認知症対応型共同生活介護】岩手県花巻市石鳥谷町北寺林１１－１４０３", "サービスの種類": "認知症対応型共同生活介護" }, "geometry": { "type": "Point", "coordinates": [ 141.1396978, 39.4995102 ] } },
{ "type": "Feature", "properties": { "緯度": 39.3937113, "経度": 141.1255664, "url": "https://www.kaigokensaku.mhlw.go.jp/03/index.php?action_kouhyou_detail_004_kani=true&JigyosyoCd=390500155-00&ServiceCd=320&Type=search", "url2": "https://tomoniayumukai.com/", "内容": "グループホームこぶなと【認知症対応型共同生活介護】岩手県花巻市下小舟渡262-1", "サービスの種類": "認知症対応型共同生活介護" }, "geometry": { "type": "Point", "coordinates": [ 141.1255664, 39.3937113 ] } },
{ "type": "Feature", "properties": { "緯度": 39.4081747, "経度": 141.1689205, "url": "https://www.kaigokensaku.mhlw.go.jp/03/index.php?action_kouhyou_detail_004_kani=true&JigyosyoCd=390500189-00&ServiceCd=320&Type=search", "url2": "http://www.koshiou.sakura.ne.jp", "内容": "グループホームだんけ胡四王【認知症対応型共同生活介護】岩手県花巻市胡四王一丁目１５番地５", "サービスの種類": "認知症対応型共同生活介護" }, "geometry": { "type": "Point", "coordinates": [ 141.168920500000013, 39.4081747 ] } },
{ "type": "Feature", "properties": { "緯度": 39.3888475, "経度": 141.0997944, "url": "https://www.kaigokensaku.mhlw.go.jp/03/index.php?action_kouhyou_detail_004_kani=true&JigyosyoCd=390500056-00&ServiceCd=320&Type=search", "url2": "https://poccapoca-grants.jp/", "内容": "グループホームぽっかぽか花巻中央【認知症対応型共同生活介護】岩手県花巻市南万丁目１１６３番地３", "サービスの種類": "認知症対応型共同生活介護" }, "geometry": { "type": "Point", "coordinates": [ 141.0997944, 39.3888475 ] } },
{ "type": "Feature", "properties": { "緯度": 39.4056494, "経度": 141.0203568, "url": "https://www.kaigokensaku.mhlw.go.jp/03/index.php?action_kouhyou_detail_004_kani=true&JigyosyoCd=370500779-00&ServiceCd=320&Type=search", "url2": "http://ootanisou.jp", "内容": "グループホームおおたに【認知症対応型共同生活介護】岩手県花巻市湯口字松原55番地23", "サービスの種類": "認知症対応型共同生活介護" }, "geometry": { "type": "Point", "coordinates": [ 141.0203568, 39.4056494 ] } },
{ "type": "Feature", "properties": { "緯度": 39.5012771, "経度": 141.1574406, "url": "https://www.kaigokensaku.mhlw.go.jp/03/index.php?action_kouhyou_detail_004_kani=true&JigyosyoCd=372300244-00&ServiceCd=320&Type=search", "url2": "https://www.houjyukai-iwate.com/", "内容": "はなみずき石鳥谷【認知症対応型共同生活介護】岩手県花巻市石鳥谷町上口１丁目3-1", "サービスの種類": "認知症対応型共同生活介護" }, "geometry": { "type": "Point", "coordinates": [ 141.1574406, 39.5012771 ] } },
{ "type": "Feature", "properties": { "緯度": 39.413081, "経度": 141.1197133, "url": "https://www.kaigokensaku.mhlw.go.jp/03/index.php?action_kouhyou_detail_004_kani=true&JigyosyoCd=390500122-00&ServiceCd=320&Type=search", "url2": null, "内容": "グループホーム宮ノ里【認知症対応型共同生活介護】岩手県花巻市西宮野目第１３地割１２１番２", "サービスの種類": "認知症対応型共同生活介護" }, "geometry": { "type": "Point", "coordinates": [ 141.1197133, 39.413081 ] } },
{ "type": "Feature", "properties": { "緯度": 39.5032076, "経度": 141.1611513, "url": "https://www.kaigokensaku.mhlw.go.jp/03/index.php?action_kouhyou_detail_004_kani=true&JigyosyoCd=390500148-00&ServiceCd=320&Type=search", "url2": "https://www.ishidoriyasou.jp", "内容": "グループホームいしどりや荘【認知症対応型共同生活介護】岩手県花巻市石鳥谷町好地14-10", "サービスの種類": "認知症対応型共同生活介護" }, "geometry": { "type": "Point", "coordinates": [ 141.1611513, 39.5032076 ] } },
{ "type": "Feature", "properties": { "緯度": 39.282045810913502, "経度": 141.13987961387801, "url": "https://www.kaigokensaku.mhlw.go.jp/03/index.php?action_kouhyou_detail_004_kani=true&JigyosyoCd=390600229-00&ServiceCd=320&Type=search", "url2": "https://yachidamonoie.dai-ichi.com/", "内容": "グループホームやちだもの家北上【認知症対応型共同生活介護】岩手県北上市立花17地割1-2ケアタウンやちだもの家北上A棟", "サービスの種類": "認知症対応型共同生活介護" }, "geometry": { "type": "Point", "coordinates": [ 141.139879613878009, 39.282045810913502 ] } },
{ "type": "Feature", "properties": { "緯度": 39.2889088, "経度": 141.2106296, "url": "https://www.kaigokensaku.mhlw.go.jp/03/index.php?action_kouhyou_detail_004_kani=true&JigyosyoCd=390600195-00&ServiceCd=320&Type=search", "url2": null, "内容": "グループホームくちない【認知症対応型共同生活介護】岩手県北上市口内町久田２５－１０", "サービスの種類": "認知症対応型共同生活介護" }, "geometry": { "type": "Point", "coordinates": [ 141.2106296, 39.2889088 ] } },
{ "type": "Feature", "properties": { "緯度": 39.342855612635397, "経度": 141.10691873665999, "url": "https://www.kaigokensaku.mhlw.go.jp/03/index.php?action_kouhyou_detail_004_kani=true&JigyosyoCd=390600377-00&ServiceCd=320&Type=search", "url2": "https://connect-gr.net", "内容": "グループホームおおきな木【認知症対応型共同生活介護】岩手県北上市村崎野２０地割６４番地３", "サービスの種類": "認知症対応型共同生活介護" }, "geometry": { "type": "Point", "coordinates": [ 141.106918736659992, 39.342855612635397 ] } },
{ "type": "Feature", "properties": { "緯度": 39.2870138, "経度": 141.1190604, "url": "https://www.kaigokensaku.mhlw.go.jp/03/index.php?action_kouhyou_detail_004_kani=true&JigyosyoCd=390600203-00&ServiceCd=320&Type=search", "url2": "https://tsudoi-kitakami.com", "内容": "グループホームつどい【認知症対応型共同生活介護】岩手県北上市諏訪町1丁目3番17号", "サービスの種類": "認知症対応型共同生活介護" }, "geometry": { "type": "Point", "coordinates": [ 141.1190604, 39.2870138 ] } },
{ "type": "Feature", "properties": { "緯度": 39.2885089, "経度": 141.1188181, "url": "https://www.kaigokensaku.mhlw.go.jp/03/index.php?action_kouhyou_detail_004_kani=true&JigyosyoCd=390600336-00&ServiceCd=320&Type=search", "url2": null, "内容": "グループホームつどい花園町【認知症対応型共同生活介護】岩手県北上市花園町2丁目2番25号", "サービスの種類": "認知症対応型共同生活介護" }, "geometry": { "type": "Point", "coordinates": [ 141.1188181, 39.2885089 ] } },
{ "type": "Feature", "properties": { "緯度": 39.3109659, "経度": 140.9717211, "url": "https://www.kaigokensaku.mhlw.go.jp/03/index.php?action_kouhyou_detail_004_kani=true&JigyosyoCd=390600153-00&ServiceCd=320&Type=search", "url2": null, "内容": "横川目グループホーム長寿園【認知症対応型共同生活介護】岩手県北上市和賀町横川目13―3－4", "サービスの種類": "認知症対応型共同生活介護" }, "geometry": { "type": "Point", "coordinates": [ 140.9717211, 39.3109659 ] } },
{ "type": "Feature", "properties": { "緯度": 39.2357617, "経度": 141.0938283, "url": "https://www.kaigokensaku.mhlw.go.jp/03/index.php?action_kouhyou_detail_004_kani=true&JigyosyoCd=390600211-00&ServiceCd=320&Type=search", "url2": null, "内容": "あいさりグループホーム長寿園【認知症対応型共同生活介護】岩手県北上市相去町和田98-3", "サービスの種類": "認知症対応型共同生活介護" }, "geometry": { "type": "Point", "coordinates": [ 141.093828300000013, 39.2357617 ] } },
{ "type": "Feature", "properties": { "緯度": 39.312104888936197, "経度": 141.083325330164, "url": "https://www.kaigokensaku.mhlw.go.jp/03/index.php?action_kouhyou_detail_004_kani=true&JigyosyoCd=390600286-00&ServiceCd=320&Type=search", "url2": "http://www.sun-milk.com/", "内容": "はとおかざきグループホーム長寿園【認知症対応型共同生活介護】岩手県北上市鳩岡崎3-32-1", "サービスの種類": "認知症対応型共同生活介護" }, "geometry": { "type": "Point", "coordinates": [ 141.083325330164001, 39.312104888936197 ] } },
{ "type": "Feature", "properties": { "緯度": 39.3325567, "経度": 141.0984936, "url": "https://www.kaigokensaku.mhlw.go.jp/03/index.php?action_kouhyou_detail_004_kani=true&JigyosyoCd=370600512-00&ServiceCd=320&Type=search", "url2": "http://keiwakai.info/", "内容": "グループホームいいとよ【認知症対応型共同生活介護】岩手県北上市村崎野12地割74番地28", "サービスの種類": "認知症対応型共同生活介護" }, "geometry": { "type": "Point", "coordinates": [ 141.098493600000012, 39.3325567 ] } },
{ "type": "Feature", "properties": { "緯度": 39.2958286, "経度": 141.0378353, "url": "https://www.kaigokensaku.mhlw.go.jp/03/index.php?action_kouhyou_detail_004_kani=true&JigyosyoCd=390600062-00&ServiceCd=320&Type=search", "url2": "http://www.waganosato.or.jp/", "内容": "グループホームわがの里【認知症対応型共同生活介護】岩手県北上市下江釣子１１地割２番地１７", "サービスの種類": "認知症対応型共同生活介護" }, "geometry": { "type": "Point", "coordinates": [ 141.037835300000012, 39.2958286 ] } },
{ "type": "Feature", "properties": { "緯度": 39.2967664, "経度": 141.1254978, "url": "https://www.kaigokensaku.mhlw.go.jp/03/index.php?action_kouhyou_detail_004_kani=true&JigyosyoCd=390600096-00&ServiceCd=320&Type=search", "url2": "http://keiwakai.info/", "内容": "グループホームうえのまち【認知症対応型共同生活介護】岩手県北上市上野町一丁目７－１", "サービスの種類": "認知症対応型共同生活介護" }, "geometry": { "type": "Point", "coordinates": [ 141.1254978, 39.2967664 ] } },
{ "type": "Feature", "properties": { "緯度": 39.2981716, "経度": 141.1136849, "url": "https://www.kaigokensaku.mhlw.go.jp/03/index.php?action_kouhyou_detail_004_kani=true&JigyosyoCd=390600187-00&ServiceCd=320&Type=search", "url2": "http://www.nichiigakkan.co.jp", "内容": "ニチイケアセンター黒沢尻【認知症対応型共同生活介護】岩手県北上市さくら通り三丁目１８番１０号", "サービスの種類": "認知症対応型共同生活介護" }, "geometry": { "type": "Point", "coordinates": [ 141.11368490000001, 39.2981716 ] } },
{ "type": "Feature", "properties": { "緯度": 39.2791239, "経度": 141.1185267, "url": "https://www.kaigokensaku.mhlw.go.jp/03/index.php?action_kouhyou_detail_004_kani=true&JigyosyoCd=390600294-00&ServiceCd=320&Type=search", "url2": "http://www.nichiigakkan.co.jp", "内容": "ニチイケアセンター北上駅前【認知症対応型共同生活介護】岩手県北上市若宮町一丁目5番5号", "サービスの種類": "認知症対応型共同生活介護" }, "geometry": { "type": "Point", "coordinates": [ 141.1185267, 39.2791239 ] } },
{ "type": "Feature", "properties": { "緯度": 39.2629772, "経度": 141.1086775, "url": "https://www.kaigokensaku.mhlw.go.jp/03/index.php?action_kouhyou_detail_004_kani=true&JigyosyoCd=390600401-00&ServiceCd=320&Type=search", "url2": null, "内容": "あったかいごグループホーム大堤【認知症対応型共同生活介護】岩手県北上市大堤東２丁目1-32", "サービスの種類": "認知症対応型共同生活介護" }, "geometry": { "type": "Point", "coordinates": [ 141.1086775, 39.2629772 ] } },
{ "type": "Feature", "properties": { "緯度": 40.1987205, "経度": 141.7789957, "url": "https://www.kaigokensaku.mhlw.go.jp/03/index.php?action_kouhyou_detail_004_kani=true&JigyosyoCd=390700052-00&ServiceCd=320&Type=search", "url2": null, "内容": "グループホームあさひ【認知症対応型共同生活介護】岩手県久慈市旭町第１０地割６６番地１", "サービスの種類": "認知症対応型共同生活介護" }, "geometry": { "type": "Point", "coordinates": [ 141.7789957, 40.1987205 ] } },
{ "type": "Feature", "properties": { "緯度": 40.1989704, "経度": 141.7801597, "url": "https://www.kaigokensaku.mhlw.go.jp/03/index.php?action_kouhyou_detail_004_kani=true&JigyosyoCd=390700060-00&ServiceCd=320&Type=search", "url2": "https://kuji-chuokaigo.jimdo.com/", "内容": "グループホームあさひ東館【認知症対応型共同生活介護】岩手県久慈市旭町第11地割22番地6", "サービスの種類": "認知症対応型共同生活介護" }, "geometry": { "type": "Point", "coordinates": [ 141.780159700000013, 40.1989704 ] } },
{ "type": "Feature", "properties": { "緯度": 40.195374428809401, "経度": 141.769095240414, "url": "https://www.kaigokensaku.mhlw.go.jp/03/index.php?action_kouhyou_detail_004_kani=true&JigyosyoCd=370700288-00&ServiceCd=320&Type=search", "url2": null, "内容": "グループホームやすらぎの里【認知症対応型共同生活介護】岩手県久慈市新中の橋第4地割12番地2", "サービスの種類": "認知症対応型共同生活介護" }, "geometry": { "type": "Point", "coordinates": [ 141.769095240414003, 40.195374428809401 ] } },
{ "type": "Feature", "properties": { "緯度": 40.1491396, "経度": 141.5704819, "url": "https://www.kaigokensaku.mhlw.go.jp/03/index.php?action_kouhyou_detail_004_kani=true&JigyosyoCd=390700110-00&ServiceCd=320&Type=search", "url2": null, "内容": "認知症対応型共同生活介護しらかば園【認知症対応型共同生活介護】岩手県久慈市山形町川井10-55-1", "サービスの種類": "認知症対応型共同生活介護" }, "geometry": { "type": "Point", "coordinates": [ 141.5704819, 40.1491396 ] } },
{ "type": "Feature", "properties": { "緯度": 40.195552741137, "経度": 141.75956502516601, "url": "https://www.kaigokensaku.mhlw.go.jp/03/index.php?action_kouhyou_detail_004_kani=true&JigyosyoCd=390700029-00&ServiceCd=320&Type=search", "url2": null, "内容": "グループホームひだまり【認知症対応型共同生活介護】岩手県久慈市栄町32地割37番地９", "サービスの種類": "認知症対応型共同生活介護" }, "geometry": { "type": "Point", "coordinates": [ 141.759565025166012, 40.195552741137 ] } },
{ "type": "Feature", "properties": { "緯度": 39.3257653, "経度": 141.5172964, "url": "https://www.kaigokensaku.mhlw.go.jp/03/index.php?action_kouhyou_detail_004_kani=true&JigyosyoCd=370800211-00&ServiceCd=320&Type=search", "url2": "http://www.orahonoie.com/", "内容": "グループホームおらほの家【認知症対応型共同生活介護】岩手県遠野市下組町１１－４９", "サービスの種類": "認知症対応型共同生活介護" }, "geometry": { "type": "Point", "coordinates": [ 141.5172964, 39.3257653 ] } },
{ "type": "Feature", "properties": { "緯度": 39.325826715196598, "経度": 141.51669928668301, "url": "https://www.kaigokensaku.mhlw.go.jp/03/index.php?action_kouhyou_detail_004_kani=true&JigyosyoCd=390800092-00&ServiceCd=320&Type=search", "url2": "http://www.orahonoie.com/", "内容": "グループホームおらほの家（別家）【認知症対応型共同生活介護】岩手県遠野市下組町11-49", "サービスの種類": "認知症対応型共同生活介護" }, "geometry": { "type": "Point", "coordinates": [ 141.516699286683007, 39.325826715196598 ] } },
{ "type": "Feature", "properties": { "緯度": 39.319945367273, "経度": 141.57168134763899, "url": "https://www.kaigokensaku.mhlw.go.jp/03/index.php?action_kouhyou_detail_004_kani=true&JigyosyoCd=390800068-00&ServiceCd=320&Type=search", "url2": null, "内容": "あお空グループホーム青笹【認知症対応型共同生活介護】岩手県遠野市青笹町11-3-11", "サービスの種類": "認知症対応型共同生活介護" }, "geometry": { "type": "Point", "coordinates": [ 141.571681347638986, 39.319945367273 ] } },
{ "type": "Feature", "properties": { "緯度": 39.2852826, "経度": 141.5927552, "url": "https://www.kaigokensaku.mhlw.go.jp/03/index.php?action_kouhyou_detail_004_kani=true&JigyosyoCd=390800084-00&ServiceCd=320&Type=search", "url2": null, "内容": "グループホームひだまり上郷【認知症対応型共同生活介護】岩手県遠野市上郷町佐比内46-23-2", "サービスの種類": "認知症対応型共同生活介護" }, "geometry": { "type": "Point", "coordinates": [ 141.5927552, 39.2852826 ] } },
{ "type": "Feature", "properties": { "緯度": 39.3291918, "経度": 141.5345706, "url": "https://www.kaigokensaku.mhlw.go.jp/03/index.php?action_kouhyou_detail_004_kani=true&JigyosyoCd=390800142-00&ServiceCd=320&Type=search", "url2": "http://www.care-grant.co.jp", "内容": "グループホームかなえ【認知症対応型共同生活介護】岩手県遠野市穀町１３番地１号", "サービスの種類": "認知症対応型共同生活介護" }, "geometry": { "type": "Point", "coordinates": [ 141.5345706, 39.3291918 ] } },
{ "type": "Feature", "properties": { "緯度": 39.3335356, "経度": 141.5300942, "url": "https://www.kaigokensaku.mhlw.go.jp/03/index.php?action_kouhyou_detail_004_kani=true&JigyosyoCd=390800043-00&ServiceCd=320&Type=search", "url2": "https://t-chouju.jp/", "内容": "グループホーム長寿庵【認知症対応型共同生活介護】岩手県遠野市材木町2-22", "サービスの種類": "認知症対応型共同生活介護" }, "geometry": { "type": "Point", "coordinates": [ 141.5300942, 39.3335356 ] } },
{ "type": "Feature", "properties": { "緯度": 39.3294561, "経度": 141.5311017, "url": "https://www.kaigokensaku.mhlw.go.jp/03/index.php?action_kouhyou_detail_004_kani=true&JigyosyoCd=390800126-00&ServiceCd=320&Type=search", "url2": "https://sankyo-ika.jp/", "内容": "グループホームあったかいごひといち【認知症対応型共同生活介護】岩手県遠野市中央通り5-25", "サービスの種類": "認知症対応型共同生活介護" }, "geometry": { "type": "Point", "coordinates": [ 141.5311017, 39.3294561 ] } },
{ "type": "Feature", "properties": { "緯度": 38.9408433, "経度": 141.1019908, "url": "https://www.kaigokensaku.mhlw.go.jp/03/index.php?action_kouhyou_detail_004_kani=true&JigyosyoCd=390900405-00&ServiceCd=320&Type=search", "url2": "http://ritsuwa.com", "内容": "ケアビレッジ一関ケアサービスステーション認知症対応型共同生活介護事業所【認知症対応型共同生活介護】岩手県一関市赤荻字月町176番地", "サービスの種類": "認知症対応型共同生活介護" }, "geometry": { "type": "Point", "coordinates": [ 141.10199080000001, 38.9408433 ] } },
{ "type": "Feature", "properties": { "緯度": 38.938689729466901, "経度": 141.12654442883601, "url": "https://www.kaigokensaku.mhlw.go.jp/03/index.php?action_kouhyou_detail_004_kani=true&JigyosyoCd=390900330-00&ServiceCd=320&Type=search", "url2": null, "内容": "認知症高齢者グループホーム金木犀【認知症対応型共同生活介護】岩手県一関市宮前町14-9", "サービスの種類": "認知症対応型共同生活介護" }, "geometry": { "type": "Point", "coordinates": [ 141.126544428836013, 38.938689729466901 ] } },
{ "type": "Feature", "properties": { "緯度": 38.941019721740098, "経度": 141.15162704977001, "url": "https://www.kaigokensaku.mhlw.go.jp/03/index.php?action_kouhyou_detail_004_kani=true&JigyosyoCd=370901001-00&ServiceCd=320&Type=search", "url2": null, "内容": "認知症高齢者グループホームつどい【認知症対応型共同生活介護】岩手県一関市中里字石川瀬１３－１", "サービスの種類": "認知症対応型共同生活介護" }, "geometry": { "type": "Point", "coordinates": [ 141.151627049770013, 38.941019721740098 ] } },
{ "type": "Feature", "properties": { "緯度": 39.0106112, "経度": 141.2616572, "url": "https://www.kaigokensaku.mhlw.go.jp/03/index.php?action_kouhyou_detail_004_kani=true&JigyosyoCd=390900074-00&ServiceCd=320&Type=search", "url2": "http://kaigo-iwai.com/", "内容": "グループホームにこにこひがしやま【認知症対応型共同生活介護】岩手県一関市東山町長坂字北磐井里187番地3", "サービスの種類": "認知症対応型共同生活介護" }, "geometry": { "type": "Point", "coordinates": [ 141.2616572, 39.0106112 ] } },
{ "type": "Feature", "properties": { "緯度": 38.9399612, "経度": 141.1056133, "url": "https://www.kaigokensaku.mhlw.go.jp/03/index.php?action_kouhyou_detail_004_kani=true&JigyosyoCd=370900425-00&ServiceCd=320&Type=search", "url2": "http://www.iwate-tukushikai.jp/", "内容": "認知症高齢者グループホームゆいとり【認知症対応型共同生活介護】岩手県一関市赤荻字月町17", "サービスの種類": "認知症対応型共同生活介護" }, "geometry": { "type": "Point", "coordinates": [ 141.105613299999987, 38.9399612 ] } },
{ "type": "Feature", "properties": { "緯度": 38.9290249, "経度": 141.1493902, "url": "https://www.kaigokensaku.mhlw.go.jp/03/index.php?action_kouhyou_detail_004_kani=true&JigyosyoCd=370900540-00&ServiceCd=320&Type=search", "url2": null, "内容": "グループホームさくらのいえ【認知症対応型共同生活介護】岩手県一関市三関字日照77-2", "サービスの種類": "認知症対応型共同生活介護" }, "geometry": { "type": "Point", "coordinates": [ 141.1493902, 38.9290249 ] } },
{ "type": "Feature", "properties": { "緯度": 38.9174386, "経度": 141.3589214, "url": "https://www.kaigokensaku.mhlw.go.jp/03/index.php?action_kouhyou_detail_004_kani=true&JigyosyoCd=372700716-00&ServiceCd=320&Type=search", "url2": null, "内容": "グループホーム美葉【認知症対応型共同生活介護】岩手県一関市千厩町千厩字岩間３８番地４", "サービスの種類": "認知症対応型共同生活介護" }, "geometry": { "type": "Point", "coordinates": [ 141.358921400000014, 38.9174386 ] } },
{ "type": "Feature", "properties": { "緯度": 39.0648861, "経度": 141.3827806, "url": "https://www.kaigokensaku.mhlw.go.jp/03/index.php?action_kouhyou_detail_004_kani=true&JigyosyoCd=390900108-00&ServiceCd=320&Type=search", "url2": "http://i-group.link/99_blank006.html", "内容": "グループホームなかがわ【認知症対応型共同生活介護】岩手県一関市大東町中川字中大畑97番地1", "サービスの種類": "認知症対応型共同生活介護" }, "geometry": { "type": "Point", "coordinates": [ 141.3827806, 39.0648861 ] } },
{ "type": "Feature", "properties": { "緯度": 38.9146498, "経度": 141.3385039, "url": "https://www.kaigokensaku.mhlw.go.jp/03/index.php?action_kouhyou_detail_004_kani=true&JigyosyoCd=390900116-00&ServiceCd=320&Type=search", "url2": "http://nagomi-poran.jp", "内容": "グループホームぽらん千厩【認知症対応型共同生活介護】岩手県一関市千厩町千厩字前田２２９", "サービスの種類": "認知症対応型共同生活介護" }, "geometry": { "type": "Point", "coordinates": [ 141.3385039, 38.9146498 ] } },
{ "type": "Feature", "properties": { "緯度": 38.9018775251267, "経度": 141.151361612828, "url": "https://www.kaigokensaku.mhlw.go.jp/03/index.php?action_kouhyou_detail_004_kani=true&JigyosyoCd=390900124-00&ServiceCd=320&Type=search", "url2": null, "内容": "シルバーヘルス認知症対応型共同生活介護事業所「昴」【認知症対応型共同生活介護】岩手県一関市字沢298番地2", "サービスの種類": "認知症対応型共同生活介護" }, "geometry": { "type": "Point", "coordinates": [ 141.151361612827998, 38.9018775251267 ] } },
{ "type": "Feature", "properties": { "緯度": 38.9499406, "経度": 141.4623609, "url": "https://www.kaigokensaku.mhlw.go.jp/03/index.php?action_kouhyou_detail_004_kani=true&JigyosyoCd=390900140-00&ServiceCd=320&Type=search", "url2": null, "内容": "グループホームぽらん室根【認知症対応型共同生活介護】岩手県一関市折壁字兵沢１１４番地１", "サービスの種類": "認知症対応型共同生活介護" }, "geometry": { "type": "Point", "coordinates": [ 141.4623609, 38.9499406 ] } },
{ "type": "Feature", "properties": { "緯度": 38.9949101, "経度": 141.3297653, "url": "https://www.kaigokensaku.mhlw.go.jp/03/index.php?action_kouhyou_detail_004_kani=true&JigyosyoCd=390900165-00&ServiceCd=320&Type=search", "url2": "http://i-group.link/99_blank007.html", "内容": "グループホームすりさわ【認知症対応型共同生活介護】岩手県一関市大東町摺沢字但馬崎２５番地１６", "サービスの種類": "認知症対応型共同生活介護" }, "geometry": { "type": "Point", "coordinates": [ 141.3297653, 38.9949101 ] } },
{ "type": "Feature", "properties": { "緯度": 38.8613333, "経度": 141.156603, "url": "https://www.kaigokensaku.mhlw.go.jp/03/index.php?action_kouhyou_detail_004_kani=true&JigyosyoCd=390900306-00&ServiceCd=320&Type=search", "url2": null, "内容": "グループホームふるさと【認知症対応型共同生活介護】岩手県一関市花泉町金沢字運南田170-1グループホームふるさと", "サービスの種類": "認知症対応型共同生活介護" }, "geometry": { "type": "Point", "coordinates": [ 141.156603, 38.8613333 ] } },
{ "type": "Feature", "properties": { "緯度": 38.8667812, "経度": 141.3728424, "url": "https://www.kaigokensaku.mhlw.go.jp/03/index.php?action_kouhyou_detail_004_kani=true&JigyosyoCd=392700019-00&ServiceCd=320&Type=search", "url2": "http://www.kouwakai.biz/", "内容": "グループホームひまわり畑【認知症対応型共同生活介護】岩手県一関市藤沢町徳田字馬場10番地2", "サービスの種類": "認知症対応型共同生活介護" }, "geometry": { "type": "Point", "coordinates": [ 141.3728424, 38.8667812 ] } },
{ "type": "Feature", "properties": { "緯度": 39.034001, "経度": 141.2946089, "url": "https://www.kaigokensaku.mhlw.go.jp/03/index.php?action_kouhyou_detail_004_kani=true&JigyosyoCd=372700641-00&ServiceCd=320&Type=search", "url2": null, "内容": "グループホームにこにこだいとう【認知症対応型共同生活介護】岩手県一関市大東町猿沢字板倉６０－１", "サービスの種類": "認知症対応型共同生活介護" }, "geometry": { "type": "Point", "coordinates": [ 141.294608899999986, 39.034001 ] } },
{ "type": "Feature", "properties": { "緯度": 38.8288935, "経度": 141.1842161, "url": "https://www.kaigokensaku.mhlw.go.jp/03/index.php?action_kouhyou_detail_004_kani=true&JigyosyoCd=390900090-00&ServiceCd=320&Type=search", "url2": "http://www.gh-sakura.jp", "内容": "グループホームさくら花泉【認知症対応型共同生活介護】岩手県一関市花泉町涌津字二ノ町43-1", "サービスの種類": "認知症対応型共同生活介護" }, "geometry": { "type": "Point", "coordinates": [ 141.184216099999986, 38.8288935 ] } },
{ "type": "Feature", "properties": { "緯度": 38.9403454755276, "経度": 141.13293395900001, "url": "https://www.kaigokensaku.mhlw.go.jp/03/index.php?action_kouhyou_detail_004_kani=true&JigyosyoCd=390900447-00&ServiceCd=320&Type=search", "url2": "http://ritsuwa.com", "内容": "Lagom東五代【認知症対応型共同生活介護】岩手県一関市東五代4-18", "サービスの種類": "認知症対応型共同生活介護" }, "geometry": { "type": "Point", "coordinates": [ 141.132933959000013, 38.9403454755276 ] } },
{ "type": "Feature", "properties": { "緯度": 38.886279797153499, "経度": 141.11728454788499, "url": "https://www.kaigokensaku.mhlw.go.jp/03/index.php?action_kouhyou_detail_004_kani=true&JigyosyoCd=370900573-00&ServiceCd=320&Type=search", "url2": "http://www.fukkouen.or.jp/", "内容": "福光園グループホームフクちゃんハウス【認知症対応型共同生活介護】岩手県一関市真柴字岩ノ沢９１番地１９", "サービスの種類": "認知症対応型共同生活介護" }, "geometry": { "type": "Point", "coordinates": [ 141.117284547884992, 38.886279797153499 ] } },
{ "type": "Feature", "properties": { "緯度": 38.8338094, "経度": 141.1775471, "url": "https://www.kaigokensaku.mhlw.go.jp/03/index.php?action_kouhyou_detail_004_kani=true&JigyosyoCd=390900082-00&ServiceCd=320&Type=search", "url2": "http://www.cc-ikoi.com/", "内容": "高齢者グループホームいこいの華【認知症対応型共同生活介護】岩手県一関市花泉町花泉字地平21－8", "サービスの種類": "認知症対応型共同生活介護" }, "geometry": { "type": "Point", "coordinates": [ 141.1775471, 38.8338094 ] } },
{ "type": "Feature", "properties": { "緯度": 38.9260169, "経度": 141.1497042, "url": "https://www.kaigokensaku.mhlw.go.jp/03/index.php?action_kouhyou_detail_004_kani=true&JigyosyoCd=390900272-00&ServiceCd=320&Type=search", "url2": "http://www.cc-ikoi.com/", "内容": "高齢者グループホームいこいの友【認知症対応型共同生活介護】岩手県一関市三関字仲田101", "サービスの種類": "認知症対応型共同生活介護" }, "geometry": { "type": "Point", "coordinates": [ 141.1497042, 38.9260169 ] } },
{ "type": "Feature", "properties": { "緯度": 38.9003654, "経度": 141.2741715, "url": "https://www.kaigokensaku.mhlw.go.jp/03/index.php?action_kouhyou_detail_004_kani=true&JigyosyoCd=370901019-00&ServiceCd=320&Type=search", "url2": "http://www.jushoen.com", "内容": "グループホームことぶき【認知症対応型共同生活介護】岩手県一関市川崎町薄衣字久伝２６番地", "サービスの種類": "認知症対応型共同生活介護" }, "geometry": { "type": "Point", "coordinates": [ 141.2741715, 38.9003654 ] } },
{ "type": "Feature", "properties": { "緯度": 38.9354945, "経度": 141.4401417, "url": "https://www.kaigokensaku.mhlw.go.jp/03/index.php?action_kouhyou_detail_004_kani=true&JigyosyoCd=390900025-00&ServiceCd=320&Type=search", "url2": "http://www.kouyouhaitsu.com", "内容": "孝養ハイツグループホーム【認知症対応型共同生活介護】岩手県一関市室根町折壁字向山６７－３", "サービスの種類": "認知症対応型共同生活介護" }, "geometry": { "type": "Point", "coordinates": [ 141.4401417, 38.9354945 ] } },
{ "type": "Feature", "properties": { "緯度": 38.9217924, "経度": 141.1472101, "url": "https://www.kaigokensaku.mhlw.go.jp/03/index.php?action_kouhyou_detail_004_kani=true&JigyosyoCd=390900033-00&ServiceCd=320&Type=search", "url2": "https://www.iwate-tukushikai.jp/", "内容": "認知症高齢者グループホームほっとスマイル【認知症対応型共同生活介護】岩手県一関市三関字小沢47-2", "サービスの種類": "認知症対応型共同生活介護" }, "geometry": { "type": "Point", "coordinates": [ 141.1472101, 38.9217924 ] } },
{ "type": "Feature", "properties": { "緯度": 39.0332048, "経度": 141.6363461, "url": "https://www.kaigokensaku.mhlw.go.jp/03/index.php?action_kouhyou_detail_004_kani=true&JigyosyoCd=391000098-00&ServiceCd=320&Type=search", "url2": "http://www.tenjinkai.com", "内容": "グループホーム「氷上山」【認知症対応型共同生活介護】岩手県陸前高田市高田町字大隅8番地6地域密着型介護老人福祉施設「陸前高田」", "サービスの種類": "認知症対応型共同生活介護" }, "geometry": { "type": "Point", "coordinates": [ 141.6363461, 39.0332048 ] } },
{ "type": "Feature", "properties": { "緯度": 39.0337414, "経度": 141.621417, "url": "https://www.kaigokensaku.mhlw.go.jp/03/index.php?action_kouhyou_detail_004_kani=true&JigyosyoCd=391000023-00&ServiceCd=320&Type=search", "url2": "http://www.shokyukai.or.jp/", "内容": "グループホーム金山【認知症対応型共同生活介護】岩手県陸前高田市竹駒町字相川73-30", "サービスの種類": "認知症対応型共同生活介護" }, "geometry": { "type": "Point", "coordinates": [ 141.621417, 39.0337414 ] } },
{ "type": "Feature", "properties": { "緯度": 38.993184855024403, "経度": 141.70024774663099, "url": "https://www.kaigokensaku.mhlw.go.jp/03/index.php?action_kouhyou_detail_004_kani=true&JigyosyoCd=391000114-00&ServiceCd=320&Type=search", "url2": "http://www.shokyukai.or.jp/", "内容": "グループホーム「箱根山」【認知症対応型共同生活介護】岩手県陸前高田市小友町字猪森７７", "サービスの種類": "認知症対応型共同生活介護" }, "geometry": { "type": "Point", "coordinates": [ 141.700247746630993, 38.993184855024403 ] } },
{ "type": "Feature", "properties": { "緯度": 39.3223017, "経度": 141.8879179, "url": "https://www.kaigokensaku.mhlw.go.jp/03/index.php?action_kouhyou_detail_004_kani=true&JigyosyoCd=371100413-00&ServiceCd=320&Type=search", "url2": null, "内容": "グループホームございしょの里【認知症対応型共同生活介護】岩手県釜石市鵜住居町第23地割21番地1", "サービスの種類": "認知症対応型共同生活介護" }, "geometry": { "type": "Point", "coordinates": [ 141.8879179, 39.3223017 ] } },
{ "type": "Feature", "properties": { "緯度": 39.3349057, "経度": 141.8886817, "url": "https://www.kaigokensaku.mhlw.go.jp/03/index.php?action_kouhyou_detail_004_kani=true&JigyosyoCd=391100047-00&ServiceCd=320&Type=search", "url2": null, "内容": "あお空グループホーム釜石【認知症対応型共同生活介護】岩手県釜石市片岸町第2地割13番地-28", "サービスの種類": "認知症対応型共同生活介護" }, "geometry": { "type": "Point", "coordinates": [ 141.8886817, 39.3349057 ] } },
{ "type": "Feature", "properties": { "緯度": 39.275515095703902, "経度": 141.882030906746, "url": "https://www.kaigokensaku.mhlw.go.jp/03/index.php?action_kouhyou_detail_004_kani=true&JigyosyoCd=391100062-00&ServiceCd=320&Type=search", "url2": "https://yakatahome.com/", "内容": "グループホームやかた【認知症対応型共同生活介護】岩手県釜石市大町３丁目９番１６号", "サービスの種類": "認知症対応型共同生活介護" }, "geometry": { "type": "Point", "coordinates": [ 141.882030906745996, 39.275515095703902 ] } },
{ "type": "Feature", "properties": { "緯度": 34.9918003, "経度": 135.9391409, "url": "https://www.kaigokensaku.mhlw.go.jp/03/index.php?action_kouhyou_detail_004_kani=true&JigyosyoCd=391100070-00&ServiceCd=320&Type=search", "url2": null, "内容": "グループホームさわこ【認知症対応型共同生活介護】岩手県釜石市栗林町9-10-9", "サービスの種類": "認知症対応型共同生活介護" }, "geometry": { "type": "Point", "coordinates": [ 135.939140900000012, 34.9918003 ] } },
{ "type": "Feature", "properties": { "緯度": 39.2698739, "経度": 141.8295158, "url": "https://www.kaigokensaku.mhlw.go.jp/03/index.php?action_kouhyou_detail_004_kani=true&JigyosyoCd=391100138-00&ServiceCd=320&Type=search", "url2": "http://www.sqoo.jp/", "内容": "グループホーム・ファミリア【認知症対応型共同生活介護】岩手県釜石市甲子町第15地割86番地5カサ・デ・ファミリア3F", "サービスの種類": "認知症対応型共同生活介護" }, "geometry": { "type": "Point", "coordinates": [ 141.8295158, 39.2698739 ] } },
{ "type": "Feature", "properties": { "緯度": 39.246853078426497, "経度": 141.88033751401699, "url": "https://www.kaigokensaku.mhlw.go.jp/03/index.php?action_kouhyou_detail_004_kani=true&JigyosyoCd=391100153-00&ServiceCd=320&Type=search", "url2": "https://www.sompocare.com/service/home/grouphome/H000432/", "内容": "ＳＯＭＰＯケアそんぽの家ＧＨ釜石平田【認知症対応型共同生活介護】岩手県釜石市大字平田第一地割1番31", "サービスの種類": "認知症対応型共同生活介護" }, "geometry": { "type": "Point", "coordinates": [ 141.880337514016986, 39.246853078426497 ] } },
{ "type": "Feature", "properties": { "緯度": 39.2640638, "経度": 141.8412706, "url": "https://www.kaigokensaku.mhlw.go.jp/03/index.php?action_kouhyou_detail_004_kani=true&JigyosyoCd=391100021-00&ServiceCd=320&Type=search", "url2": null, "内容": "スマートホーム・パティオ【認知症対応型共同生活介護】岩手県釜石市小佐野町2-3-39", "サービスの種類": "認知症対応型共同生活介護" }, "geometry": { "type": "Point", "coordinates": [ 141.8412706, 39.2640638 ] } },
{ "type": "Feature", "properties": { "緯度": 39.2497048, "経度": 141.7621077, "url": "https://www.kaigokensaku.mhlw.go.jp/03/index.php?action_kouhyou_detail_004_kani=true&JigyosyoCd=391100096-00&ServiceCd=320&Type=search", "url2": null, "内容": "グループホームさくら【認知症対応型共同生活介護】岩手県釜石市甲子町第5地割2番地4", "サービスの種類": "認知症対応型共同生活介護" }, "geometry": { "type": "Point", "coordinates": [ 141.7621077, 39.2497048 ] } },
{ "type": "Feature", "properties": { "緯度": 40.2609502, "経度": 141.2880106, "url": "https://www.kaigokensaku.mhlw.go.jp/03/index.php?action_kouhyou_detail_004_kani=true&JigyosyoCd=391300027-00&ServiceCd=320&Type=search", "url2": "http://www.m-c-seishokai.jp/index_sa.html", "内容": "グループホームさくら【認知症対応型共同生活介護】岩手県二戸市石切所字森合31", "サービスの種類": "認知症対応型共同生活介護" }, "geometry": { "type": "Point", "coordinates": [ 141.2880106, 40.2609502 ] } },
{ "type": "Feature", "properties": { "緯度": 40.2991452, "経度": 141.3048768, "url": "https://www.kaigokensaku.mhlw.go.jp/03/index.php?action_kouhyou_detail_004_kani=true&JigyosyoCd=391300043-00&ServiceCd=320&Type=search", "url2": "http://www.itutuboshi.com/", "内容": "グループホームおからぎ【認知症対応型共同生活介護】岩手県二戸市堀野字大川原毛89-12", "サービスの種類": "認知症対応型共同生活介護" }, "geometry": { "type": "Point", "coordinates": [ 141.304876799999988, 40.2991452 ] } },
{ "type": "Feature", "properties": { "緯度": 40.2400954, "経度": 141.2431402, "url": "https://www.kaigokensaku.mhlw.go.jp/03/index.php?action_kouhyou_detail_004_kani=true&JigyosyoCd=391300100-00&ServiceCd=320&Type=search", "url2": null, "内容": "グループホームアミーチ【認知症対応型共同生活介護】岩手県二戸市以鳥字上平１５－１－２", "サービスの種類": "認知症対応型共同生活介護" }, "geometry": { "type": "Point", "coordinates": [ 141.2431402, 40.2400954 ] } },
{ "type": "Feature", "properties": { "緯度": 39.9300266, "経度": 141.0627019, "url": "https://www.kaigokensaku.mhlw.go.jp/03/index.php?action_kouhyou_detail_004_kani=true&JigyosyoCd=391400041-00&ServiceCd=320&Type=search", "url2": "http://www.s-tumugi.jp/", "内容": "共生型グループホーム白山の里【認知症対応型共同生活介護】岩手県八幡平市田頭12-18-1", "サービスの種類": "認知症対応型共同生活介護" }, "geometry": { "type": "Point", "coordinates": [ 141.0627019, 39.9300266 ] } },
{ "type": "Feature", "properties": { "緯度": 40.1358885, "経度": 140.9525621, "url": "https://www.kaigokensaku.mhlw.go.jp/03/index.php?action_kouhyou_detail_004_kani=true&JigyosyoCd=391400058-00&ServiceCd=320&Type=search", "url2": "https://www.ashirokai.jp/", "内容": "グループホームやがみ【認知症対応型共同生活介護】岩手県八幡平市丑山口28番地１", "サービスの種類": "認知症対応型共同生活介護" }, "geometry": { "type": "Point", "coordinates": [ 140.9525621, 40.1358885 ] } },
{ "type": "Feature", "properties": { "緯度": 39.9150260180011, "経度": 141.08590481282801, "url": "https://www.kaigokensaku.mhlw.go.jp/03/index.php?action_kouhyou_detail_004_kani=true&JigyosyoCd=391400108-00&ServiceCd=320&Type=search", "url2": "http://www.s-tumugi.jp/", "内容": "認知症対応型グループホームぱんたれい【認知症対応型共同生活介護】岩手県八幡平市田頭22-108-4", "サービスの種類": "認知症対応型共同生活介護" }, "geometry": { "type": "Point", "coordinates": [ 141.085904812828005, 39.9150260180011 ] } },
{ "type": "Feature", "properties": { "緯度": 39.9189703, "経度": 141.086445, "url": "https://www.kaigokensaku.mhlw.go.jp/03/index.php?action_kouhyou_detail_004_kani=true&JigyosyoCd=372101105-00&ServiceCd=320&Type=search", "url2": "https://nishinekai.jp/", "内容": "むらさき苑かまどわの家【認知症対応型共同生活介護】岩手県八幡平市田頭２４地割３６番地", "サービスの種類": "認知症対応型共同生活介護" }, "geometry": { "type": "Point", "coordinates": [ 141.086445, 39.9189703 ] } },
{ "type": "Feature", "properties": { "緯度": 39.9542664, "経度": 141.0981228, "url": "https://www.kaigokensaku.mhlw.go.jp/03/index.php?action_kouhyou_detail_004_kani=true&JigyosyoCd=391400017-00&ServiceCd=320&Type=search", "url2": "http://nishinekai.jp", "内容": "グループホームななしぐれ【認知症対応型共同生活介護】岩手県八幡平市堀切第14地割10番地7", "サービスの種類": "認知症対応型共同生活介護" }, "geometry": { "type": "Point", "coordinates": [ 141.0981228, 39.9542664 ] } },
{ "type": "Feature", "properties": { "緯度": 39.1481063, "経度": 141.1535703, "url": "https://www.kaigokensaku.mhlw.go.jp/03/index.php?action_kouhyou_detail_004_kani=true&JigyosyoCd=391500352-00&ServiceCd=320&Type=search", "url2": null, "内容": "グループホームあてるい【認知症対応型共同生活介護】岩手県奥州市水沢佐倉河字石橋7番地", "サービスの種類": "認知症対応型共同生活介護" }, "geometry": { "type": "Point", "coordinates": [ 141.153570300000013, 39.1481063 ] } },
{ "type": "Feature", "properties": { "緯度": 39.2294189, "経度": 141.1246138, "url": "https://www.kaigokensaku.mhlw.go.jp/03/index.php?action_kouhyou_detail_004_kani=true&JigyosyoCd=391500105-00&ServiceCd=320&Type=search", "url2": "https://poranhiroba.web.fc2.com/", "内容": "グループホームポランの広場いなせ【認知症対応型共同生活介護】岩手県奥州市江刺稲瀬字水先629", "サービスの種類": "認知症対応型共同生活介護" }, "geometry": { "type": "Point", "coordinates": [ 141.1246138, 39.2294189 ] } },
{ "type": "Feature", "properties": { "緯度": 39.1131631, "経度": 141.1494299, "url": "https://www.kaigokensaku.mhlw.go.jp/03/index.php?action_kouhyou_detail_004_kani=true&JigyosyoCd=391500360-00&ServiceCd=320&Type=search", "url2": "http://furusato.oshushi.com/", "内容": "グループホームえんじゅの里【認知症対応型共同生活介護】岩手県奥州市水沢真城字杉ノ下131番地", "サービスの種類": "認知症対応型共同生活介護" }, "geometry": { "type": "Point", "coordinates": [ 141.1494299, 39.1131631 ] } },
{ "type": "Feature", "properties": { "緯度": 39.058925806425499, "経度": 141.173584842163, "url": "https://www.kaigokensaku.mhlw.go.jp/03/index.php?action_kouhyou_detail_004_kani=true&JigyosyoCd=391500055-00&ServiceCd=320&Type=search", "url2": "https://www.fukushin-iwate.com", "内容": "グループホームもたい【認知症対応型共同生活介護】岩手県奥州市前沢生母字中道３番地２", "サービスの種類": "認知症対応型共同生活介護" }, "geometry": { "type": "Point", "coordinates": [ 141.173584842162995, 39.058925806425499 ] } },
{ "type": "Feature", "properties": { "緯度": 39.132561055551598, "経度": 141.15267828954899, "url": "https://www.kaigokensaku.mhlw.go.jp/03/index.php?action_kouhyou_detail_004_kani=true&JigyosyoCd=391500147-00&ServiceCd=320&Type=search", "url2": "https://www.fukushin-iwate.com", "内容": "グループホームときわの里【認知症対応型共同生活介護】岩手県奥州市水沢中田町4番19号", "サービスの種類": "認知症対応型共同生活介護" }, "geometry": { "type": "Point", "coordinates": [ 141.152678289548987, 39.132561055551598 ] } },
{ "type": "Feature", "properties": { "緯度": 39.1629341, "経度": 141.0926169, "url": "https://www.kaigokensaku.mhlw.go.jp/03/index.php?action_kouhyou_detail_004_kani=true&JigyosyoCd=370400178-00&ServiceCd=320&Type=search", "url2": null, "内容": "グループホームいちょうの木【認知症対応型共同生活介護】岩手県奥州市水沢佐倉河字十日市85", "サービスの種類": "認知症対応型共同生活介護" }, "geometry": { "type": "Point", "coordinates": [ 141.0926169, 39.1629341 ] } },
{ "type": "Feature", "properties": { "緯度": 39.038110916524502, "経度": 141.06449543802901, "url": "https://www.kaigokensaku.mhlw.go.jp/03/index.php?action_kouhyou_detail_004_kani=true&JigyosyoCd=372500553-00&ServiceCd=320&Type=search", "url2": "http://www.hagoromosou.net", "内容": "グループホームはごろも【認知症対応型共同生活介護】岩手県奥州市衣川古戸４５番地", "サービスの種類": "認知症対応型共同生活介護" }, "geometry": { "type": "Point", "coordinates": [ 141.064495438029013, 39.038110916524502 ] } },
{ "type": "Feature", "properties": { "緯度": 39.093512, "経度": 141.1350596, "url": "https://www.kaigokensaku.mhlw.go.jp/03/index.php?action_kouhyou_detail_004_kani=true&JigyosyoCd=391500238-00&ServiceCd=320&Type=search", "url2": "https://tsu2ji.oshushi.com/maesawaen.php", "内容": "グループホームまえさわ苑折居館【認知症対応型共同生活介護】岩手県奥州市前沢古城字北舘２１番地１", "サービスの種類": "認知症対応型共同生活介護" }, "geometry": { "type": "Point", "coordinates": [ 141.1350596, 39.093512 ] } },
{ "type": "Feature", "properties": { "緯度": 39.182523798924301, "経度": 141.18458557306499, "url": "https://www.kaigokensaku.mhlw.go.jp/03/index.php?action_kouhyou_detail_004_kani=true&JigyosyoCd=371200239-00&ServiceCd=320&Type=search", "url2": "https://www.esashijyuseikai.or.jp/", "内容": "グループホームかつひろの家【認知症対応型共同生活介護】岩手県奥州市江刺岩谷堂字反町361-1", "サービスの種類": "認知症対応型共同生活介護" }, "geometry": { "type": "Point", "coordinates": [ 141.184585573064993, 39.182523798924301 ] } },
{ "type": "Feature", "properties": { "緯度": 39.16207, "経度": 141.2040124, "url": "https://www.kaigokensaku.mhlw.go.jp/03/index.php?action_kouhyou_detail_004_kani=true&JigyosyoCd=371200387-00&ServiceCd=320&Type=search", "url2": "http://www.koyo-esashi.co.jp/", "内容": "グループホーム花の家【認知症対応型共同生活介護】岩手県奥州市江刺田原字大日195番地１", "サービスの種類": "認知症対応型共同生活介護" }, "geometry": { "type": "Point", "coordinates": [ 141.204012400000011, 39.16207 ] } },
{ "type": "Feature", "properties": { "緯度": 39.1466699, "経度": 141.1303445, "url": "https://www.kaigokensaku.mhlw.go.jp/03/index.php?action_kouhyou_detail_004_kani=true&JigyosyoCd=391500030-00&ServiceCd=320&Type=search", "url2": "http://siriuscare.jp/", "内容": "グループホームシリウス奥州【認知症対応型共同生活介護】岩手県奥州市水沢字水山4番地1", "サービスの種類": "認知症対応型共同生活介護" }, "geometry": { "type": "Point", "coordinates": [ 141.1303445, 39.1466699 ] } },
{ "type": "Feature", "properties": { "緯度": 39.0583569, "経度": 141.1266506, "url": "https://www.kaigokensaku.mhlw.go.jp/03/index.php?action_kouhyou_detail_004_kani=true&JigyosyoCd=391500063-00&ServiceCd=320&Type=search", "url2": "https://siriuscare.jp/", "内容": "グループホームシリウス前沢【認知症対応型共同生活介護】岩手県奥州市前沢あすか通四丁目8番地15", "サービスの種類": "認知症対応型共同生活介護" }, "geometry": { "type": "Point", "coordinates": [ 141.1266506, 39.0583569 ] } },
{ "type": "Feature", "properties": { "緯度": 39.1874707, "経度": 141.2341723, "url": "https://www.kaigokensaku.mhlw.go.jp/03/index.php?action_kouhyou_detail_004_kani=true&JigyosyoCd=391500154-00&ServiceCd=320&Type=search", "url2": "http://www.koyo-esashi.co.jp/", "内容": "グループホームふじの里【認知症対応型共同生活介護】岩手県奥州市江刺藤里字平37番地2", "サービスの種類": "認知症対応型共同生活介護" }, "geometry": { "type": "Point", "coordinates": [ 141.234172300000012, 39.1874707 ] } },
{ "type": "Feature", "properties": { "緯度": 39.1434688, "経度": 141.1827538, "url": "https://www.kaigokensaku.mhlw.go.jp/03/index.php?action_kouhyou_detail_004_kani=true&JigyosyoCd=370400376-00&ServiceCd=320&Type=search", "url2": "http://www.mirakukai.com/hidamari.php", "内容": "グループホームひだまり【認知症対応型共同生活介護】岩手県奥州市水沢羽田町字久保３７番地", "サービスの種類": "認知症対応型共同生活介護" }, "geometry": { "type": "Point", "coordinates": [ 141.1827538, 39.1434688 ] } },
{ "type": "Feature", "properties": { "緯度": 39.1293505, "経度": 141.0693561, "url": "https://www.kaigokensaku.mhlw.go.jp/03/index.php?action_kouhyou_detail_004_kani=true&JigyosyoCd=372500496-00&ServiceCd=320&Type=search", "url2": "http://www.oshuisawakai.iwate.jp", "内容": "グループホームぬくもりの家【認知症対応型共同生活介護】岩手県奥州市胆沢南都田字大持30番地", "サービスの種類": "認知症対応型共同生活介護" }, "geometry": { "type": "Point", "coordinates": [ 141.0693561, 39.1293505 ] } },
{ "type": "Feature", "properties": { "緯度": 39.1435966, "経度": 141.1823205, "url": "https://www.kaigokensaku.mhlw.go.jp/03/index.php?action_kouhyou_detail_004_kani=true&JigyosyoCd=391500089-00&ServiceCd=320&Type=search", "url2": "http://www.mirakukai.com/hidamari2.php", "内容": "グループホームひだまり２【認知症対応型共同生活介護】岩手県奥州市水沢羽田町久保53番地3", "サービスの種類": "認知症対応型共同生活介護" }, "geometry": { "type": "Point", "coordinates": [ 141.1823205, 39.1435966 ] } },
{ "type": "Feature", "properties": { "緯度": 39.1414443, "経度": 141.0918315, "url": "https://www.kaigokensaku.mhlw.go.jp/03/index.php?action_kouhyou_detail_004_kani=true&JigyosyoCd=391500204-00&ServiceCd=320&Type=search", "url2": null, "内容": "グループホームじゅあんの園【認知症対応型共同生活介護】岩手県奥州市胆沢南都田字石行30番地１いさわ高齢者複合施設じゅあんの園", "サービスの種類": "認知症対応型共同生活介護" }, "geometry": { "type": "Point", "coordinates": [ 141.091831500000012, 39.1414443 ] } },
{ "type": "Feature", "properties": { "緯度": 39.113199952924603, "経度": 141.07328755841399, "url": "https://www.kaigokensaku.mhlw.go.jp/03/index.php?action_kouhyou_detail_004_kani=true&JigyosyoCd=391500303-00&ServiceCd=320&Type=search", "url2": "http://assetlink.jp", "内容": "グループホームいさわ【認知症対応型共同生活介護】岩手県奥州市胆沢南都田字蛸の手443", "サービスの種類": "認知症対応型共同生活介護" }, "geometry": { "type": "Point", "coordinates": [ 141.073287558413995, 39.113199952924603 ] } },
{ "type": "Feature", "properties": { "緯度": 39.7064936018878, "経度": 141.07613193691, "url": "https://www.kaigokensaku.mhlw.go.jp/03/index.php?action_kouhyou_detail_004_kani=true&JigyosyoCd=392100103-00&ServiceCd=320&Type=search", "url2": "https://www.arteprado.jp/egaonohana/", "内容": "グループホームえがおの花大釜【認知症対応型共同生活介護】岩手県滝沢市大釜大畑72番地6", "サービスの種類": "認知症対応型共同生活介護" }, "geometry": { "type": "Point", "coordinates": [ 141.076131936910002, 39.7064936018878 ] } },
{ "type": "Feature", "properties": { "緯度": 39.747660241046297, "経度": 141.092287446033, "url": "https://www.kaigokensaku.mhlw.go.jp/03/index.php?action_kouhyou_detail_004_kani=true&JigyosyoCd=372100743-00&ServiceCd=320&Type=search", "url2": null, "内容": "グループホームほほえみの家【認知症対応型共同生活介護】岩手県滝沢市高屋敷平11-1", "サービスの種類": "認知症対応型共同生活介護" }, "geometry": { "type": "Point", "coordinates": [ 141.092287446032998, 39.747660241046297 ] } },
{ "type": "Feature", "properties": { "緯度": 39.7752588, "経度": 141.1462157, "url": "https://www.kaigokensaku.mhlw.go.jp/03/index.php?action_kouhyou_detail_004_kani=true&JigyosyoCd=372101006-00&ServiceCd=320&Type=search", "url2": "https://www.imagaichibankan.jp/", "内容": "グループホーム今が一番館【認知症対応型共同生活介護】岩手県滝沢市妻の神157番地3", "サービスの種類": "認知症対応型共同生活介護" }, "geometry": { "type": "Point", "coordinates": [ 141.1462157, 39.7752588 ] } },
{ "type": "Feature", "properties": { "緯度": 39.7971591, "経度": 141.1501786, "url": "https://www.kaigokensaku.mhlw.go.jp/03/index.php?action_kouhyou_detail_004_kani=true&JigyosyoCd=370101107-00&ServiceCd=320&Type=search", "url2": "https://www.magonote.cc", "内容": "ケアホームまごのて【認知症対応型共同生活介護】岩手県滝沢市野沢62-1041", "サービスの種類": "認知症対応型共同生活介護" }, "geometry": { "type": "Point", "coordinates": [ 141.1501786, 39.7971591 ] } },
{ "type": "Feature", "properties": { "緯度": 39.6624409, "経度": 140.9689888, "url": "https://www.kaigokensaku.mhlw.go.jp/03/index.php?action_kouhyou_detail_004_kani=true&JigyosyoCd=372100966-00&ServiceCd=320&Type=search", "url2": "http://www.sg-kumiai.or.jp/sg-kumiaiin/km-sizuku.html", "内容": "グループホームしずくいし【認知症対応型共同生活介護】岩手県岩手郡雫石町西安庭第15地割字下長谷地８１番地２６", "サービスの種類": "認知症対応型共同生活介護" }, "geometry": { "type": "Point", "coordinates": [ 140.9689888, 39.6624409 ] } },
{ "type": "Feature", "properties": { "緯度": 39.7018823, "経度": 141.0196367, "url": "https://www.kaigokensaku.mhlw.go.jp/03/index.php?action_kouhyou_detail_004_kani=true&JigyosyoCd=372100941-00&ServiceCd=320&Type=search", "url2": null, "内容": "グループホームたんたん【認知症対応型共同生活介護】岩手県岩手郡雫石町板橋３－７", "サービスの種類": "認知症対応型共同生活介護" }, "geometry": { "type": "Point", "coordinates": [ 141.0196367, 39.7018823 ] } },
{ "type": "Feature", "properties": { "緯度": 39.9811449977298, "経度": 141.40646689126601, "url": "https://www.kaigokensaku.mhlw.go.jp/03/index.php?action_kouhyou_detail_004_kani=true&JigyosyoCd=392100129-00&ServiceCd=320&Type=search", "url2": "https://kaigoiwate.com/", "内容": "グループホーム和や家くずまき【認知症対応型共同生活介護】岩手県岩手郡葛巻町葛巻第29地割34番地4グループホーム和や家くずまき", "サービスの種類": "認知症対応型共同生活介護" }, "geometry": { "type": "Point", "coordinates": [ 141.406466891266007, 39.9811449977298 ] } },
{ "type": "Feature", "properties": { "緯度": 39.9411931, "経度": 141.1950255, "url": "https://www.kaigokensaku.mhlw.go.jp/03/index.php?action_kouhyou_detail_004_kani=true&JigyosyoCd=372100974-00&ServiceCd=320&Type=search", "url2": "http://sawatari-iin.com/", "内容": "グループホームきらら【認知症対応型共同生活介護】岩手県岩手郡岩手町大字子抱第８地割１１０－７", "サービスの種類": "認知症対応型共同生活介護" }, "geometry": { "type": "Point", "coordinates": [ 141.195025500000014, 39.9411931 ] } },
{ "type": "Feature", "properties": { "緯度": 39.964891, "経度": 141.2189628, "url": "https://www.kaigokensaku.mhlw.go.jp/03/index.php?action_kouhyou_detail_004_kani=true&JigyosyoCd=392100012-00&ServiceCd=320&Type=search", "url2": "http://www.sawatari-iin.com/", "内容": "グループホームゆい【認知症対応型共同生活介護】岩手県岩手郡岩手町大字江刈内第６地割８番地９", "サービスの種類": "認知症対応型共同生活介護" }, "geometry": { "type": "Point", "coordinates": [ 141.218962800000014, 39.964891 ] } },
{ "type": "Feature", "properties": { "緯度": 39.968125058650003, "経度": 141.157070914819, "url": "https://www.kaigokensaku.mhlw.go.jp/03/index.php?action_kouhyou_detail_004_kani=true&JigyosyoCd=392100111-00&ServiceCd=320&Type=search", "url2": "https://kaigoiwate.com/", "内容": "グループホーム和や家～なごやか～【認知症対応型共同生活介護】岩手県岩手郡岩手町大字一方井7-10", "サービスの種類": "認知症対応型共同生活介護" }, "geometry": { "type": "Point", "coordinates": [ 141.157070914819002, 39.968125058650003 ] } },
{ "type": "Feature", "properties": { "緯度": 39.5981336, "経度": 141.2095129, "url": "https://www.kaigokensaku.mhlw.go.jp/03/index.php?action_kouhyou_detail_004_kani=true&JigyosyoCd=372200337-00&ServiceCd=320&Type=search", "url2": null, "内容": "グループホームゆうゆう北沢【認知症対応型共同生活介護】岩手県紫波郡紫波町北沢字北沢２－１", "サービスの種類": "認知症対応型共同生活介護" }, "geometry": { "type": "Point", "coordinates": [ 141.2095129, 39.5981336 ] } },
{ "type": "Feature", "properties": { "緯度": 39.5415171, "経度": 141.1716048, "url": "https://www.kaigokensaku.mhlw.go.jp/03/index.php?action_kouhyou_detail_004_kani=true&JigyosyoCd=372200303-00&ServiceCd=320&Type=search", "url2": "https://shiwakai.jp", "内容": "地域密着認知症対応型共同生活介護事業所グループホームやすらぎ【認知症対応型共同生活介護】岩手県紫波郡紫波町桜町字三本木46-1", "サービスの種類": "認知症対応型共同生活介護" }, "geometry": { "type": "Point", "coordinates": [ 141.171604800000011, 39.5415171 ] } },
{ "type": "Feature", "properties": { "緯度": 39.5477695, "経度": 141.100695, "url": "https://www.kaigokensaku.mhlw.go.jp/03/index.php?action_kouhyou_detail_004_kani=true&JigyosyoCd=372200501-00&ServiceCd=320&Type=search", "url2": "http://mozunosato.com", "内容": "グループホームゆいっこ【認知症対応型共同生活介護】岩手県紫波郡紫波町土舘字関沢２４番地１", "サービスの種類": "認知症対応型共同生活介護" }, "geometry": { "type": "Point", "coordinates": [ 141.100695, 39.5477695 ] } },
{ "type": "Feature", "properties": { "緯度": 39.613438205031699, "経度": 141.14706578623, "url": "https://www.kaigokensaku.mhlw.go.jp/03/index.php?action_kouhyou_detail_004_kani=true&JigyosyoCd=372200329-00&ServiceCd=320&Type=search", "url2": "http://www.ccnansyou.com", "内容": "グループホーム敬寿荘【認知症対応型共同生活介護】岩手県紫波郡矢巾町又兵ェ新田５－３３５ケアセンター南昌", "サービスの種類": "認知症対応型共同生活介護" }, "geometry": { "type": "Point", "coordinates": [ 141.147065786230002, 39.613438205031699 ] } },
{ "type": "Feature", "properties": { "緯度": 39.6143517, "経度": 141.1400082, "url": "https://www.kaigokensaku.mhlw.go.jp/03/index.php?action_kouhyou_detail_004_kani=true&JigyosyoCd=372200410-00&ServiceCd=320&Type=search", "url2": "http://kaigo-gh.co.jp", "内容": "グループホーム太陽荘【認知症対応型共同生活介護】岩手県紫波郡矢巾町大字又兵ェ新田5-28-2", "サービスの種類": "認知症対応型共同生活介護" }, "geometry": { "type": "Point", "coordinates": [ 141.140008200000011, 39.6143517 ] } },
{ "type": "Feature", "properties": { "緯度": 39.396482745849298, "経度": 140.75625610555699, "url": "https://www.kaigokensaku.mhlw.go.jp/03/index.php?action_kouhyou_detail_004_kani=true&JigyosyoCd=392400016-00&ServiceCd=320&Type=search", "url2": "http://www.iwate-tanaken.com/yuikko/", "内容": "介護ステーションゆいっこグループホーム【認知症対応型共同生活介護】岩手県和賀郡西和賀町沢内字新町４地割３２番地１", "サービスの種類": "認知症対応型共同生活介護" }, "geometry": { "type": "Point", "coordinates": [ 140.756256105556986, 39.396482745849298 ] } },
{ "type": "Feature", "properties": { "緯度": 39.3404849, "経度": 140.773258, "url": "https://www.kaigokensaku.mhlw.go.jp/03/index.php?action_kouhyou_detail_004_kani=true&JigyosyoCd=392400040-00&ServiceCd=320&Type=search", "url2": null, "内容": "医療法人社団真心会グループホーム笹の木【認知症対応型共同生活介護】岩手県和賀郡西和賀町湯本30-74-8", "サービスの種類": "認知症対応型共同生活介護" }, "geometry": { "type": "Point", "coordinates": [ 140.773258, 39.3404849 ] } },
{ "type": "Feature", "properties": { "緯度": 39.2212217, "経度": 141.0930066, "url": "https://www.kaigokensaku.mhlw.go.jp/03/index.php?action_kouhyou_detail_004_kani=true&JigyosyoCd=392500062-00&ServiceCd=320&Type=search", "url2": null, "内容": "グループホーム四季の郷【認知症対応型共同生活介護】岩手県胆沢郡金ケ崎町西根北荒巻21番地19", "サービスの種類": "認知症対応型共同生活介護" }, "geometry": { "type": "Point", "coordinates": [ 141.0930066, 39.2212217 ] } },
{ "type": "Feature", "properties": { "緯度": 39.1889111, "経度": 141.0037506, "url": "https://www.kaigokensaku.mhlw.go.jp/03/index.php?action_kouhyou_detail_004_kani=true&JigyosyoCd=392500021-00&ServiceCd=320&Type=search", "url2": "https://kanegasaki.oshushi.com/seikoso.php", "内容": "介護予防施設西光荘【認知症対応型共同生活介護】岩手県胆沢郡金ケ崎町西根和光５４４番地２", "サービスの種類": "認知症対応型共同生活介護" }, "geometry": { "type": "Point", "coordinates": [ 141.003750599999989, 39.1889111 ] } },
{ "type": "Feature", "properties": { "緯度": 39.2416436, "経度": 141.0711325, "url": "https://www.kaigokensaku.mhlw.go.jp/03/index.php?action_kouhyou_detail_004_kani=true&JigyosyoCd=372500447-00&ServiceCd=320&Type=search", "url2": "https://yamadori-iwate.com", "内容": "グループホームぽっかぽっかの家【認知症対応型共同生活介護】岩手県胆沢郡金ヶ崎町六原坊主屋敷36番地3", "サービスの種類": "認知症対応型共同生活介護" }, "geometry": { "type": "Point", "coordinates": [ 141.0711325, 39.2416436 ] } },
{ "type": "Feature", "properties": { "緯度": 38.9713331, "経度": 141.1085954, "url": "https://www.kaigokensaku.mhlw.go.jp/03/index.php?action_kouhyou_detail_004_kani=true&JigyosyoCd=372600288-00&ServiceCd=320&Type=search", "url2": "https://www.tousenkai.or.jp/", "内容": "グループホーム「けーせん」【認知症対応型共同生活介護】岩手県西磐井郡平泉町平泉字片岡72番地3グル－プホ－ム「け－せん」", "サービスの種類": "認知症対応型共同生活介護" }, "geometry": { "type": "Point", "coordinates": [ 141.108595400000013, 38.9713331 ] } },
{ "type": "Feature", "properties": { "緯度": 38.9616349, "経度": 141.1226472, "url": "https://www.kaigokensaku.mhlw.go.jp/03/index.php?action_kouhyou_detail_004_kani=true&JigyosyoCd=392600037-00&ServiceCd=320&Type=search", "url2": "http://www.cc-ikoi.com", "内容": "高齢者グループホームいこいの杜【認知症対応型共同生活介護】岩手県西磐井郡平泉町平泉字樋の沢25-1", "サービスの種類": "認知症対応型共同生活介護" }, "geometry": { "type": "Point", "coordinates": [ 141.122647199999989, 38.9616349 ] } },
{ "type": "Feature", "properties": { "緯度": 38.9777792, "経度": 141.0990182, "url": "https://www.kaigokensaku.mhlw.go.jp/03/index.php?action_kouhyou_detail_004_kani=true&JigyosyoCd=372600262-00&ServiceCd=320&Type=search", "url2": "http://www.siriuscare.jp/grouphome/", "内容": "グループホーム平泉【認知症対応型共同生活介護】岩手県西磐井郡平泉町平泉字日照田133-2", "サービスの種類": "認知症対応型共同生活介護" }, "geometry": { "type": "Point", "coordinates": [ 141.099018199999989, 38.9777792 ] } },
{ "type": "Feature", "properties": { "緯度": 39.1895098, "経度": 141.5606472, "url": "https://www.kaigokensaku.mhlw.go.jp/03/index.php?action_kouhyou_detail_004_kani=true&JigyosyoCd=392800017-00&ServiceCd=320&Type=search", "url2": "http://sumita-shakyo.jp", "内容": "グル－プホ－ムかっこう【認知症対応型共同生活介護】岩手県気仙郡住田町下有住字十文字89-2", "サービスの種類": "認知症対応型共同生活介護" }, "geometry": { "type": "Point", "coordinates": [ 141.5606472, 39.1895098 ] } },
{ "type": "Feature", "properties": { "緯度": 39.368435715902798, "経度": 141.899145274869, "url": "https://www.kaigokensaku.mhlw.go.jp/03/index.php?action_kouhyou_detail_004_kani=true&JigyosyoCd=392900072-00&ServiceCd=320&Type=search", "url2": "http://www.visualvision.co.jp", "内容": "けあビジョンホーム大槌【認知症対応型共同生活介護】岩手県上閉伊郡大槌町大槌第15地割51-20", "サービスの種類": "認知症対応型共同生活介護" }, "geometry": { "type": "Point", "coordinates": [ 141.899145274868999, 39.368435715902798 ] } },
{ "type": "Feature", "properties": { "緯度": 39.37096, "経度": 141.8957606, "url": "https://www.kaigokensaku.mhlw.go.jp/03/index.php?action_kouhyou_detail_004_kani=true&JigyosyoCd=392900031-00&ServiceCd=320&Type=search", "url2": "https://siroyamanomori.wixsite.com/website", "内容": "グループホーム城山の杜【認知症対応型共同生活介護】岩手県上閉伊郡大槌町大槌１５－５－１", "サービスの種類": "認知症対応型共同生活介護" }, "geometry": { "type": "Point", "coordinates": [ 141.895760599999988, 39.37096 ] } },
{ "type": "Feature", "properties": { "緯度": 39.496914647907602, "経度": 141.96021210102199, "url": "https://www.kaigokensaku.mhlw.go.jp/03/index.php?action_kouhyou_detail_004_kani=true&JigyosyoCd=373000744-00&ServiceCd=320&Type=search", "url2": "https://www.big-advance.site/s/197/1290", "内容": "グループホームまぶる【認知症対応型共同生活介護】岩手県下閉伊郡山田町大沢４－３８－５", "サービスの種類": "認知症対応型共同生活介護" }, "geometry": { "type": "Point", "coordinates": [ 141.960212101021995, 39.496914647907602 ] } },
{ "type": "Feature", "properties": { "緯度": 39.4591862, "経度": 141.9368276, "url": "https://www.kaigokensaku.mhlw.go.jp/03/index.php?action_kouhyou_detail_004_kani=true&JigyosyoCd=393000146-00&ServiceCd=320&Type=search", "url2": "https://www.big-advance.site/s/197/1290", "内容": "グループホームまぶるいろは館【認知症対応型共同生活介護】岩手県下閉伊郡山田町飯岡６－１４－１", "サービスの種類": "認知症対応型共同生活介護" }, "geometry": { "type": "Point", "coordinates": [ 141.936827599999987, 39.4591862 ] } },
{ "type": "Feature", "properties": { "緯度": 39.4769211, "経度": 141.9189054, "url": "https://www.kaigokensaku.mhlw.go.jp/03/index.php?action_kouhyou_detail_004_kani=true&JigyosyoCd=393000120-00&ServiceCd=320&Type=search", "url2": null, "内容": "あお空グループホーム山田【認知症対応型共同生活介護】岩手県下閉伊郡山田町山田第19地割51番地1", "サービスの種類": "認知症対応型共同生活介護" }, "geometry": { "type": "Point", "coordinates": [ 141.9189054, 39.4769211 ] } },
{ "type": "Feature", "properties": { "緯度": 39.536372291366298, "経度": 141.92598434417999, "url": "https://www.kaigokensaku.mhlw.go.jp/03/index.php?action_kouhyou_detail_004_kani=true&JigyosyoCd=393000013-00&ServiceCd=320&Type=search", "url2": null, "内容": "ホームとよまね【認知症対応型共同生活介護】岩手県下閉伊郡山田町豊間根第２地割６４番１１", "サービスの種類": "認知症対応型共同生活介護" }, "geometry": { "type": "Point", "coordinates": [ 141.925984344179994, 39.536372291366298 ] } },
{ "type": "Feature", "properties": { "緯度": 39.5312795, "経度": 141.9277946, "url": "https://www.kaigokensaku.mhlw.go.jp/03/index.php?action_kouhyou_detail_004_kani=true&JigyosyoCd=393000054-00&ServiceCd=320&Type=search", "url2": null, "内容": "ホームとよまね２号館【認知症対応型共同生活介護】岩手県下閉伊郡山田町豊間根第２地割１１１番地３", "サービスの種類": "認知症対応型共同生活介護" }, "geometry": { "type": "Point", "coordinates": [ 141.9277946, 39.5312795 ] } },
{ "type": "Feature", "properties": { "緯度": 39.839972203072698, "経度": 141.779611276721, "url": "https://www.kaigokensaku.mhlw.go.jp/03/index.php?action_kouhyou_detail_004_kani=true&JigyosyoCd=393000047-00&ServiceCd=320&Type=search", "url2": "http://www.hohoeminosato.jp/group/", "内容": "グループホームいわいずみ【認知症対応型共同生活介護】岩手県下閉伊郡岩泉町尼額字下坪41-2", "サービスの種類": "認知症対応型共同生活介護" }, "geometry": { "type": "Point", "coordinates": [ 141.779611276720999, 39.839972203072698 ] } },
{ "type": "Feature", "properties": { "緯度": 39.8831889, "経度": 141.6366302, "url": "https://www.kaigokensaku.mhlw.go.jp/03/index.php?action_kouhyou_detail_004_kani=true&JigyosyoCd=393000138-00&ServiceCd=320&Type=search", "url2": null, "内容": "グループホームよろこび【認知症対応型共同生活介護】岩手県下閉伊郡岩泉町門字水上29番地19", "サービスの種類": "認知症対応型共同生活介護" }, "geometry": { "type": "Point", "coordinates": [ 141.636630200000013, 39.8831889 ] } },
{ "type": "Feature", "properties": { "緯度": 39.8440322, "経度": 141.9688109, "url": "https://www.kaigokensaku.mhlw.go.jp/03/index.php?action_kouhyou_detail_004_kani=true&JigyosyoCd=393000070-00&ServiceCd=320&Type=search", "url2": null, "内容": "あお空グループホーム小本【認知症対応型共同生活介護】岩手県下閉伊郡岩泉町小本字南中野285番地", "サービスの種類": "認知症対応型共同生活介護" }, "geometry": { "type": "Point", "coordinates": [ 141.9688109, 39.8440322 ] } },
{ "type": "Feature", "properties": { "緯度": 39.9320084, "経度": 141.8938176, "url": "https://www.kaigokensaku.mhlw.go.jp/03/index.php?action_kouhyou_detail_004_kani=true&JigyosyoCd=373000710-00&ServiceCd=320&Type=search", "url2": "http://www.jyuseikai.jp/", "内容": "グループホームたのはた虹の家【認知症対応型共同生活介護】岩手県下閉伊郡田野畑村田野畑１２０－１８", "サービスの種類": "認知症対応型共同生活介護" }, "geometry": { "type": "Point", "coordinates": [ 141.8938176, 39.9320084 ] } },
{ "type": "Feature", "properties": { "緯度": 39.9636947, "経度": 141.9348382, "url": "https://www.kaigokensaku.mhlw.go.jp/03/index.php?action_kouhyou_detail_004_kani=true&JigyosyoCd=393000088-00&ServiceCd=320&Type=search", "url2": "https://www.ghtsukue.jp", "内容": "グループホームつくえ【認知症対応型共同生活介護】岩手県下閉伊郡田野畑村机299番地", "サービスの種類": "認知症対応型共同生活介護" }, "geometry": { "type": "Point", "coordinates": [ 141.9348382, 39.9636947 ] } },
{ "type": "Feature", "properties": { "緯度": 40.0136984, "経度": 141.8542857, "url": "https://www.kaigokensaku.mhlw.go.jp/03/index.php?action_kouhyou_detail_004_kani=true&JigyosyoCd=373000694-00&ServiceCd=320&Type=search", "url2": "https://www.unetorisou.com", "内容": "グループホームとりい【認知症対応型共同生活介護】岩手県下閉伊郡普代村第24地割字鳥居5番地1", "サービスの種類": "認知症対応型共同生活介護" }, "geometry": { "type": "Point", "coordinates": [ 141.8542857, 40.0136984 ] } },
{ "type": "Feature", "properties": { "緯度": 40.3147163, "経度": 141.4568557, "url": "https://www.kaigokensaku.mhlw.go.jp/03/index.php?action_kouhyou_detail_004_kani=true&JigyosyoCd=393100052-00&ServiceCd=320&Type=search", "url2": "http://www.reitakukai.net", "内容": "グループホーム花の里かるまい【認知症対応型共同生活介護】岩手県九戸郡軽米町大字軽米第22地割42番", "サービスの種類": "認知症対応型共同生活介護" }, "geometry": { "type": "Point", "coordinates": [ 141.4568557, 40.3147163 ] } },
{ "type": "Feature", "properties": { "緯度": 40.082656202337397, "経度": 141.828533279901, "url": "https://www.kaigokensaku.mhlw.go.jp/03/index.php?action_kouhyou_detail_004_kani=true&JigyosyoCd=393100128-00&ServiceCd=320&Type=search", "url2": "https://peraichi.com/landing_pages/view/kenjikai001/", "内容": "グループホームぬくもり【認知症対応型共同生活介護】岩手県九戸郡野田村大字玉川第５地割４５－２２", "サービスの種類": "認知症対応型共同生活介護" }, "geometry": { "type": "Point", "coordinates": [ 141.828533279900995, 40.082656202337397 ] } },
{ "type": "Feature", "properties": { "緯度": 40.2126167, "経度": 141.421549, "url": "https://www.kaigokensaku.mhlw.go.jp/03/index.php?action_kouhyou_detail_004_kani=true&JigyosyoCd=393100011-00&ServiceCd=320&Type=search", "url2": "http://www.oritsumesou.or.jp", "内容": "認知症高齢者グループホームおりつめ【認知症対応型共同生活介護】岩手県九戸郡九戸村大字伊保内第8地割15番地1", "サービスの種類": "認知症対応型共同生活介護" }, "geometry": { "type": "Point", "coordinates": [ 141.421549, 40.2126167 ] } },
{ "type": "Feature", "properties": { "緯度": 40.3757891, "経度": 141.659814, "url": "https://www.kaigokensaku.mhlw.go.jp/03/index.php?action_kouhyou_detail_004_kani=true&JigyosyoCd=393100219-00&ServiceCd=320&Type=search", "url2": null, "内容": "グループホームほほえみ【認知症対応型共同生活介護】岩手県九戸郡洋野町種市４１－１５－２", "サービスの種類": "認知症対応型共同生活介護" }, "geometry": { "type": "Point", "coordinates": [ 141.659814, 40.3757891 ] } },
{ "type": "Feature", "properties": { "緯度": 40.4381173, "経度": 141.6811373, "url": "https://www.kaigokensaku.mhlw.go.jp/03/index.php?action_kouhyou_detail_004_kani=true&JigyosyoCd=393100060-00&ServiceCd=320&Type=search", "url2": "https://fujimori-kaigo.com/", "内容": "グループホームみどりの里【認知症対応型共同生活介護】岩手県九戸郡洋野町種市第40地割22番地2", "サービスの種類": "認知症対応型共同生活介護" }, "geometry": { "type": "Point", "coordinates": [ 141.681137299999989, 40.4381173 ] } },
{ "type": "Feature", "properties": { "緯度": 40.3058844, "経度": 141.7805737, "url": "https://www.kaigokensaku.mhlw.go.jp/03/index.php?action_kouhyou_detail_004_kani=true&JigyosyoCd=373100460-00&ServiceCd=320&Type=search", "url2": "http://ghmanten.jimdo.com/", "内容": "グループホーム満天【認知症対応型共同生活介護】岩手県九戸郡洋野町中野第３地割３８番１８９", "サービスの種類": "認知症対応型共同生活介護" }, "geometry": { "type": "Point", "coordinates": [ 141.7805737, 40.3058844 ] } },
{ "type": "Feature", "properties": { "緯度": 40.2503969, "経度": 141.6994135, "url": "https://www.kaigokensaku.mhlw.go.jp/03/index.php?action_kouhyou_detail_004_kani=true&JigyosyoCd=393100094-00&ServiceCd=320&Type=search", "url2": null, "内容": "グループホームくるみ【認知症対応型共同生活介護】岩手県九戸郡洋野町帯島7-44-3", "サービスの種類": "認知症対応型共同生活介護" }, "geometry": { "type": "Point", "coordinates": [ 141.6994135, 40.2503969 ] } },
{ "type": "Feature", "properties": { "緯度": 40.1654161, "経度": 141.3368384, "url": "https://www.kaigokensaku.mhlw.go.jp/03/index.php?action_kouhyou_detail_004_kani=true&JigyosyoCd=373200260-00&ServiceCd=320&Type=search", "url2": "http://iwate-jikoukai.jp/", "内容": "麗の郷なごみ【認知症対応型共同生活介護】岩手県二戸郡一戸町姉帯字下村24番地1", "サービスの種類": "認知症対応型共同生活介護" }, "geometry": { "type": "Point", "coordinates": [ 141.3368384, 40.1654161 ] } },
{ "type": "Feature", "properties": { "緯度": 40.215127919602402, "経度": 141.29880890025001, "url": "https://www.kaigokensaku.mhlw.go.jp/03/index.php?action_kouhyou_detail_004_kani=true&JigyosyoCd=391300019-00&ServiceCd=320&Type=search", "url2": null, "内容": "グループホームにこトピア一戸【認知症対応型共同生活介護】岩手県二戸郡一戸町一戸字向町56番地1", "サービスの種類": "認知症対応型共同生活介護" }, "geometry": { "type": "Point", "coordinates": [ 141.298808900250009, 40.215127919602402 ] } }
]
}
