{
"type": "FeatureCollection",
"name": "geo_03_福祉用具貸与",
"crs": { "type": "name", "properties": { "name": "urn:ogc:def:crs:OGC:1.3:CRS84" } },
"features": [
{ "type": "Feature", "properties": { "緯度": 39.6685736, "経度": 141.1536599, "url": "https://www.kaigokensaku.mhlw.go.jp/03/index.php?action_kouhyou_detail_004_kani=true&JigyosyoCd=370106551-00&ServiceCd=170&Type=search", "url2": "http://kenkou-asa.com", "内容": "けんこう【福祉用具貸与】岩手県盛岡市津志田町1-14-25ノーブル津志田101号", "サービスの種類": "福祉用具貸与" }, "geometry": { "type": "Point", "coordinates": [ 141.1536599, 39.668573599999988 ] } },
{ "type": "Feature", "properties": { "緯度": 39.745499670896592, "経度": 141.11918417959291, "url": "https://www.kaigokensaku.mhlw.go.jp/03/index.php?action_kouhyou_detail_004_kani=true&JigyosyoCd=370102774-00&ServiceCd=170&Type=search", "url2": null, "内容": "日本パック・リハビリ株式会社盛岡営業所【福祉用具貸与】岩手県盛岡市みたけ4-14-37", "サービスの種類": "福祉用具貸与" }, "geometry": { "type": "Point", "coordinates": [ 141.119184179592907, 39.745499670896592 ] } },
{ "type": "Feature", "properties": { "緯度": 39.7106901, "経度": 141.1194143, "url": "https://www.kaigokensaku.mhlw.go.jp/03/index.php?action_kouhyou_detail_004_kani=true&JigyosyoCd=370108003-00&ServiceCd=170&Type=search", "url2": null, "内容": "スマイルサポート株式会社【福祉用具貸与】岩手県盛岡市天昌寺町9-62-202", "サービスの種類": "福祉用具貸与" }, "geometry": { "type": "Point", "coordinates": [ 141.119414299999988, 39.7106901 ] } },
{ "type": "Feature", "properties": { "緯度": 39.640367978947587, "経度": 141.1009576313522, "url": "https://www.kaigokensaku.mhlw.go.jp/03/index.php?action_kouhyou_detail_004_kani=true&JigyosyoCd=370105736-00&ServiceCd=170&Type=search", "url2": "http://honobonohonobono.com", "内容": "福祉用具事業所すがわら【福祉用具貸与】岩手県盛岡市湯沢東三丁目17番13号", "サービスの種類": "福祉用具貸与" }, "geometry": { "type": "Point", "coordinates": [ 141.100957631352202, 39.640367978947587 ] } },
{ "type": "Feature", "properties": { "緯度": 39.6879538, "経度": 141.1260118, "url": "https://www.kaigokensaku.mhlw.go.jp/03/index.php?action_kouhyou_detail_004_kani=true&JigyosyoCd=370106817-00&ServiceCd=170&Type=search", "url2": null, "内容": "フォレスト福祉用具サービス盛岡【福祉用具貸与】岩手県盛岡市本宮六丁目1-6101", "サービスの種類": "福祉用具貸与" }, "geometry": { "type": "Point", "coordinates": [ 141.126011799999986, 39.6879538 ] } },
{ "type": "Feature", "properties": { "緯度": 39.7071721, "経度": 141.1639856, "url": "https://www.kaigokensaku.mhlw.go.jp/03/index.php?action_kouhyou_detail_004_kani=true&JigyosyoCd=370100166-00&ServiceCd=170&Type=search", "url2": "https://ladyseye.dai-ichi.com/", "内容": "第一商事株式会社レディーズ・アイ事業部【福祉用具貸与】岩手県盛岡市加賀野1-19-29", "サービスの種類": "福祉用具貸与" }, "geometry": { "type": "Point", "coordinates": [ 141.163985599999904, 39.7071721 ] } },
{ "type": "Feature", "properties": { "緯度": 39.6745414, "経度": 141.1365238, "url": "https://www.kaigokensaku.mhlw.go.jp/03/index.php?action_kouhyou_detail_004_kani=true&JigyosyoCd=370107575-00&ServiceCd=170&Type=search", "url2": "https://www.dcm-hc.co.jp/homac-fukushi/", "内容": "DCM盛南店【福祉用具貸与】岩手県盛岡市向中野7丁目16番77号DCM盛南店", "サービスの種類": "福祉用具貸与" }, "geometry": { "type": "Point", "coordinates": [ 141.1365238, 39.6745414 ] } },
{ "type": "Feature", "properties": { "緯度": 39.6062097, "経度": 141.2018152, "url": "https://www.kaigokensaku.mhlw.go.jp/03/index.php?action_kouhyou_detail_004_kani=true&JigyosyoCd=370104168-00&ServiceCd=170&Type=search", "url2": "https://www.kaigoshop.net/morioka/", "内容": "パナソニックエイジフリーショップ盛岡【福祉用具貸与】岩手県盛岡市乙部28地割25番地2", "サービスの種類": "福祉用具貸与" }, "geometry": { "type": "Point", "coordinates": [ 141.2018152, 39.6062097 ] } },
{ "type": "Feature", "properties": { "緯度": 39.652604502151917, "経度": 141.11427718650819, "url": "https://www.kaigokensaku.mhlw.go.jp/03/index.php?action_kouhyou_detail_004_kani=true&JigyosyoCd=370100141-00&ServiceCd=170&Type=search", "url2": "http://www.caretec.co.jp/", "内容": "株式会社ケア・テック【福祉用具貸与】岩手県盛岡市湯沢16地割15番地8", "サービスの種類": "福祉用具貸与" }, "geometry": { "type": "Point", "coordinates": [ 141.11427718650819, 39.652604502151917 ] } },
{ "type": "Feature", "properties": { "緯度": 39.6652181, "経度": 141.1531043, "url": "https://www.kaigokensaku.mhlw.go.jp/03/index.php?action_kouhyou_detail_004_kani=true&JigyosyoCd=370108094-00&ServiceCd=170&Type=search", "url2": null, "内容": "株式会社ライフプラス【福祉用具貸与】岩手県盛岡市津志田町３丁目3-20", "サービスの種類": "福祉用具貸与" }, "geometry": { "type": "Point", "coordinates": [ 141.1531043, 39.6652181 ] } },
{ "type": "Feature", "properties": { "緯度": 39.7243555, "経度": 141.1256218, "url": "https://www.kaigokensaku.mhlw.go.jp/03/index.php?action_kouhyou_detail_004_kani=true&JigyosyoCd=370100935-00&ServiceCd=170&Type=search", "url2": "http://healthrent.duskin.jp/", "内容": "ダスキンヘルスレント盛岡ステーション【福祉用具貸与】岩手県盛岡市上堂１丁目4番38号", "サービスの種類": "福祉用具貸与" }, "geometry": { "type": "Point", "coordinates": [ 141.1256218, 39.7243555 ] } },
{ "type": "Feature", "properties": { "緯度": 39.688051781963047, "経度": 141.12530542645871, "url": "https://www.kaigokensaku.mhlw.go.jp/03/index.php?action_kouhyou_detail_004_kani=true&JigyosyoCd=370103798-00&ServiceCd=170&Type=search", "url2": "http://kaigonomori.net", "内容": "ウエルネス生活研究所【福祉用具貸与】岩手県盛岡市本宮六丁目1番47号", "サービスの種類": "福祉用具貸与" }, "geometry": { "type": "Point", "coordinates": [ 141.125305426458709, 39.688051781963047 ] } },
{ "type": "Feature", "properties": { "緯度": 39.6532079, "経度": 141.1261022, "url": "https://www.kaigokensaku.mhlw.go.jp/03/index.php?action_kouhyou_detail_004_kani=true&JigyosyoCd=370100158-00&ServiceCd=170&Type=search", "url2": "http://tsukasa-cp.jp/", "内容": "ツカサコーポレーション【福祉用具貸与】岩手県盛岡市羽場10-1-9", "サービスの種類": "福祉用具貸与" }, "geometry": { "type": "Point", "coordinates": [ 141.1261022, 39.6532079 ] } },
{ "type": "Feature", "properties": { "緯度": 39.716993644073042, "経度": 141.10278684000849, "url": "https://www.kaigokensaku.mhlw.go.jp/03/index.php?action_kouhyou_detail_004_kani=true&JigyosyoCd=370102063-00&ServiceCd=170&Type=search", "url2": "http://www.iwate.coop/", "内容": "コープ介護・福祉センター【福祉用具貸与】岩手県盛岡市長橋町17-35", "サービスの種類": "福祉用具貸与" }, "geometry": { "type": "Point", "coordinates": [ 141.102786840008491, 39.716993644073042 ] } },
{ "type": "Feature", "properties": { "緯度": 39.697875301297273, "経度": 141.1525540595072, "url": "https://www.kaigokensaku.mhlw.go.jp/03/index.php?action_kouhyou_detail_004_kani=true&JigyosyoCd=370103665-00&ServiceCd=170&Type=search", "url2": "https://sunme.co.jp/", "内容": "株式会社サンメディカル肴町店【福祉用具貸与】岩手県盛岡市肴町2番31号", "サービスの種類": "福祉用具貸与" }, "geometry": { "type": "Point", "coordinates": [ 141.152554059507196, 39.697875301297273 ] } },
{ "type": "Feature", "properties": { "緯度": 39.713361848148267, "経度": 141.14787839814761, "url": "https://www.kaigokensaku.mhlw.go.jp/03/index.php?action_kouhyou_detail_004_kani=true&JigyosyoCd=372101154-00&ServiceCd=170&Type=search", "url2": null, "内容": "株式会社サンメディックス　シルバーレンタルサービス盛岡【福祉用具貸与】岩手県盛岡市上田１丁目1-30", "サービスの種類": "福祉用具貸与" }, "geometry": { "type": "Point", "coordinates": [ 141.147878398147611, 39.713361848148267 ] } },
{ "type": "Feature", "properties": { "緯度": 39.6681264, "経度": 141.1541488, "url": "https://www.kaigokensaku.mhlw.go.jp/03/index.php?action_kouhyou_detail_004_kani=true&JigyosyoCd=370101545-00&ServiceCd=170&Type=search", "url2": "http://www.odashima-acty.co.jp", "内容": "株式会社小田島アクティ介護用品部岩手営業所【福祉用具貸与】岩手県盛岡市津志田町1丁目11番15号", "サービスの種類": "福祉用具貸与" }, "geometry": { "type": "Point", "coordinates": [ 141.1541488, 39.6681264 ] } },
{ "type": "Feature", "properties": { "緯度": 39.6908064, "経度": 141.132975, "url": "https://www.kaigokensaku.mhlw.go.jp/03/index.php?action_kouhyou_detail_004_kani=true&JigyosyoCd=370103731-00&ServiceCd=170&Type=search", "url2": null, "内容": "エム指定福祉用具センター【福祉用具貸与】岩手県盛岡市本宮三丁目29番1号", "サービスの種類": "福祉用具貸与" }, "geometry": { "type": "Point", "coordinates": [ 141.132975, 39.6908064 ] } },
{ "type": "Feature", "properties": { "緯度": 39.6753484, "経度": 141.1431085, "url": "https://www.kaigokensaku.mhlw.go.jp/03/index.php?action_kouhyou_detail_004_kani=true&JigyosyoCd=370108102-00&ServiceCd=170&Type=search", "url2": "https://www.kankyonet.co.jp", "内容": "株式会社かんきょう盛岡支店【福祉用具貸与】岩手県盛岡向中野八丁目３番２号", "サービスの種類": "福祉用具貸与" }, "geometry": { "type": "Point", "coordinates": [ 141.143108500000011, 39.6753484 ] } },
{ "type": "Feature", "properties": { "緯度": 39.6344031, "経度": 141.9147297, "url": "https://www.kaigokensaku.mhlw.go.jp/03/index.php?action_kouhyou_detail_004_kani=true&JigyosyoCd=370200677-00&ServiceCd=170&Type=search", "url2": null, "内容": "有限会社　介護リフォームセンター　宮古営業所【福祉用具貸与】岩手県宮古市板屋3丁目3番3号", "サービスの種類": "福祉用具貸与" }, "geometry": { "type": "Point", "coordinates": [ 141.9147297, 39.6344031 ] } },
{ "type": "Feature", "properties": { "緯度": 39.6590067, "経度": 141.9487514, "url": "https://www.kaigokensaku.mhlw.go.jp/03/index.php?action_kouhyou_detail_004_kani=true&JigyosyoCd=370200313-00&ServiceCd=170&Type=search", "url2": "http://www.caretec.co.jp/", "内容": "株式会社ケア・テック宮古営業所【福祉用具貸与】岩手県宮古市崎鍬ヶ崎第１地割１１ー２６", "サービスの種類": "福祉用具貸与" }, "geometry": { "type": "Point", "coordinates": [ 141.9487514, 39.6590067 ] } },
{ "type": "Feature", "properties": { "緯度": 39.63783622650012, "経度": 141.9593415573249, "url": "https://www.kaigokensaku.mhlw.go.jp/03/index.php?action_kouhyou_detail_004_kani=true&JigyosyoCd=370201022-00&ServiceCd=170&Type=search", "url2": "https://takumi-sanriku.com", "内容": "株式会社ＴＡＫＵＭＩコーポレーション【福祉用具貸与】岩手県宮古市藤原一丁目8番8号", "サービスの種類": "福祉用具貸与" }, "geometry": { "type": "Point", "coordinates": [ 141.959341557324905, 39.63783622650012 ] } },
{ "type": "Feature", "properties": { "緯度": 39.640019239763241, "経度": 141.93182434036731, "url": "https://www.kaigokensaku.mhlw.go.jp/03/index.php?action_kouhyou_detail_004_kani=true&JigyosyoCd=370200735-00&ServiceCd=170&Type=search", "url2": "http://sunme.co.jp/", "内容": "株式会社サンメディカル宮古店【福祉用具貸与】岩手県宮古市長根2丁目6-4", "サービスの種類": "福祉用具貸与" }, "geometry": { "type": "Point", "coordinates": [ 141.931824340367314, 39.640019239763241 ] } },
{ "type": "Feature", "properties": { "緯度": 39.647019, "経度": 141.9391467, "url": "https://www.kaigokensaku.mhlw.go.jp/03/index.php?action_kouhyou_detail_004_kani=true&JigyosyoCd=370200172-00&ServiceCd=170&Type=search", "url2": "http://www.rnac.ne.jp/~tsukasaa/", "内容": "ツカサ介護サービス宮古センター【福祉用具貸与】岩手県宮古市宮町4-1-9", "サービスの種類": "福祉用具貸与" }, "geometry": { "type": "Point", "coordinates": [ 141.9391467, 39.647019 ] } },
{ "type": "Feature", "properties": { "緯度": 39.076002082071398, "経度": 141.71561657976221, "url": "https://www.kaigokensaku.mhlw.go.jp/03/index.php?action_kouhyou_detail_004_kani=true&JigyosyoCd=370300584-00&ServiceCd=170&Type=search", "url2": "http://www.caretec.co.jp", "内容": "株式会社ケア・テック大船渡営業所【福祉用具貸与】岩手県大船渡市大船渡町字地ノ森27-11", "サービスの種類": "福祉用具貸与" }, "geometry": { "type": "Point", "coordinates": [ 141.715616579762212, 39.076002082071398 ] } },
{ "type": "Feature", "properties": { "緯度": 39.063524782514698, "経度": 141.71851346348129, "url": "https://www.kaigokensaku.mhlw.go.jp/03/index.php?action_kouhyou_detail_004_kani=true&JigyosyoCd=370300337-00&ServiceCd=170&Type=search", "url2": null, "内容": "クレール【福祉用具貸与】岩手県大船渡市大船渡町字茶屋前56-5", "サービスの種類": "福祉用具貸与" }, "geometry": { "type": "Point", "coordinates": [ 141.718513463481287, 39.063524782514698 ] } },
{ "type": "Feature", "properties": { "緯度": 39.079725603618407, "経度": 141.72364280225099, "url": "https://www.kaigokensaku.mhlw.go.jp/03/index.php?action_kouhyou_detail_004_kani=true&JigyosyoCd=370300295-00&ServiceCd=170&Type=search", "url2": "https://sunme.co.jp", "内容": "株式会社サンメディカル大船渡店【福祉用具貸与】岩手県大船渡市赤崎町字佐野83", "サービスの種類": "福祉用具貸与" }, "geometry": { "type": "Point", "coordinates": [ 141.723642802250993, 39.079725603618407 ] } },
{ "type": "Feature", "properties": { "緯度": 39.415025054785197, "経度": 141.1265751262043, "url": "https://www.kaigokensaku.mhlw.go.jp/03/index.php?action_kouhyou_detail_004_kani=true&JigyosyoCd=370500621-00&ServiceCd=170&Type=search", "url2": "http://hp.kaipoke.biz/ga4/", "内容": "介護レンタルショップ三光【福祉用具貸与】岩手県花巻市西宮野目第１１地割１１５－２", "サービスの種類": "福祉用具貸与" }, "geometry": { "type": "Point", "coordinates": [ 141.126575126204301, 39.415025054785197 ] } },
{ "type": "Feature", "properties": { "緯度": 39.3857371, "経度": 141.11932019999989, "url": "https://www.kaigokensaku.mhlw.go.jp/03/index.php?action_kouhyou_detail_004_kani=true&JigyosyoCd=370500654-00&ServiceCd=170&Type=search", "url2": "http://www.odashima-acty.co.jp", "内容": "福祉用具センターぼだいじゅ【福祉用具貸与】岩手県花巻市東町1番5号", "サービスの種類": "福祉用具貸与" }, "geometry": { "type": "Point", "coordinates": [ 141.119320199999891, 39.3857371 ] } },
{ "type": "Feature", "properties": { "緯度": 39.387438046367592, "経度": 141.11834408416141, "url": "https://www.kaigokensaku.mhlw.go.jp/03/index.php?action_kouhyou_detail_004_kani=true&JigyosyoCd=370500670-00&ServiceCd=170&Type=search", "url2": "http://www.sakamoto-ph.net/", "内容": "サカモト介護レンタル【福祉用具貸与】岩手県花巻市仲町５番４４号", "サービスの種類": "福祉用具貸与" }, "geometry": { "type": "Point", "coordinates": [ 141.118344084161407, 39.387438046367592 ] } },
{ "type": "Feature", "properties": { "緯度": 39.3233522, "経度": 141.1028379, "url": "https://www.kaigokensaku.mhlw.go.jp/03/index.php?action_kouhyou_detail_004_kani=true&JigyosyoCd=370600108-00&ServiceCd=170&Type=search", "url2": "https://kaigowakouwa.jp", "内容": "有限会社幸和産業【福祉用具貸与】岩手県北上市村崎野15地割354番地1", "サービスの種類": "福祉用具貸与" }, "geometry": { "type": "Point", "coordinates": [ 141.102837899999912, 39.323352200000024 ] } },
{ "type": "Feature", "properties": { "緯度": 39.293695281290169, "経度": 141.093084532402, "url": "https://www.kaigokensaku.mhlw.go.jp/03/index.php?action_kouhyou_detail_004_kani=true&JigyosyoCd=370601247-00&ServiceCd=170&Type=search", "url2": "http://www.t-biltec.com", "内容": "シルバーサポート「きずな」【福祉用具貸与】岩手県北上市北鬼柳19地割68番地", "サービスの種類": "福祉用具貸与" }, "geometry": { "type": "Point", "coordinates": [ 141.093084532402003, 39.293695281290169 ] } },
{ "type": "Feature", "properties": { "緯度": 39.269111780956727, "経度": 141.11146404618819, "url": "https://www.kaigokensaku.mhlw.go.jp/03/index.php?action_kouhyou_detail_004_kani=true&JigyosyoCd=370600462-00&ServiceCd=170&Type=search", "url2": "http://akitakijunshingu.co.jp", "内容": "秋田基準寝具株式会社北上営業所【福祉用具貸与】岩手県北上市鬼柳町川原小屋26-3", "サービスの種類": "福祉用具貸与" }, "geometry": { "type": "Point", "coordinates": [ 141.111464046188189, 39.269111780956727 ] } },
{ "type": "Feature", "properties": { "緯度": 39.2937387, "経度": 141.1052275, "url": "https://www.kaigokensaku.mhlw.go.jp/03/index.php?action_kouhyou_detail_004_kani=true&JigyosyoCd=370600538-00&ServiceCd=170&Type=search", "url2": null, "内容": "ダスキンヘルスレント北上ステーション【福祉用具貸与】岩手県北上市有田町９番５１号", "サービスの種類": "福祉用具貸与" }, "geometry": { "type": "Point", "coordinates": [ 141.105227500000012, 39.2937387 ] } },
{ "type": "Feature", "properties": { "緯度": 39.2639227, "経度": 141.1123306, "url": "https://www.kaigokensaku.mhlw.go.jp/03/index.php?action_kouhyou_detail_004_kani=true&JigyosyoCd=370600389-00&ServiceCd=170&Type=search", "url2": "http://www.medicare-econet.co.jp", "内容": "株式会社メディケアエコネット【福祉用具貸与】岩手県北上市相去町西裏1番地41", "サービスの種類": "福祉用具貸与" }, "geometry": { "type": "Point", "coordinates": [ 141.1123306, 39.263922699999988 ] } },
{ "type": "Feature", "properties": { "緯度": 39.301163503467123, "経度": 141.07589247513121, "url": "https://www.kaigokensaku.mhlw.go.jp/03/index.php?action_kouhyou_detail_004_kani=true&JigyosyoCd=370601254-00&ServiceCd=170&Type=search", "url2": null, "内容": "株式会社東北メディケアサービス日高見福祉用具センター【福祉用具貸与】岩手県北上市上江釣子16-62-1", "サービスの種類": "福祉用具貸与" }, "geometry": { "type": "Point", "coordinates": [ 141.075892475131212, 39.301163503467123 ] } },
{ "type": "Feature", "properties": { "緯度": 40.1989927, "経度": 141.7787403, "url": "https://www.kaigokensaku.mhlw.go.jp/03/index.php?action_kouhyou_detail_004_kani=true&JigyosyoCd=370700064-00&ServiceCd=170&Type=search", "url2": null, "内容": "有限会社ケアサポートホソタ【福祉用具貸与】岩手県久慈市旭町10-63", "サービスの種類": "福祉用具貸与" }, "geometry": { "type": "Point", "coordinates": [ 141.77874030000001, 40.1989927 ] } },
{ "type": "Feature", "properties": { "緯度": 40.1878246, "経度": 141.7695913, "url": "https://www.kaigokensaku.mhlw.go.jp/03/index.php?action_kouhyou_detail_004_kani=true&JigyosyoCd=370700197-00&ServiceCd=170&Type=search", "url2": null, "内容": "メディカルサービス久慈【福祉用具貸与】岩手県久慈市本町２－４４", "サービスの種類": "福祉用具貸与" }, "geometry": { "type": "Point", "coordinates": [ 141.7695913, 40.1878246 ] } },
{ "type": "Feature", "properties": { "緯度": 39.3394028, "経度": 141.5253838, "url": "https://www.kaigokensaku.mhlw.go.jp/03/index.php?action_kouhyou_detail_004_kani=true&JigyosyoCd=370800351-00&ServiceCd=170&Type=search", "url2": null, "内容": "有限会社介護リフォームセンター遠野営業所【福祉用具貸与】岩手県遠野市松崎町白岩4-22-18", "サービスの種類": "福祉用具貸与" }, "geometry": { "type": "Point", "coordinates": [ 141.525383799999986, 39.339402799999988 ] } },
{ "type": "Feature", "properties": { "緯度": 39.3292043, "経度": 141.5327864, "url": "https://www.kaigokensaku.mhlw.go.jp/03/index.php?action_kouhyou_detail_004_kani=true&JigyosyoCd=370800500-00&ServiceCd=170&Type=search", "url2": null, "内容": "ツカサ介護サービス遠野センター【福祉用具貸与】岩手県遠野市中央通り8-2", "サービスの種類": "福祉用具貸与" }, "geometry": { "type": "Point", "coordinates": [ 141.5327864, 39.3292043 ] } },
{ "type": "Feature", "properties": { "緯度": 38.8766186, "経度": 141.3485329, "url": "https://www.kaigokensaku.mhlw.go.jp/03/index.php?action_kouhyou_detail_004_kani=true&JigyosyoCd=370901597-00&ServiceCd=170&Type=search", "url2": null, "内容": "あおいケアサービス【福祉用具貸与】岩手県一関市藤沢町新沼字中ノ沢80", "サービスの種類": "福祉用具貸与" }, "geometry": { "type": "Point", "coordinates": [ 141.3485329, 38.8766186 ] } },
{ "type": "Feature", "properties": { "緯度": 38.996446, "経度": 141.3249685000001, "url": "https://www.kaigokensaku.mhlw.go.jp/03/index.php?action_kouhyou_detail_004_kani=true&JigyosyoCd=372700476-00&ServiceCd=170&Type=search", "url2": "http://sisido.ec-net.jp/company.html", "内容": "有限会社宍戸家具部【福祉用具貸与】岩手県一関市大東町摺沢字新右ェ門土手６番地２", "サービスの種類": "福祉用具貸与" }, "geometry": { "type": "Point", "coordinates": [ 141.324968500000097, 38.996446 ] } },
{ "type": "Feature", "properties": { "緯度": 38.9521165, "経度": 141.1300496, "url": "https://www.kaigokensaku.mhlw.go.jp/03/index.php?action_kouhyou_detail_004_kani=true&JigyosyoCd=370900417-00&ServiceCd=170&Type=search", "url2": null, "内容": "有限会社和光商事【福祉用具貸与】岩手県一関市山目町三丁目7番2号", "サービスの種類": "福祉用具貸与" }, "geometry": { "type": "Point", "coordinates": [ 141.1300496, 38.9521165 ] } },
{ "type": "Feature", "properties": { "緯度": 38.8280242, "経度": 141.1848661, "url": "https://www.kaigokensaku.mhlw.go.jp/03/index.php?action_kouhyou_detail_004_kani=true&JigyosyoCd=370901035-00&ServiceCd=170&Type=search", "url2": "https://chiwaku.com/", "内容": "株式会社ちわく【福祉用具貸与】岩手県一関市花泉町涌津字下原1-1", "サービスの種類": "福祉用具貸与" }, "geometry": { "type": "Point", "coordinates": [ 141.1848661, 38.8280242 ] } },
{ "type": "Feature", "properties": { "緯度": 38.9300927, "経度": 141.1259034, "url": "https://www.kaigokensaku.mhlw.go.jp/03/index.php?action_kouhyou_detail_004_kani=true&JigyosyoCd=370902090-00&ServiceCd=170&Type=search", "url2": "https://www.useful20230127.com", "内容": "株式会社ユースフル【福祉用具貸与】岩手県一関市青葉１丁目１０番４号シャトレー青葉館101号室", "サービスの種類": "福祉用具貸与" }, "geometry": { "type": "Point", "coordinates": [ 141.1259034, 38.9300927 ] } },
{ "type": "Feature", "properties": { "緯度": 38.918458397263549, "経度": 141.09589635636979, "url": "https://www.kaigokensaku.mhlw.go.jp/03/index.php?action_kouhyou_detail_004_kani=true&JigyosyoCd=370901381-00&ServiceCd=170&Type=search", "url2": null, "内容": "フォレスト福祉用具サービス【福祉用具貸与】岩手県一関市萩荘字打ノ目255-1", "サービスの種類": "福祉用具貸与" }, "geometry": { "type": "Point", "coordinates": [ 141.095896356369792, 38.918458397263549 ] } },
{ "type": "Feature", "properties": { "緯度": 38.9215557, "経度": 141.1102543, "url": "https://www.kaigokensaku.mhlw.go.jp/03/index.php?action_kouhyou_detail_004_kani=true&JigyosyoCd=370900680-00&ServiceCd=170&Type=search", "url2": "https://sunme.co.jp/", "内容": "株式会社サンメディカル一関店【福祉用具貸与】岩手県一関市萩荘字金ヶ崎18-1", "サービスの種類": "福祉用具貸与" }, "geometry": { "type": "Point", "coordinates": [ 141.1102543, 38.9215557 ] } },
{ "type": "Feature", "properties": { "緯度": 38.991732, "経度": 141.2516232, "url": "https://www.kaigokensaku.mhlw.go.jp/03/index.php?action_kouhyou_detail_004_kani=true&JigyosyoCd=370902108-00&ServiceCd=170&Type=search", "url2": "https://www.akasi.info", "内容": "福祉用具さくら【福祉用具貸与】岩手県一関市東山町長坂字町325", "サービスの種類": "福祉用具貸与" }, "geometry": { "type": "Point", "coordinates": [ 141.251623200000012, 38.991732 ] } },
{ "type": "Feature", "properties": { "緯度": 38.9288329, "経度": 141.1368025, "url": "https://www.kaigokensaku.mhlw.go.jp/03/index.php?action_kouhyou_detail_004_kani=true&JigyosyoCd=370900151-00&ServiceCd=170&Type=search", "url2": "http://www.koseido-kaigo.com", "内容": "株式会社ライフケア幸成堂【福祉用具貸与】岩手県一関市大町4-23", "サービスの種類": "福祉用具貸与" }, "geometry": { "type": "Point", "coordinates": [ 141.136802499999988, 38.928832900000018 ] } },
{ "type": "Feature", "properties": { "緯度": 38.906841258865121, "経度": 141.32726624229741, "url": "https://www.kaigokensaku.mhlw.go.jp/03/index.php?action_kouhyou_detail_004_kani=true&JigyosyoCd=372700559-00&ServiceCd=170&Type=search", "url2": "http://www.nagasawa-sien.com/", "内容": "有限会社永澤家具店【福祉用具貸与】岩手県一関市千厩町千厩字東小田90ショッピングモール　エスピア", "サービスの種類": "福祉用具貸与" }, "geometry": { "type": "Point", "coordinates": [ 141.327266242297412, 38.906841258865121 ] } },
{ "type": "Feature", "properties": { "緯度": 38.932662880480137, "経度": 141.11511078459469, "url": "https://www.kaigokensaku.mhlw.go.jp/03/index.php?action_kouhyou_detail_004_kani=true&JigyosyoCd=370900557-00&ServiceCd=170&Type=search", "url2": "http://www.odashima-acty.co.jp", "内容": "株式会社小田島アクティぼだいじゅ一関店【福祉用具貸与】岩手県一関市山目字中野188番地1", "サービスの種類": "福祉用具貸与" }, "geometry": { "type": "Point", "coordinates": [ 141.115110784594691, 38.932662880480137 ] } },
{ "type": "Feature", "properties": { "緯度": 38.905966019840051, "経度": 141.16086797696479, "url": "https://www.kaigokensaku.mhlw.go.jp/03/index.php?action_kouhyou_detail_004_kani=true&JigyosyoCd=370901373-00&ServiceCd=170&Type=search", "url2": "http://www.alpsbc.co.jp", "内容": "株式会社アルプスビジネスクリエーション一関営業所【福祉用具貸与】一関市滝沢字鶴ヶ沢7番地62", "サービスの種類": "福祉用具貸与" }, "geometry": { "type": "Point", "coordinates": [ 141.160867976964795, 38.905966019840051 ] } },
{ "type": "Feature", "properties": { "緯度": 39.0213671, "経度": 141.6270226, "url": "https://www.kaigokensaku.mhlw.go.jp/03/index.php?action_kouhyou_detail_004_kani=true&JigyosyoCd=371000209-00&ServiceCd=170&Type=search", "url2": "http://www.odashima-acty.co.jp", "内容": "株式会社小田島アクティ介護用品部高田営業所【福祉用具貸与】岩手県陸前高田市高田町字鳴石210番地1", "サービスの種類": "福祉用具貸与" }, "geometry": { "type": "Point", "coordinates": [ 141.6270226, 39.0213671 ] } },
{ "type": "Feature", "properties": { "緯度": 39.257068739329057, "経度": 141.83180763204649, "url": "https://www.kaigokensaku.mhlw.go.jp/03/index.php?action_kouhyou_detail_004_kani=true&JigyosyoCd=371100348-00&ServiceCd=170&Type=search", "url2": null, "内容": "有限会社介護リフォームセンター【福祉用具貸与】岩手県釜石市定内町３丁目10-23", "サービスの種類": "福祉用具貸与" }, "geometry": { "type": "Point", "coordinates": [ 141.831807632046491, 39.257068739329057 ] } },
{ "type": "Feature", "properties": { "緯度": 39.336097967581587, "経度": 141.87622882080689, "url": "https://www.kaigokensaku.mhlw.go.jp/03/index.php?action_kouhyou_detail_004_kani=true&JigyosyoCd=371100512-00&ServiceCd=170&Type=search", "url2": "http://www.odashima-acty.co.jp", "内容": "株式会社小田島アクティ介護用品部釜石営業所【福祉用具貸与】岩手県釜石市鵜住居町10-30-8-2", "サービスの種類": "福祉用具貸与" }, "geometry": { "type": "Point", "coordinates": [ 141.876228820806887, 39.336097967581587 ] } },
{ "type": "Feature", "properties": { "緯度": 39.2711189, "経度": 141.8614296000001, "url": "https://www.kaigokensaku.mhlw.go.jp/03/index.php?action_kouhyou_detail_004_kani=true&JigyosyoCd=371100124-00&ServiceCd=170&Type=search", "url2": "http://www.rnac.ne.jp/~tsukasaa/", "内容": "ツカサ介護サービス釜石センター【福祉用具貸与】岩手県釜石市中妻町1-18-17", "サービスの種類": "福祉用具貸与" }, "geometry": { "type": "Point", "coordinates": [ 141.861429600000093, 39.2711189 ] } },
{ "type": "Feature", "properties": { "緯度": 39.273897348423453, "経度": 141.8808744735413, "url": "https://www.kaigokensaku.mhlw.go.jp/03/index.php?action_kouhyou_detail_004_kani=true&JigyosyoCd=371100835-00&ServiceCd=170&Type=search", "url2": null, "内容": "ウェルネスコーポレーション釜石【福祉用具貸与】岩手県釜石市大町２丁目２番２４号", "サービスの種類": "福祉用具貸与" }, "geometry": { "type": "Point", "coordinates": [ 141.880874473541297, 39.273897348423453 ] } },
{ "type": "Feature", "properties": { "緯度": 40.2725547, "経度": 141.3006115000001, "url": "https://www.kaigokensaku.mhlw.go.jp/03/index.php?action_kouhyou_detail_004_kani=true&JigyosyoCd=371300195-00&ServiceCd=170&Type=search", "url2": "http://www.caretec.co.jp/", "内容": "株式会社ケア・テック二戸営業所【福祉用具貸与】岩手県二戸市福岡字上町８", "サービスの種類": "福祉用具貸与" }, "geometry": { "type": "Point", "coordinates": [ 141.300611500000088, 40.2725547 ] } },
{ "type": "Feature", "properties": { "緯度": 40.29986993935983, "経度": 141.2989972300893, "url": "https://www.kaigokensaku.mhlw.go.jp/03/index.php?action_kouhyou_detail_004_kani=true&JigyosyoCd=373200344-00&ServiceCd=170&Type=search", "url2": "https://sunme.co.jp/", "内容": "株式会社サンメディカル県北営業所【福祉用具貸与】岩手県二戸市金田一字上田面222番地8", "サービスの種類": "福祉用具貸与" }, "geometry": { "type": "Point", "coordinates": [ 141.298997230089299, 40.29986993935983 ] } },
{ "type": "Feature", "properties": { "緯度": 40.299094930129698, "経度": 141.304471164418, "url": "https://www.kaigokensaku.mhlw.go.jp/03/index.php?action_kouhyou_detail_004_kani=true&JigyosyoCd=371300211-00&ServiceCd=170&Type=search", "url2": null, "内容": "有限会社コミュニティワークス介護センターカシオペア【福祉用具貸与】岩手県二戸市堀野字大川原毛92番地9", "サービスの種類": "福祉用具貸与" }, "geometry": { "type": "Point", "coordinates": [ 141.304471164418004, 40.299094930129698 ] } },
{ "type": "Feature", "properties": { "緯度": 40.2998922, "経度": 141.2989525, "url": "https://www.kaigokensaku.mhlw.go.jp/03/index.php?action_kouhyou_detail_004_kani=true&JigyosyoCd=371300567-00&ServiceCd=170&Type=search", "url2": "https://www.kankyonet.co.jp/", "内容": "株式会社かんきょう二戸営業所【福祉用具貸与】岩手県二戸市金田一字八ツ長125番地1", "サービスの種類": "福祉用具貸与" }, "geometry": { "type": "Point", "coordinates": [ 141.298952500000013, 40.2998922 ] } },
{ "type": "Feature", "properties": { "緯度": 39.142791454733853, "経度": 141.14002388570549, "url": "https://www.kaigokensaku.mhlw.go.jp/03/index.php?action_kouhyou_detail_004_kani=true&JigyosyoCd=371500034-00&ServiceCd=170&Type=search", "url2": null, "内容": "株式会社ナカノメ【福祉用具貸与】岩手県奥州市水沢字吉小路46-2", "サービスの種類": "福祉用具貸与" }, "geometry": { "type": "Point", "coordinates": [ 141.140023885705489, 39.142791454733853 ] } },
{ "type": "Feature", "properties": { "緯度": 39.1181516, "経度": 141.1559625, "url": "https://www.kaigokensaku.mhlw.go.jp/03/index.php?action_kouhyou_detail_004_kani=true&JigyosyoCd=371500398-00&ServiceCd=170&Type=search", "url2": "http://showa-mizusawa.co.jp/", "内容": "株式会社正和介護事業部【福祉用具貸与】岩手県奥州市水沢真城字迎畑９０－２スズシン物流システム（株）事務所内", "サービスの種類": "福祉用具貸与" }, "geometry": { "type": "Point", "coordinates": [ 141.155962499999987, 39.1181516 ] } },
{ "type": "Feature", "properties": { "緯度": 39.1323915, "経度": 141.1517569, "url": "https://www.kaigokensaku.mhlw.go.jp/03/index.php?action_kouhyou_detail_004_kani=true&JigyosyoCd=370400459-00&ServiceCd=170&Type=search", "url2": "http://www.caretec.co.jp/", "内容": "株式会社ケア・テック水沢営業所【福祉用具貸与】岩手県奥州市水沢中田町４番３８号", "サービスの種類": "福祉用具貸与" }, "geometry": { "type": "Point", "coordinates": [ 141.1517569, 39.1323915 ] } },
{ "type": "Feature", "properties": { "緯度": 39.143154310539977, "経度": 141.12506209867249, "url": "https://www.kaigokensaku.mhlw.go.jp/03/index.php?action_kouhyou_detail_004_kani=true&JigyosyoCd=371500943-00&ServiceCd=170&Type=search", "url2": "https://healthrent.duskin.jp/", "内容": "ダスキンヘルスレント奥州ステーション【福祉用具貸与】岩手県奥州市水沢内匠田30", "サービスの種類": "福祉用具貸与" }, "geometry": { "type": "Point", "coordinates": [ 141.125062098672487, 39.143154310539977 ] } },
{ "type": "Feature", "properties": { "緯度": 39.133392138935207, "経度": 141.1310124441803, "url": "https://www.kaigokensaku.mhlw.go.jp/03/index.php?action_kouhyou_detail_004_kani=true&JigyosyoCd=370400202-00&ServiceCd=170&Type=search", "url2": null, "内容": "有限会社ハセメディカルサービス【福祉用具貸与】岩手県奥州市水沢星ガ丘町7-6", "サービスの種類": "福祉用具貸与" }, "geometry": { "type": "Point", "coordinates": [ 141.1310124441803, 39.133392138935207 ] } },
{ "type": "Feature", "properties": { "緯度": 39.137802880723093, "経度": 141.1379597939071, "url": "https://www.kaigokensaku.mhlw.go.jp/03/index.php?action_kouhyou_detail_004_kani=true&JigyosyoCd=370400525-00&ServiceCd=170&Type=search", "url2": null, "内容": "ケアネット・アテルイ有限会社【福祉用具貸与】岩手県奥州市水沢宮下町84番地", "サービスの種類": "福祉用具貸与" }, "geometry": { "type": "Point", "coordinates": [ 141.1379597939071, 39.137802880723093 ] } },
{ "type": "Feature", "properties": { "緯度": 39.133913663290691, "経度": 141.15249368207861, "url": "https://www.kaigokensaku.mhlw.go.jp/03/index.php?action_kouhyou_detail_004_kani=true&JigyosyoCd=371500356-00&ServiceCd=170&Type=search", "url2": null, "内容": "株式会社ひびき【福祉用具貸与】岩手県奥州市水沢中田町２番４号", "サービスの種類": "福祉用具貸与" }, "geometry": { "type": "Point", "coordinates": [ 141.152493682078614, 39.133913663290691 ] } },
{ "type": "Feature", "properties": { "緯度": 39.1414708, "経度": 141.1479459, "url": "https://www.kaigokensaku.mhlw.go.jp/03/index.php?action_kouhyou_detail_004_kani=true&JigyosyoCd=371500364-00&ServiceCd=170&Type=search", "url2": "http://www.carenet.fujitsu.com/web/scdsp.php?scid=10", "内容": "株式会社ケアネット岩手サービスセンター【福祉用具貸与】岩手県奥州市水沢花園町一丁目19番16号", "サービスの種類": "福祉用具貸与" }, "geometry": { "type": "Point", "coordinates": [ 141.1479459, 39.1414708 ] } },
{ "type": "Feature", "properties": { "緯度": 39.1292556, "経度": 141.1487795, "url": "https://www.kaigokensaku.mhlw.go.jp/03/index.php?action_kouhyou_detail_004_kani=true&JigyosyoCd=371501008-00&ServiceCd=170&Type=search", "url2": "https://www.kankyonet.co.jp/", "内容": "株式会社かんきょう岩手南営業所【福祉用具貸与】岩手県奥州市水沢真城字南塩加羅5番地1", "サービスの種類": "福祉用具貸与" }, "geometry": { "type": "Point", "coordinates": [ 141.148779499999989, 39.1292556 ] } },
{ "type": "Feature", "properties": { "緯度": 39.7096693, "経度": 141.0754514, "url": "https://www.kaigokensaku.mhlw.go.jp/03/index.php?action_kouhyou_detail_004_kani=true&JigyosyoCd=372101683-00&ServiceCd=170&Type=search", "url2": null, "内容": "ウェルネスコーポレーション盛岡【福祉用具貸与】岩手県滝沢市篠木黒畑137-1", "サービスの種類": "福祉用具貸与" }, "geometry": { "type": "Point", "coordinates": [ 141.0754514, 39.7096693 ] } },
{ "type": "Feature", "properties": { "緯度": 39.7553708, "経度": 141.09505979999989, "url": "https://www.kaigokensaku.mhlw.go.jp/03/index.php?action_kouhyou_detail_004_kani=true&JigyosyoCd=372101832-00&ServiceCd=170&Type=search", "url2": "http://www.alpsbc.co.jp/kaigo", "内容": "株式会社アルプスビジネスクリエーション盛岡営業所【福祉用具貸与】岩手県滝沢市外山170-6", "サービスの種類": "福祉用具貸与" }, "geometry": { "type": "Point", "coordinates": [ 141.095059799999888, 39.7553708 ] } },
{ "type": "Feature", "properties": { "緯度": 39.966402, "経度": 141.2209013, "url": "https://www.kaigokensaku.mhlw.go.jp/03/index.php?action_kouhyou_detail_004_kani=true&JigyosyoCd=372101998-00&ServiceCd=170&Type=search", "url2": null, "内容": "ライブケアメイトいわてまち【福祉用具貸与】岩手県岩手郡岩手町大字江刈内１０－５０－１５", "サービスの種類": "福祉用具貸与" }, "geometry": { "type": "Point", "coordinates": [ 141.2209013, 39.966402 ] } },
{ "type": "Feature", "properties": { "緯度": 39.5635196, "経度": 141.1657213, "url": "https://www.kaigokensaku.mhlw.go.jp/03/index.php?action_kouhyou_detail_004_kani=true&JigyosyoCd=372200824-00&ServiceCd=170&Type=search", "url2": "http://www.alpsbc.co.jp/kaigo", "内容": "株式会社アルプスビジネスクリエーション紫波営業所【福祉用具貸与】岩手県紫波郡紫波町二日町字北七久保232番地1", "サービスの種類": "福祉用具貸与" }, "geometry": { "type": "Point", "coordinates": [ 141.1657213, 39.5635196 ] } },
{ "type": "Feature", "properties": { "緯度": 39.6404479, "経度": 141.1114959, "url": "https://www.kaigokensaku.mhlw.go.jp/03/index.php?action_kouhyou_detail_004_kani=true&JigyosyoCd=370100497-00&ServiceCd=170&Type=search", "url2": "https://sunme.jp/", "内容": "株式会社サンメディカル【福祉用具貸与】岩手県紫波郡矢巾町流通センター南1丁目7-8", "サービスの種類": "福祉用具貸与" }, "geometry": { "type": "Point", "coordinates": [ 141.1114959, 39.6404479 ] } },
{ "type": "Feature", "properties": { "緯度": 39.63351, "経度": 141.1156709, "url": "https://www.kaigokensaku.mhlw.go.jp/03/index.php?action_kouhyou_detail_004_kani=true&JigyosyoCd=370103749-00&ServiceCd=170&Type=search", "url2": "http://www.francebed.co.jp/medical/index.html", "内容": "フランスベッド株式会社メディカル盛岡営業所【福祉用具貸与】岩手県紫波郡矢巾町広宮沢第１１地割５０１－１１", "サービスの種類": "福祉用具貸与" }, "geometry": { "type": "Point", "coordinates": [ 141.115670899999913, 39.63351 ] } },
{ "type": "Feature", "properties": { "緯度": 39.203754713808472, "経度": 141.10879216931161, "url": "https://www.kaigokensaku.mhlw.go.jp/03/index.php?action_kouhyou_detail_004_kani=true&JigyosyoCd=372500538-00&ServiceCd=170&Type=search", "url2": "https://sunme.co.jp/", "内容": "株式会社サンメディカル金ケ崎【福祉用具貸与】岩手県胆沢郡金ケ崎町西根本宮後15番地", "サービスの種類": "福祉用具貸与" }, "geometry": { "type": "Point", "coordinates": [ 141.108792169311613, 39.203754713808472 ] } },
{ "type": "Feature", "properties": { "緯度": 39.1866804, "経度": 141.1062275, "url": "https://www.kaigokensaku.mhlw.go.jp/03/index.php?action_kouhyou_detail_004_kani=true&JigyosyoCd=372500702-00&ServiceCd=170&Type=search", "url2": "https://www.alpsbc.co.jp/kaigo", "内容": "株式会社アルプスビジネスクリエーション金ケ崎営業所【福祉用具貸与】岩手県胆沢郡金ヶ崎町西根揚場後22番11", "サービスの種類": "福祉用具貸与" }, "geometry": { "type": "Point", "coordinates": [ 141.106227499999989, 39.1866804 ] } }
]
}
