{
"type": "FeatureCollection",
"name": "geo_03_訪問看護",
"crs": { "type": "name", "properties": { "name": "urn:ogc:def:crs:OGC:1.3:CRS84" } },
"features": [
{ "type": "Feature", "properties": { "緯度": 39.6970506, "経度": 141.1488567, "url": "https://www.kaigokensaku.mhlw.go.jp/03/index.php?action_kouhyou_detail_004_kani=true&JigyosyoCd=310110309-00&ServiceCd=130&Type=search", "url2": "http://www.toyama-byouin.jp", "内容": "医療法人　遠山病院【訪問看護】岩手県盛岡市下ノ橋町6-14", "サービスの種類": "訪問看護" }, "geometry": { "type": "Point", "coordinates": [ 141.14885670000001, 39.6970506 ] } },
{ "type": "Feature", "properties": { "緯度": 39.7077583, "経度": 141.169324, "url": "https://www.kaigokensaku.mhlw.go.jp/03/index.php?action_kouhyou_detail_004_kani=true&JigyosyoCd=360190425-00&ServiceCd=130&Type=search", "url2": "http://www.hoyoin.jp/kokoro/", "内容": "一般財団法人　岩手済生会ころの訪問看護ステーション三田【訪問看護】岩手県盛岡市加賀野3丁目14番1号", "サービスの種類": "訪問看護" }, "geometry": { "type": "Point", "coordinates": [ 141.169324, 39.7077583 ] } },
{ "type": "Feature", "properties": { "緯度": 39.7313740939477, "経度": 141.13562271230299, "url": "https://www.kaigokensaku.mhlw.go.jp/03/index.php?action_kouhyou_detail_004_kani=true&JigyosyoCd=360190458-00&ServiceCd=130&Type=search", "url2": "https://morioka-kanzanso.jp/station/", "内容": "観山荘訪問看護ステーション【訪問看護】岩手県盛岡市高松４丁目２０－４３ソーシャルケアセンター２Ｆ", "サービスの種類": "訪問看護" }, "geometry": { "type": "Point", "coordinates": [ 141.13562271230299, 39.7313740939477 ] } },
{ "type": "Feature", "properties": { "緯度": 39.7394023, "経度": 141.1149957, "url": "https://www.kaigokensaku.mhlw.go.jp/03/index.php?action_kouhyou_detail_004_kani=true&JigyosyoCd=360190524-00&ServiceCd=130&Type=search", "url2": null, "内容": "ジェイナース訪問看護ステーション【訪問看護】岩手県盛岡市みたけ三丁目23-3スペースMYA2階", "サービスの種類": "訪問看護" }, "geometry": { "type": "Point", "coordinates": [ 141.1149957, 39.7394023 ] } },
{ "type": "Feature", "properties": { "緯度": 39.6591636, "経度": 141.1849354, "url": "https://www.kaigokensaku.mhlw.go.jp/03/index.php?action_kouhyou_detail_004_kani=true&JigyosyoCd=370103608-00&ServiceCd=130&Type=search", "url2": "http://www.i-seiwa.com/", "内容": "訪問看護ステーション　せいわ【訪問看護】岩手県盛岡市手代森９地割70番地1", "サービスの種類": "訪問看護" }, "geometry": { "type": "Point", "coordinates": [ 141.1849354, 39.6591636 ] } },
{ "type": "Feature", "properties": { "緯度": 39.8456453, "経度": 141.1734039, "url": "https://www.kaigokensaku.mhlw.go.jp/03/index.php?action_kouhyou_detail_004_kani=true&JigyosyoCd=360190615-00&ServiceCd=130&Type=search", "url2": null, "内容": "訪問看護ステーションみなみちゃんち渋民【訪問看護】岩手県盛岡市渋民字渋民７７－２", "サービスの種類": "訪問看護" }, "geometry": { "type": "Point", "coordinates": [ 141.173403900000011, 39.8456453 ] } },
{ "type": "Feature", "properties": { "緯度": 39.7441127, "経度": 141.127727, "url": "https://www.kaigokensaku.mhlw.go.jp/03/index.php?action_kouhyou_detail_004_kani=true&JigyosyoCd=360190623-00&ServiceCd=130&Type=search", "url2": "http://life-escort.com/", "内容": "escort訪問看護ステーション【訪問看護】岩手県盛岡市みたけ２丁目10番70号ナーシングホームもりおか内", "サービスの種類": "訪問看護" }, "geometry": { "type": "Point", "coordinates": [ 141.127727, 39.7441127 ] } },
{ "type": "Feature", "properties": { "緯度": 39.6993011, "経度": 141.14907, "url": "https://www.kaigokensaku.mhlw.go.jp/03/index.php?action_kouhyou_detail_004_kani=true&JigyosyoCd=370107963-00&ServiceCd=130&Type=search", "url2": "http://www.aromasold.com/", "内容": "ソルド訪問看護ステーション【訪問看護】岩手県盛岡市内丸１番６号", "サービスの種類": "訪問看護" }, "geometry": { "type": "Point", "coordinates": [ 141.14907, 39.6993011 ] } },
{ "type": "Feature", "properties": { "緯度": 39.6692023, "経度": 141.1702577, "url": "https://www.kaigokensaku.mhlw.go.jp/03/index.php?action_kouhyou_detail_004_kani=true&JigyosyoCd=370107997-00&ServiceCd=130&Type=search", "url2": null, "内容": "訪問看護ステーション晴れ【訪問看護】岩手県盛岡市門一丁目18-17", "サービスの種類": "訪問看護" }, "geometry": { "type": "Point", "coordinates": [ 141.1702577, 39.6692023 ] } },
{ "type": "Feature", "properties": { "緯度": 39.6522767, "経度": 141.145027, "url": "https://www.kaigokensaku.mhlw.go.jp/03/index.php?action_kouhyou_detail_004_kani=true&JigyosyoCd=360190714-00&ServiceCd=130&Type=search", "url2": null, "内容": "ファミリーナース盛岡【訪問看護】岩手県盛岡市永井16-87", "サービスの種類": "訪問看護" }, "geometry": { "type": "Point", "coordinates": [ 141.145027, 39.6522767 ] } },
{ "type": "Feature", "properties": { "緯度": 39.756414521205201, "経度": 141.16231016011901, "url": "https://www.kaigokensaku.mhlw.go.jp/03/index.php?action_kouhyou_detail_004_kani=true&JigyosyoCd=360190102-00&ServiceCd=130&Type=search", "url2": "http:/www.matsuzono.jp", "内容": "指定訪問看護ステーションまつぞの【訪問看護】岩手県盛岡市西松園三丁目21番10号", "サービスの種類": "訪問看護" }, "geometry": { "type": "Point", "coordinates": [ 141.162310160119006, 39.756414521205201 ] } },
{ "type": "Feature", "properties": { "緯度": 39.639952043586099, "経度": 141.10105294053801, "url": "https://www.kaigokensaku.mhlw.go.jp/03/index.php?action_kouhyou_detail_004_kani=true&JigyosyoCd=360190441-00&ServiceCd=130&Type=search", "url2": null, "内容": "訪問看護事業所ほのぼの【訪問看護】岩手県盛岡市湯沢東３丁目17番13号", "サービスの種類": "訪問看護" }, "geometry": { "type": "Point", "coordinates": [ 141.101052940538011, 39.639952043586099 ] } },
{ "type": "Feature", "properties": { "緯度": 39.6895172, "経度": 141.0235676, "url": "https://www.kaigokensaku.mhlw.go.jp/03/index.php?action_kouhyou_detail_004_kani=true&JigyosyoCd=360190136-00&ServiceCd=130&Type=search", "url2": "http://tsunagi-hp.net/", "内容": "指定訪問看護ステーション盛岡つなぎ温泉病院メディケアプラザ【訪問看護】岩手県盛岡市繋字尾入野64-9", "サービスの種類": "訪問看護" }, "geometry": { "type": "Point", "coordinates": [ 141.0235676, 39.6895172 ] } },
{ "type": "Feature", "properties": { "緯度": 39.697130153446402, "経度": 141.148960616008, "url": "https://www.kaigokensaku.mhlw.go.jp/03/index.php?action_kouhyou_detail_004_kani=true&JigyosyoCd=360190250-00&ServiceCd=130&Type=search", "url2": null, "内容": "訪問看護ステーション虹ノ橋【訪問看護】岩手県盛岡市下ノ橋町6-14医療法人遠山病院内", "サービスの種類": "訪問看護" }, "geometry": { "type": "Point", "coordinates": [ 141.148960616007997, 39.697130153446402 ] } },
{ "type": "Feature", "properties": { "緯度": 39.728926377883703, "経度": 141.16074888812199, "url": "https://www.kaigokensaku.mhlw.go.jp/03/index.php?action_kouhyou_detail_004_kani=true&JigyosyoCd=360190169-00&ServiceCd=130&Type=search", "url2": "https://www.pn-magokoro.net/", "内容": "訪問看護ステーションまごころ【訪問看護】岩手県盛岡市三ツ割４丁目４－４３", "サービスの種類": "訪問看護" }, "geometry": { "type": "Point", "coordinates": [ 141.160748888121987, 39.728926377883703 ] } },
{ "type": "Feature", "properties": { "緯度": 39.673869470296601, "経度": 141.13035618415901, "url": "https://www.kaigokensaku.mhlw.go.jp/03/index.php?action_kouhyou_detail_004_kani=true&JigyosyoCd=360190292-00&ServiceCd=130&Type=search", "url2": "http://www.ccube-station.com/", "内容": "シーキューブ訪問看護リハビリステーション【訪問看護】岩手県盛岡市北飯岡2丁目21-18", "サービスの種類": "訪問看護" }, "geometry": { "type": "Point", "coordinates": [ 141.130356184159012, 39.673869470296601 ] } },
{ "type": "Feature", "properties": { "緯度": 39.7499146, "経度": 141.163226, "url": "https://www.kaigokensaku.mhlw.go.jp/03/index.php?action_kouhyou_detail_004_kani=true&JigyosyoCd=360190151-00&ServiceCd=130&Type=search", "url2": null, "内容": "訪問看護ステーション不来方【訪問看護】岩手県盛岡市松園二丁目21番6号", "サービスの種類": "訪問看護" }, "geometry": { "type": "Point", "coordinates": [ 141.163226, 39.7499146 ] } },
{ "type": "Feature", "properties": { "緯度": 39.655524084271804, "経度": 141.13949828457001, "url": "https://www.kaigokensaku.mhlw.go.jp/03/index.php?action_kouhyou_detail_004_kani=true&JigyosyoCd=360190318-00&ServiceCd=130&Type=search", "url2": null, "内容": "訪問看護ステーションらら【訪問看護】岩手県盛岡市永井11地割23番地", "サービスの種類": "訪問看護" }, "geometry": { "type": "Point", "coordinates": [ 141.13949828457001, 39.655524084271804 ] } },
{ "type": "Feature", "properties": { "緯度": 39.7180628, "経度": 141.1760758, "url": "https://www.kaigokensaku.mhlw.go.jp/03/index.php?action_kouhyou_detail_004_kani=true&JigyosyoCd=360190417-00&ServiceCd=130&Type=search", "url2": "http://www.iwate-nakatugawa-hp.jp/", "内容": "一般財団法人岩手済生医会訪問看護ステーションなかつがわ【訪問看護】岩手県盛岡市下米内二丁目4番12号中津川病院　2階", "サービスの種類": "訪問看護" }, "geometry": { "type": "Point", "coordinates": [ 141.1760758, 39.7180628 ] } },
{ "type": "Feature", "properties": { "緯度": 39.6997476, "経度": 141.1689166, "url": "https://www.kaigokensaku.mhlw.go.jp/03/index.php?action_kouhyou_detail_004_kani=true&JigyosyoCd=360190508-00&ServiceCd=130&Type=search", "url2": null, "内容": "訪問看護リーフ【訪問看護】岩手県盛岡市小杉山11-5-2Ｆ", "サービスの種類": "訪問看護" }, "geometry": { "type": "Point", "coordinates": [ 141.168916599999989, 39.6997476 ] } },
{ "type": "Feature", "properties": { "緯度": 39.7067712, "経度": 141.1559162, "url": "https://www.kaigokensaku.mhlw.go.jp/03/index.php?action_kouhyou_detail_004_kani=true&JigyosyoCd=360190573-00&ServiceCd=130&Type=search", "url2": "http://www.uchimaru-hospital.jp/", "内容": "内丸病院訪問看護ステーション【訪問看護】岩手県盛岡市本町通一丁目6番3号本町通桜苑ビル101号", "サービスの種類": "訪問看護" }, "geometry": { "type": "Point", "coordinates": [ 141.1559162, 39.7067712 ] } },
{ "type": "Feature", "properties": { "緯度": 39.706708, "経度": 141.1565807, "url": "https://www.kaigokensaku.mhlw.go.jp/03/index.php?action_kouhyou_detail_004_kani=true&JigyosyoCd=360100010-00&ServiceCd=130&Type=search", "url2": null, "内容": "たぐち訪問看護ステーション【訪問看護】岩手県盛岡市本町通1丁目3番6号", "サービスの種類": "訪問看護" }, "geometry": { "type": "Point", "coordinates": [ 141.1565807, 39.706708 ] } },
{ "type": "Feature", "properties": { "緯度": 39.6723621, "経度": 141.1564873, "url": "https://www.kaigokensaku.mhlw.go.jp/03/index.php?action_kouhyou_detail_004_kani=true&JigyosyoCd=360190037-00&ServiceCd=130&Type=search", "url2": "http://morioka-hidamari.com/", "内容": "盛岡医療生活協同組合訪問看護ステーション・かわくぼ【訪問看護】岩手県盛岡市津志田26地割30番地１", "サービスの種類": "訪問看護" }, "geometry": { "type": "Point", "coordinates": [ 141.1564873, 39.6723621 ] } },
{ "type": "Feature", "properties": { "緯度": 39.7007063, "経度": 141.1103627, "url": "https://www.kaigokensaku.mhlw.go.jp/03/index.php?action_kouhyou_detail_004_kani=true&JigyosyoCd=360190466-00&ServiceCd=130&Type=search", "url2": "http://www.kojin-hp.jp/", "内容": "社団医療法人啓愛会訪問看護ステーションこうじん【訪問看護】岩手県盛岡市中太田泉田28番地", "サービスの種類": "訪問看護" }, "geometry": { "type": "Point", "coordinates": [ 141.1103627, 39.7007063 ] } },
{ "type": "Feature", "properties": { "緯度": 39.6596404, "経度": 141.1655155, "url": "https://www.kaigokensaku.mhlw.go.jp/03/index.php?action_kouhyou_detail_004_kani=true&JigyosyoCd=360190557-00&ServiceCd=130&Type=search", "url2": "https://www.icare-center.net", "内容": "愛ケアセンター訪問看護ステーション【訪問看護】盛岡市三本柳7地割29番地13ヘラインビル１C", "サービスの種類": "訪問看護" }, "geometry": { "type": "Point", "coordinates": [ 141.1655155, 39.6596404 ] } },
{ "type": "Feature", "properties": { "緯度": 39.6845727, "経度": 141.1371417, "url": "https://www.kaigokensaku.mhlw.go.jp/03/index.php?action_kouhyou_detail_004_kani=true&JigyosyoCd=360190755-00&ServiceCd=130&Type=search", "url2": "https://morioka-kakehashi.com", "内容": "訪問看護架け橋【訪問看護】岩手県盛岡市向中野二丁目２０番２号", "サービスの種類": "訪問看護" }, "geometry": { "type": "Point", "coordinates": [ 141.1371417, 39.6845727 ] } },
{ "type": "Feature", "properties": { "緯度": 39.7003385, "経度": 141.129975, "url": "https://www.kaigokensaku.mhlw.go.jp/03/index.php?action_kouhyou_detail_004_kani=true&JigyosyoCd=360190268-00&ServiceCd=130&Type=search", "url2": "https://www.nfield.co.jp/", "内容": "訪問看護ステーションデューン盛岡【訪問看護】岩手県盛岡市盛岡駅西通1-27-65Mシティ杜の大橋101号", "サービスの種類": "訪問看護" }, "geometry": { "type": "Point", "coordinates": [ 141.129975, 39.7003385 ] } },
{ "type": "Feature", "properties": { "緯度": 39.7074162, "経度": 141.1458699, "url": "https://www.kaigokensaku.mhlw.go.jp/03/index.php?action_kouhyou_detail_004_kani=true&JigyosyoCd=360190607-00&ServiceCd=130&Type=search", "url2": "https://sakiai.jpn.com", "内容": "訪問看護ステーションサキアイ【訪問看護】岩手県盛岡市本町通３丁目3-21", "サービスの種類": "訪問看護" }, "geometry": { "type": "Point", "coordinates": [ 141.1458699, 39.7074162 ] } },
{ "type": "Feature", "properties": { "緯度": 39.704913, "経度": 141.1462746, "url": "https://www.kaigokensaku.mhlw.go.jp/03/index.php?action_kouhyou_detail_004_kani=true&JigyosyoCd=360190672-00&ServiceCd=130&Type=search", "url2": "https://www.tsukui.net/", "内容": "ツクイ盛岡訪問看護ステーション【訪問看護】岩手県盛岡市中央通2丁目2番5号甲南アセット盛岡ビル205", "サービスの種類": "訪問看護" }, "geometry": { "type": "Point", "coordinates": [ 141.1462746, 39.704913 ] } },
{ "type": "Feature", "properties": { "緯度": 39.720997, "経度": 141.1044339, "url": "https://www.kaigokensaku.mhlw.go.jp/03/index.php?action_kouhyou_detail_004_kani=true&JigyosyoCd=360190698-00&ServiceCd=130&Type=search", "url2": null, "内容": "訪問看護ステーションねこのて【訪問看護】岩手県盛岡市中堤町30番42号", "サービスの種類": "訪問看護" }, "geometry": { "type": "Point", "coordinates": [ 141.1044339, 39.720997 ] } },
{ "type": "Feature", "properties": { "緯度": 39.7286879, "経度": 141.1282889, "url": "https://www.kaigokensaku.mhlw.go.jp/03/index.php?action_kouhyou_detail_004_kani=true&JigyosyoCd=360190706-00&ServiceCd=130&Type=search", "url2": "https://houkan-saran.com", "内容": "訪問看護ステーションさらん【訪問看護】岩手県盛岡市上堂3丁目17-40D号室", "サービスの種類": "訪問看護" }, "geometry": { "type": "Point", "coordinates": [ 141.1282889, 39.7286879 ] } },
{ "type": "Feature", "properties": { "緯度": 39.6869166, "経度": 141.1492275, "url": "https://www.kaigokensaku.mhlw.go.jp/03/index.php?action_kouhyou_detail_004_kani=true&JigyosyoCd=370107823-00&ServiceCd=130&Type=search", "url2": null, "内容": "訪問看護ブランチ【訪問看護】岩手県盛岡市仙北2丁目1-20", "サービスの種類": "訪問看護" }, "geometry": { "type": "Point", "coordinates": [ 141.1492275, 39.6869166 ] } },
{ "type": "Feature", "properties": { "緯度": 39.6873122, "経度": 141.1252785, "url": "https://www.kaigokensaku.mhlw.go.jp/03/index.php?action_kouhyou_detail_004_kani=true&JigyosyoCd=360190342-00&ServiceCd=130&Type=search", "url2": null, "内容": "医心館訪問看護ステーション盛岡【訪問看護】岩手県盛岡市本宮６丁目1-25", "サービスの種類": "訪問看護" }, "geometry": { "type": "Point", "coordinates": [ 141.1252785, 39.6873122 ] } },
{ "type": "Feature", "properties": { "緯度": 39.7165664, "経度": 141.11528, "url": "https://www.kaigokensaku.mhlw.go.jp/03/index.php?action_kouhyou_detail_004_kani=true&JigyosyoCd=360190581-00&ServiceCd=130&Type=search", "url2": null, "内容": "訪問看護ステーションポラリス【訪問看護】岩手県盛岡市大新町２０番５４号", "サービスの種類": "訪問看護" }, "geometry": { "type": "Point", "coordinates": [ 141.11528, 39.7165664 ] } },
{ "type": "Feature", "properties": { "緯度": 39.7287371, "経度": 141.1287633, "url": "https://www.kaigokensaku.mhlw.go.jp/03/index.php?action_kouhyou_detail_004_kani=true&JigyosyoCd=360190649-00&ServiceCd=130&Type=search", "url2": null, "内容": "メディコート訪問看護事業所【訪問看護】岩手県盛岡市上堂三丁目16番32号　２階", "サービスの種類": "訪問看護" }, "geometry": { "type": "Point", "coordinates": [ 141.1287633, 39.7287371 ] } },
{ "type": "Feature", "properties": { "緯度": 39.699400454833899, "経度": 141.15410243516001, "url": "https://www.kaigokensaku.mhlw.go.jp/03/index.php?action_kouhyou_detail_004_kani=true&JigyosyoCd=370103277-00&ServiceCd=130&Type=search", "url2": "http://www.brightstage.co.jp/index.html", "内容": "ブライトステージ【訪問看護】岩手県盛岡市肴町3-18", "サービスの種類": "訪問看護" }, "geometry": { "type": "Point", "coordinates": [ 141.154102435160013, 39.699400454833899 ] } },
{ "type": "Feature", "properties": { "緯度": 39.6651036, "経度": 141.1522188, "url": "https://www.kaigokensaku.mhlw.go.jp/03/index.php?action_kouhyou_detail_004_kani=true&JigyosyoCd=370107898-00&ServiceCd=130&Type=search", "url2": "http://www.kouwa.iwate.jp", "内容": "訪問看護事業所ななかまど【訪問看護】岩手県盛岡市津志田町3丁目6-15", "サービスの種類": "訪問看護" }, "geometry": { "type": "Point", "coordinates": [ 141.152218800000014, 39.6651036 ] } },
{ "type": "Feature", "properties": { "緯度": 39.713009537225197, "経度": 141.15203837791, "url": "https://www.kaigokensaku.mhlw.go.jp/03/index.php?action_kouhyou_detail_004_kani=true&JigyosyoCd=370105579-00&ServiceCd=130&Type=search", "url2": null, "内容": "訪問看護ステーション・アイ【訪問看護】岩手県盛岡市北山1丁目5番33号", "サービスの種類": "訪問看護" }, "geometry": { "type": "Point", "coordinates": [ 141.152038377910003, 39.713009537225197 ] } },
{ "type": "Feature", "properties": { "緯度": 39.710540328038199, "経度": 141.15768026441799, "url": "https://www.kaigokensaku.mhlw.go.jp/03/index.php?action_kouhyou_detail_004_kani=true&JigyosyoCd=360190011-00&ServiceCd=130&Type=search", "url2": "https://morioka-med.or.jp/hp-station", "内容": "盛岡市医師会訪問看護ステーション【訪問看護】岩手県盛岡市愛宕町18番6号", "サービスの種類": "訪問看護" }, "geometry": { "type": "Point", "coordinates": [ 141.157680264417991, 39.710540328038199 ] } },
{ "type": "Feature", "properties": { "緯度": 39.658515853264298, "経度": 141.13722758289299, "url": "https://www.kaigokensaku.mhlw.go.jp/03/index.php?action_kouhyou_detail_004_kani=true&JigyosyoCd=360190078-00&ServiceCd=130&Type=search", "url2": "https://www.yu-ai-hp.net", "内容": "訪問看護ステーションゆうあい【訪問看護】岩手県盛岡市永井12地割10番地", "サービスの種類": "訪問看護" }, "geometry": { "type": "Point", "coordinates": [ 141.13722758289299, 39.658515853264298 ] } },
{ "type": "Feature", "properties": { "緯度": 39.674064551982198, "経度": 141.132300338742, "url": "https://www.kaigokensaku.mhlw.go.jp/03/index.php?action_kouhyou_detail_004_kani=true&JigyosyoCd=360190540-00&ServiceCd=130&Type=search", "url2": null, "内容": "訪問看護ステーションさつき【訪問看護】岩手県盛岡市北飯岡二丁目16番73号", "サービスの種類": "訪問看護" }, "geometry": { "type": "Point", "coordinates": [ 141.132300338741999, 39.674064551982198 ] } },
{ "type": "Feature", "properties": { "緯度": 39.6895657, "経度": 141.1408797, "url": "https://www.kaigokensaku.mhlw.go.jp/03/index.php?action_kouhyou_detail_004_kani=true&JigyosyoCd=360190680-00&ServiceCd=130&Type=search", "url2": "https://www.bell923sh.co.jp/", "内容": "訪問看護ステーションベル【訪問看護】岩手県盛岡市本宮1丁目15-8盛岸ビル91　201号", "サービスの種類": "訪問看護" }, "geometry": { "type": "Point", "coordinates": [ 141.1408797, 39.6895657 ] } },
{ "type": "Feature", "properties": { "緯度": 39.693514580262402, "経度": 141.132663356492, "url": "https://www.kaigokensaku.mhlw.go.jp/03/index.php?action_kouhyou_detail_004_kani=true&JigyosyoCd=360190219-00&ServiceCd=130&Type=search", "url2": null, "内容": "フレアス訪問看護ステーション盛岡【訪問看護】岩手県盛岡市本宮3丁目40-10", "サービスの種類": "訪問看護" }, "geometry": { "type": "Point", "coordinates": [ 141.132663356492003, 39.693514580262402 ] } },
{ "type": "Feature", "properties": { "緯度": 39.653642640645799, "経度": 141.15341784722099, "url": "https://www.kaigokensaku.mhlw.go.jp/03/index.php?action_kouhyou_detail_004_kani=true&JigyosyoCd=360190565-00&ServiceCd=130&Type=search", "url2": "https://kango-hanaemi.com", "内容": "訪問看護ステーションはなえみ【訪問看護】岩手県盛岡市永井23地割22番地1", "サービスの種類": "訪問看護" }, "geometry": { "type": "Point", "coordinates": [ 141.153417847220993, 39.653642640645799 ] } },
{ "type": "Feature", "properties": { "緯度": 39.6564836, "経度": 141.1560956, "url": "https://www.kaigokensaku.mhlw.go.jp/03/index.php?action_kouhyou_detail_004_kani=true&JigyosyoCd=360190656-00&ServiceCd=130&Type=search", "url2": null, "内容": "盛岡南病院訪問看護ステーション【訪問看護】岩手県盛岡市津志田13地割18-4", "サービスの種類": "訪問看護" }, "geometry": { "type": "Point", "coordinates": [ 141.156095599999986, 39.6564836 ] } },
{ "type": "Feature", "properties": { "緯度": 39.7312285, "経度": 141.1148982, "url": "https://www.kaigokensaku.mhlw.go.jp/03/index.php?action_kouhyou_detail_004_kani=true&JigyosyoCd=360190664-00&ServiceCd=130&Type=search", "url2": null, "内容": "訪問看護ステーションヴェンティ【訪問看護】岩手県盛岡市青山４丁目２７番４号青山テナントビルB号", "サービスの種類": "訪問看護" }, "geometry": { "type": "Point", "coordinates": [ 141.1148982, 39.7312285 ] } },
{ "type": "Feature", "properties": { "緯度": 39.7313316, "経度": 141.136578, "url": "https://www.kaigokensaku.mhlw.go.jp/03/index.php?action_kouhyou_detail_004_kani=true&JigyosyoCd=360190748-00&ServiceCd=130&Type=search", "url2": "https://www.kind-life-japan.com/", "内容": "訪問看護ステーション悠ライフ盛岡【訪問看護】岩手県盛岡市高松4丁目19-19", "サービスの種類": "訪問看護" }, "geometry": { "type": "Point", "coordinates": [ 141.136578, 39.7313316 ] } },
{ "type": "Feature", "properties": { "緯度": 39.8752669, "経度": 141.1663387, "url": "https://www.kaigokensaku.mhlw.go.jp/03/index.php?action_kouhyou_detail_004_kani=true&JigyosyoCd=362190001-00&ServiceCd=130&Type=search", "url2": "http://www.nisshindo-g.com/", "内容": "八角病院訪問看護ステーション【訪問看護】岩手県盛岡市好摩字夏間木７０－１９０", "サービスの種類": "訪問看護" }, "geometry": { "type": "Point", "coordinates": [ 141.166338700000011, 39.8752669 ] } },
{ "type": "Feature", "properties": { "緯度": 39.696887321727601, "経度": 141.14718771939499, "url": "https://www.kaigokensaku.mhlw.go.jp/03/index.php?action_kouhyou_detail_004_kani=true&JigyosyoCd=370103103-00&ServiceCd=130&Type=search", "url2": null, "内容": "ほうもんかんごイスト盛岡【訪問看護】岩手県盛岡市馬場町3番36号", "サービスの種類": "訪問看護" }, "geometry": { "type": "Point", "coordinates": [ 141.147187719394992, 39.696887321727601 ] } },
{ "type": "Feature", "properties": { "緯度": 39.7177375, "経度": 141.1383747, "url": "https://www.kaigokensaku.mhlw.go.jp/03/index.php?action_kouhyou_detail_004_kani=true&JigyosyoCd=370107914-00&ServiceCd=130&Type=search", "url2": "https://sozonigiwai.wixsite.com/omotenashi/about-3", "内容": "訪問看護ステーションにぎ和い上田【訪問看護】岩手県盛岡市上田3丁目11-29メゾンヒラノ101", "サービスの種類": "訪問看護" }, "geometry": { "type": "Point", "coordinates": [ 141.138374700000014, 39.7177375 ] } },
{ "type": "Feature", "properties": { "緯度": 39.6407857, "経度": 141.952768, "url": "https://www.kaigokensaku.mhlw.go.jp/03/index.php?action_kouhyou_detail_004_kani=true&JigyosyoCd=360290076-00&ServiceCd=130&Type=search", "url2": "https://www.ichikara-misora.co.jp/", "内容": "訪問看護ステーションみそら宮古【訪問看護】岩手県宮古市大通２丁目2-24MamBird店舗C", "サービスの種類": "訪問看護" }, "geometry": { "type": "Point", "coordinates": [ 141.952768, 39.6407857 ] } },
{ "type": "Feature", "properties": { "緯度": 39.6683752, "経度": 141.9575283, "url": "https://www.kaigokensaku.mhlw.go.jp/03/index.php?action_kouhyou_detail_004_kani=true&JigyosyoCd=360290043-00&ServiceCd=130&Type=search", "url2": "http://www.hohoeminosato.jp/", "内容": "訪問看護ステーションほほえみ【訪問看護】岩手県宮古市崎鍬ヶ崎第９地割３９番地２７介護老人保健施設ほほえみの里", "サービスの種類": "訪問看護" }, "geometry": { "type": "Point", "coordinates": [ 141.9575283, 39.6683752 ] } },
{ "type": "Feature", "properties": { "緯度": 39.6557372, "経度": 141.9322168, "url": "https://www.kaigokensaku.mhlw.go.jp/03/index.php?action_kouhyou_detail_004_kani=true&JigyosyoCd=360290001-00&ServiceCd=130&Type=search", "url2": "http://www.shinwa-kai.jp/", "内容": "宮古山口訪問看護ステーション【訪問看護】岩手県宮古市山口五丁目3番20号", "サービスの種類": "訪問看護" }, "geometry": { "type": "Point", "coordinates": [ 141.9322168, 39.6557372 ] } },
{ "type": "Feature", "properties": { "緯度": 39.6257178, "経度": 141.9586623, "url": "https://www.kaigokensaku.mhlw.go.jp/03/index.php?action_kouhyou_detail_004_kani=true&JigyosyoCd=360290068-00&ServiceCd=130&Type=search", "url2": "http://www.hvrpf.jp/", "内容": "宮古・山田訪問看護ステーションゆずる【訪問看護】岩手県宮古市実田1丁目3番37号", "サービスの種類": "訪問看護" }, "geometry": { "type": "Point", "coordinates": [ 141.958662299999986, 39.6257178 ] } },
{ "type": "Feature", "properties": { "緯度": 39.6300994, "経度": 141.9602978, "url": "https://www.kaigokensaku.mhlw.go.jp/03/index.php?action_kouhyou_detail_004_kani=true&JigyosyoCd=360290035-00&ServiceCd=130&Type=search", "url2": "http://www.riasbb.net/~kagayakilife/", "内容": "訪問看護ステーションかがやきナースケア【訪問看護】岩手県宮古市磯鶏西6番14号", "サービスの種類": "訪問看護" }, "geometry": { "type": "Point", "coordinates": [ 141.9602978, 39.6300994 ] } },
{ "type": "Feature", "properties": { "緯度": 39.6678225, "経度": 141.9597864, "url": "https://www.kaigokensaku.mhlw.go.jp/03/index.php?action_kouhyou_detail_004_kani=true&JigyosyoCd=370200537-00&ServiceCd=130&Type=search", "url2": null, "内容": "訪問看護ステーションメディケア【訪問看護】岩手県宮古市崎鍬ヶ崎第1地割字寒風11番地２６", "サービスの種類": "訪問看護" }, "geometry": { "type": "Point", "coordinates": [ 141.959786400000013, 39.6678225 ] } },
{ "type": "Feature", "properties": { "緯度": 39.642892844623297, "経度": 141.94931640060699, "url": "https://www.kaigokensaku.mhlw.go.jp/03/index.php?action_kouhyou_detail_004_kani=true&JigyosyoCd=370200990-00&ServiceCd=130&Type=search", "url2": "http://sakihoukan.co.jp", "内容": "咲希訪問看護ステーション【訪問看護】岩手県宮古市保久田3-46", "サービスの種類": "訪問看護" }, "geometry": { "type": "Point", "coordinates": [ 141.949316400606989, 39.642892844623297 ] } },
{ "type": "Feature", "properties": { "緯度": 39.0715906, "経度": 141.710399, "url": "https://www.kaigokensaku.mhlw.go.jp/03/index.php?action_kouhyou_detail_004_kani=true&JigyosyoCd=360390009-00&ServiceCd=130&Type=search", "url2": "http://www.shokyukai.or.jp", "内容": "気仙訪問看護ステーション【訪問看護】岩手県大船渡市大船渡町字山馬越188番地", "サービスの種類": "訪問看護" }, "geometry": { "type": "Point", "coordinates": [ 141.710399, 39.0715906 ] } },
{ "type": "Feature", "properties": { "緯度": 39.0845009, "経度": 141.712174, "url": "https://www.kaigokensaku.mhlw.go.jp/03/index.php?action_kouhyou_detail_004_kani=true&JigyosyoCd=360390025-00&ServiceCd=130&Type=search", "url2": "https://www.sompocare.com", "内容": "SOMPOケア大船渡訪問看護【訪問看護】岩手県大船渡市盛町字みどり町8-13", "サービスの種類": "訪問看護" }, "geometry": { "type": "Point", "coordinates": [ 141.712174, 39.0845009 ] } },
{ "type": "Feature", "properties": { "緯度": 39.086256988814, "経度": 141.709866200108, "url": "https://www.kaigokensaku.mhlw.go.jp/03/index.php?action_kouhyou_detail_004_kani=true&JigyosyoCd=360390033-00&ServiceCd=130&Type=search", "url2": "https://hanaemi0203.wixsite.com/mysite-1", "内容": "訪問看護ステーション花笑み【訪問看護】岩手県大船渡市盛町字町9番地19", "サービスの種類": "訪問看護" }, "geometry": { "type": "Point", "coordinates": [ 141.709866200107996, 39.086256988814 ] } },
{ "type": "Feature", "properties": { "緯度": 39.368543344276603, "経度": 141.10587238392, "url": "https://www.kaigokensaku.mhlw.go.jp/03/index.php?action_kouhyou_detail_004_kani=true&JigyosyoCd=370501892-00&ServiceCd=130&Type=search", "url2": null, "内容": "独立行政法人国立病院機構花巻病院　訪問看護ステーション　ともに【訪問看護】岩手県花巻市諏訪５００番地", "サービスの種類": "訪問看護" }, "geometry": { "type": "Point", "coordinates": [ 141.105872383920001, 39.368543344276603 ] } },
{ "type": "Feature", "properties": { "緯度": 39.389312921312701, "経度": 141.11316536508201, "url": "https://www.kaigokensaku.mhlw.go.jp/03/index.php?action_kouhyou_detail_004_kani=true&JigyosyoCd=370501975-00&ServiceCd=130&Type=search", "url2": null, "内容": "訪問看護ステーションはちどり【訪問看護】岩手県花巻市大通り二丁目１-１７", "サービスの種類": "訪問看護" }, "geometry": { "type": "Point", "coordinates": [ 141.113165365082011, 39.389312921312701 ] } },
{ "type": "Feature", "properties": { "緯度": 39.3915806, "経度": 141.1057242, "url": "https://www.kaigokensaku.mhlw.go.jp/03/index.php?action_kouhyou_detail_004_kani=true&JigyosyoCd=370500555-00&ServiceCd=130&Type=search", "url2": "https://yukawa-nougeka.jp", "内容": "ゆかわ脳外科訪問看護ステーション愛【訪問看護】岩手県花巻市西大通り2丁目2-10", "サービスの種類": "訪問看護" }, "geometry": { "type": "Point", "coordinates": [ 141.1057242, 39.3915806 ] } },
{ "type": "Feature", "properties": { "緯度": 39.3853839, "経度": 141.1231608, "url": "https://www.kaigokensaku.mhlw.go.jp/03/index.php?action_kouhyou_detail_004_kani=true&JigyosyoCd=360590046-00&ServiceCd=130&Type=search", "url2": "http://www.hanamakihospital.or.jp", "内容": "総合花巻病院訪問看護ステーション【訪問看護】岩手県花巻市御田屋町4番56号", "サービスの種類": "訪問看護" }, "geometry": { "type": "Point", "coordinates": [ 141.1231608, 39.3853839 ] } },
{ "type": "Feature", "properties": { "緯度": 39.399257621182997, "経度": 141.09858256213101, "url": "https://www.kaigokensaku.mhlw.go.jp/03/index.php?action_kouhyou_detail_004_kani=true&JigyosyoCd=360590038-00&ServiceCd=130&Type=search", "url2": "http://www.kukuruhanamaki.com/", "内容": "くくる花巻訪問看護ステーション【訪問看護】岩手県花巻市野田351番地1", "サービスの種類": "訪問看護" }, "geometry": { "type": "Point", "coordinates": [ 141.098582562131014, 39.399257621182997 ] } },
{ "type": "Feature", "properties": { "緯度": 39.2821267, "経度": 141.1328031, "url": "https://www.kaigokensaku.mhlw.go.jp/03/index.php?action_kouhyou_detail_004_kani=true&JigyosyoCd=310611215-00&ServiceCd=130&Type=search", "url2": null, "内容": "医療法人優親会　及川放射線科内科医院【訪問看護】岩手県北上市立花１０地割２８番地１", "サービスの種類": "訪問看護" }, "geometry": { "type": "Point", "coordinates": [ 141.1328031, 39.2821267 ] } },
{ "type": "Feature", "properties": { "緯度": 39.2846538, "経度": 141.1202681, "url": "https://www.kaigokensaku.mhlw.go.jp/03/index.php?action_kouhyou_detail_004_kani=true&JigyosyoCd=360690085-00&ServiceCd=130&Type=search", "url2": null, "内容": "訪問看護ステーションデューン北上【訪問看護】岩手県北上市青柳町1丁目2番24号葵ビル2階", "サービスの種類": "訪問看護" }, "geometry": { "type": "Point", "coordinates": [ 141.1202681, 39.2846538 ] } },
{ "type": "Feature", "properties": { "緯度": 39.291350215153997, "経度": 141.09527235098199, "url": "https://www.kaigokensaku.mhlw.go.jp/03/index.php?action_kouhyou_detail_004_kani=true&JigyosyoCd=360690010-00&ServiceCd=130&Type=search", "url2": null, "内容": "日高見訪問看護リハビリステーション【訪問看護】岩手県北上市北鬼柳22-46", "サービスの種類": "訪問看護" }, "geometry": { "type": "Point", "coordinates": [ 141.095272350981986, 39.291350215153997 ] } },
{ "type": "Feature", "properties": { "緯度": 39.273812054645298, "経度": 141.10191088253899, "url": "https://www.kaigokensaku.mhlw.go.jp/03/index.php?action_kouhyou_detail_004_kani=true&JigyosyoCd=370601668-00&ServiceCd=130&Type=search", "url2": "https://bear-rise.deci.jp", "内容": "訪問看護事業所きたかみ【訪問看護】岩手県北上市鬼柳町荒高３７番地１有料老人ホームきたかみ", "サービスの種類": "訪問看護" }, "geometry": { "type": "Point", "coordinates": [ 141.101910882538988, 39.273812054645298 ] } },
{ "type": "Feature", "properties": { "緯度": 39.28458, "経度": 141.1155164, "url": "https://www.kaigokensaku.mhlw.go.jp/03/index.php?action_kouhyou_detail_004_kani=true&JigyosyoCd=370601809-00&ServiceCd=130&Type=search", "url2": "https://keiwakai.sakura.ne.jp/keiwakai/topics/", "内容": "あおやぎ訪問看護ステーション【訪問看護】岩手県北上市青柳町2丁目6-9", "サービスの種類": "訪問看護" }, "geometry": { "type": "Point", "coordinates": [ 141.1155164, 39.28458 ] } },
{ "type": "Feature", "properties": { "緯度": 39.3237235, "経度": 141.1135393, "url": "https://www.kaigokensaku.mhlw.go.jp/03/index.php?action_kouhyou_detail_004_kani=true&JigyosyoCd=370601734-00&ServiceCd=130&Type=search", "url2": null, "内容": "グッドタイム訪問看護ステーション・岩手【訪問看護】岩手県北上市村崎野15地割278", "サービスの種類": "訪問看護" }, "geometry": { "type": "Point", "coordinates": [ 141.113539300000014, 39.3237235 ] } },
{ "type": "Feature", "properties": { "緯度": 39.3023034, "経度": 141.1103211, "url": "https://www.kaigokensaku.mhlw.go.jp/03/index.php?action_kouhyou_detail_004_kani=true&JigyosyoCd=370601700-00&ServiceCd=130&Type=search", "url2": null, "内容": "医心館訪問看護ステーション北上【訪問看護】岩手県北上市さくら通り５丁目14番１０号", "サービスの種類": "訪問看護" }, "geometry": { "type": "Point", "coordinates": [ 141.1103211, 39.3023034 ] } },
{ "type": "Feature", "properties": { "緯度": 39.299277, "経度": 141.1142308, "url": "https://www.kaigokensaku.mhlw.go.jp/03/index.php?action_kouhyou_detail_004_kani=true&JigyosyoCd=370601783-00&ServiceCd=130&Type=search", "url2": "https://www.sompocare.com/", "内容": "SOMPOケア北上訪問看護【訪問看護】岩手県北上市さくら通り四丁目14-17", "サービスの種類": "訪問看護" }, "geometry": { "type": "Point", "coordinates": [ 141.1142308, 39.299277 ] } },
{ "type": "Feature", "properties": { "緯度": 39.284908099034702, "経度": 141.10800050966799, "url": "https://www.kaigokensaku.mhlw.go.jp/03/index.php?action_kouhyou_detail_004_kani=true&JigyosyoCd=370601593-00&ServiceCd=130&Type=search", "url2": "https://www.saiseikai-hp.or.jp/", "内容": "訪問看護ステーション北上済生会【訪問看護】岩手県北上市九年橋三丁目15番33号", "サービスの種類": "訪問看護" }, "geometry": { "type": "Point", "coordinates": [ 141.108000509667988, 39.284908099034702 ] } },
{ "type": "Feature", "properties": { "緯度": 39.2993576, "経度": 141.1123489, "url": "https://www.kaigokensaku.mhlw.go.jp/03/index.php?action_kouhyou_detail_004_kani=true&JigyosyoCd=360690077-00&ServiceCd=130&Type=search", "url2": "https://k-ayumi9.wixsite.com/mysite", "内容": "訪問看護ステーションあゆみ【訪問看護】岩手県北上市さくら通り4丁目１－３５", "サービスの種類": "訪問看護" }, "geometry": { "type": "Point", "coordinates": [ 141.1123489, 39.2993576 ] } },
{ "type": "Feature", "properties": { "緯度": 39.3105029, "経度": 141.1939696, "url": "https://www.kaigokensaku.mhlw.go.jp/03/index.php?action_kouhyou_detail_004_kani=true&JigyosyoCd=370601296-00&ServiceCd=130&Type=search", "url2": "https://kizuna-planet.jp/", "内容": "ハートケアステーション絆【訪問看護】岩手県北上市口内町森212", "サービスの種類": "訪問看護" }, "geometry": { "type": "Point", "coordinates": [ 141.1939696, 39.3105029 ] } },
{ "type": "Feature", "properties": { "緯度": 40.191926060684303, "経度": 141.76761699384099, "url": "https://www.kaigokensaku.mhlw.go.jp/03/index.php?action_kouhyou_detail_004_kani=true&JigyosyoCd=350780003-00&ServiceCd=130&Type=search", "url2": "http://www.takesita-iin.com/", "内容": "リハビリタウンくじ訪問看護ステーション【訪問看護】岩手県久慈市中の橋一丁目5番地竹下医院内", "サービスの種類": "訪問看護" }, "geometry": { "type": "Point", "coordinates": [ 141.767616993840988, 40.191926060684303 ] } },
{ "type": "Feature", "properties": { "緯度": 40.193435303920097, "経度": 141.74860082914401, "url": "https://www.kaigokensaku.mhlw.go.jp/03/index.php?action_kouhyou_detail_004_kani=true&JigyosyoCd=370700684-00&ServiceCd=130&Type=search", "url2": "https://r.goope.jp/merhoukan-kuji/", "内容": "MER訪問看護ステーション【訪問看護】岩手県久慈市寺里30-79-8リバーサイドハイツ1号", "サービスの種類": "訪問看護" }, "geometry": { "type": "Point", "coordinates": [ 141.74860082914401, 40.193435303920097 ] } },
{ "type": "Feature", "properties": { "緯度": 39.3290711, "経度": 141.5363583, "url": "https://www.kaigokensaku.mhlw.go.jp/03/index.php?action_kouhyou_detail_004_kani=true&JigyosyoCd=360890016-00&ServiceCd=130&Type=search", "url2": null, "内容": "訪問看護ステーションまごころ【訪問看護】岩手県遠野市穀町１２－２５サンコーポ宮田２０３", "サービスの種類": "訪問看護" }, "geometry": { "type": "Point", "coordinates": [ 141.536358299999989, 39.3290711 ] } },
{ "type": "Feature", "properties": { "緯度": 39.3434499, "経度": 141.5366715, "url": "https://www.kaigokensaku.mhlw.go.jp/03/index.php?action_kouhyou_detail_004_kani=true&JigyosyoCd=360890008-00&ServiceCd=130&Type=search", "url2": "http://www.tono-shakyo.jp/", "内容": "訪問看護ステーションとおの【訪問看護】岩手県遠野市松崎町白岩字薬研渕１－３", "サービスの種類": "訪問看護" }, "geometry": { "type": "Point", "coordinates": [ 141.536671500000011, 39.3434499 ] } },
{ "type": "Feature", "properties": { "緯度": 38.936239, "経度": 141.4412332, "url": "https://www.kaigokensaku.mhlw.go.jp/03/index.php?action_kouhyou_detail_004_kani=true&JigyosyoCd=310911409-00&ServiceCd=130&Type=search", "url2": null, "内容": "一関市国民健康保険室根診療所【訪問看護】岩手県一関市室根町折壁字八幡沖１１７", "サービスの種類": "訪問看護" }, "geometry": { "type": "Point", "coordinates": [ 141.4412332, 38.936239 ] } },
{ "type": "Feature", "properties": { "緯度": 38.932019738605099, "経度": 141.16848229477301, "url": "https://www.kaigokensaku.mhlw.go.jp/03/index.php?action_kouhyou_detail_004_kani=true&JigyosyoCd=360990089-00&ServiceCd=130&Type=search", "url2": "https://www.i-ayumi.net/", "内容": "訪問看護あゆみ【訪問看護】岩手県一関市滝沢字宮田118番地122", "サービスの種類": "訪問看護" }, "geometry": { "type": "Point", "coordinates": [ 141.168482294773014, 38.932019738605099 ] } },
{ "type": "Feature", "properties": { "緯度": 38.9418238, "経度": 141.1318082, "url": "https://www.kaigokensaku.mhlw.go.jp/03/index.php?action_kouhyou_detail_004_kani=true&JigyosyoCd=370901977-00&ServiceCd=130&Type=search", "url2": null, "内容": "訪問看護ステーションペルシモン【訪問看護】岩手県一関市東五代１１番－２号", "サービスの種類": "訪問看護" }, "geometry": { "type": "Point", "coordinates": [ 141.1318082, 38.9418238 ] } },
{ "type": "Feature", "properties": { "緯度": 38.8586455, "経度": 141.3499169, "url": "https://www.kaigokensaku.mhlw.go.jp/03/index.php?action_kouhyou_detail_004_kani=true&JigyosyoCd=360990055-00&ServiceCd=130&Type=search", "url2": "http://www.fmhe.net", "内容": "ふじさわ訪問看護ステーション【訪問看護】岩手県一関市藤沢町藤沢字町裏52番地2", "サービスの種類": "訪問看護" }, "geometry": { "type": "Point", "coordinates": [ 141.349916900000011, 38.8586455 ] } },
{ "type": "Feature", "properties": { "緯度": 38.937267728462999, "経度": 141.12950728902399, "url": "https://www.kaigokensaku.mhlw.go.jp/03/index.php?action_kouhyou_detail_004_kani=true&JigyosyoCd=360990022-00&ServiceCd=130&Type=search", "url2": "http://i3syukai.com", "内容": "一関中央訪問看護ステーションなのはな【訪問看護】岩手県一関市中央町二丁目５番１３号", "サービスの種類": "訪問看護" }, "geometry": { "type": "Point", "coordinates": [ 141.129507289023991, 38.937267728462999 ] } },
{ "type": "Feature", "properties": { "緯度": 38.9359861, "経度": 141.1511765, "url": "https://www.kaigokensaku.mhlw.go.jp/03/index.php?action_kouhyou_detail_004_kani=true&JigyosyoCd=360990097-00&ServiceCd=130&Type=search", "url2": null, "内容": "訪問看護ステーションケアリー岩手一関【訪問看護】岩手県一関市中里字舟場64番1", "サービスの種類": "訪問看護" }, "geometry": { "type": "Point", "coordinates": [ 141.1511765, 38.9359861 ] } },
{ "type": "Feature", "properties": { "緯度": 38.9267753, "経度": 141.1331978, "url": "https://www.kaigokensaku.mhlw.go.jp/03/index.php?action_kouhyou_detail_004_kani=true&JigyosyoCd=360990105-00&ServiceCd=130&Type=search", "url2": null, "内容": "訪問看護ステーションホスピス西城【訪問看護】岩手県一関市八幡町２番38号", "サービスの種類": "訪問看護" }, "geometry": { "type": "Point", "coordinates": [ 141.1331978, 38.9267753 ] } },
{ "type": "Feature", "properties": { "緯度": 38.9397862, "経度": 141.1034135, "url": "https://www.kaigokensaku.mhlw.go.jp/03/index.php?action_kouhyou_detail_004_kani=true&JigyosyoCd=360990071-00&ServiceCd=130&Type=search", "url2": "http://ritsuwa.com", "内容": "ケアビレッジ一関ケアサービスステーション訪問看護事業所【訪問看護】岩手県一関市赤荻字月町176番", "サービスの種類": "訪問看護" }, "geometry": { "type": "Point", "coordinates": [ 141.103413499999988, 38.9397862 ] } },
{ "type": "Feature", "properties": { "緯度": 38.9296466, "経度": 141.134611, "url": "https://www.kaigokensaku.mhlw.go.jp/03/index.php?action_kouhyou_detail_004_kani=true&JigyosyoCd=370901779-00&ServiceCd=130&Type=search", "url2": "http://www.ichi-hp.jp/", "内容": "一関病院訪問看護ステーションわかば【訪問看護】岩手県一関市大手町3番36号", "サービスの種類": "訪問看護" }, "geometry": { "type": "Point", "coordinates": [ 141.134611, 38.9296466 ] } },
{ "type": "Feature", "properties": { "緯度": 38.930064, "経度": 141.1328138, "url": "https://www.kaigokensaku.mhlw.go.jp/03/index.php?action_kouhyou_detail_004_kani=true&JigyosyoCd=370901936-00&ServiceCd=130&Type=search", "url2": "https://aiseikai-shp.or.jp/", "内容": "ウィル訪問看護ステーション昭和病院【訪問看護】岩手県一関市田村町6番3号", "サービスの種類": "訪問看護" }, "geometry": { "type": "Point", "coordinates": [ 141.1328138, 38.930064 ] } },
{ "type": "Feature", "properties": { "緯度": 38.9983791, "経度": 141.2564025, "url": "https://www.kaigokensaku.mhlw.go.jp/03/index.php?action_kouhyou_detail_004_kani=true&JigyosyoCd=362790016-00&ServiceCd=130&Type=search", "url2": "http://www.iwate-kango.or.jp/ippann01.html", "内容": "公益社団法人岩手県看護協会立東山訪問看護ステーション【訪問看護】岩手県一関市東山町長坂字西本町58-5", "サービスの種類": "訪問看護" }, "geometry": { "type": "Point", "coordinates": [ 141.2564025, 38.9983791 ] } },
{ "type": "Feature", "properties": { "緯度": 38.9171844, "経度": 141.3297582, "url": "https://www.kaigokensaku.mhlw.go.jp/03/index.php?action_kouhyou_detail_004_kani=true&JigyosyoCd=362790024-00&ServiceCd=130&Type=search", "url2": "http://www.iwate-kango.or.jp/", "内容": "公益社団法人岩手県看護協会立千厩訪問看護ステーション【訪問看護】岩手県一関市千厩町千厩字町81番地", "サービスの種類": "訪問看護" }, "geometry": { "type": "Point", "coordinates": [ 141.329758199999986, 38.9171844 ] } },
{ "type": "Feature", "properties": { "緯度": 38.800511, "経度": 141.1909968, "url": "https://www.kaigokensaku.mhlw.go.jp/03/index.php?action_kouhyou_detail_004_kani=true&JigyosyoCd=362690018-00&ServiceCd=130&Type=search", "url2": null, "内容": "花泉訪問看護ステーション【訪問看護】岩手県一関市花泉町涌津字悪法師３８－３１", "サービスの種類": "訪問看護" }, "geometry": { "type": "Point", "coordinates": [ 141.1909968, 38.800511 ] } },
{ "type": "Feature", "properties": { "緯度": 38.9559478, "経度": 141.352834, "url": "https://www.kaigokensaku.mhlw.go.jp/03/index.php?action_kouhyou_detail_004_kani=true&JigyosyoCd=370901407-00&ServiceCd=130&Type=search", "url2": "http://masakokikuchi.web.fc2.com/", "内容": "株式会社きくちまさこ訪問看護ステーション【訪問看護】岩手県一関市千厩町奥玉字沢前17-2", "サービスの種類": "訪問看護" }, "geometry": { "type": "Point", "coordinates": [ 141.352834, 38.9559478 ] } },
{ "type": "Feature", "properties": { "緯度": 38.991540745133399, "経度": 141.25200772460599, "url": "https://www.kaigokensaku.mhlw.go.jp/03/index.php?action_kouhyou_detail_004_kani=true&JigyosyoCd=370901670-00&ServiceCd=130&Type=search", "url2": "https://www.akasi.info/", "内容": "訪問看護ステーションさくら【訪問看護】岩手県一関市東山町長坂字町325番地", "サービスの種類": "訪問看護" }, "geometry": { "type": "Point", "coordinates": [ 141.252007724605988, 38.991540745133399 ] } },
{ "type": "Feature", "properties": { "緯度": 38.9241573, "経度": 141.1338458, "url": "https://www.kaigokensaku.mhlw.go.jp/03/index.php?action_kouhyou_detail_004_kani=true&JigyosyoCd=370901944-00&ServiceCd=130&Type=search", "url2": null, "内容": "いつもの訪問看護ステーション【訪問看護】岩手県一関市新大町108番地", "サービスの種類": "訪問看護" }, "geometry": { "type": "Point", "coordinates": [ 141.133845799999989, 38.9241573 ] } },
{ "type": "Feature", "properties": { "緯度": 38.9386252, "経度": 141.126975, "url": "https://www.kaigokensaku.mhlw.go.jp/03/index.php?action_kouhyou_detail_004_kani=true&JigyosyoCd=370902140-00&ServiceCd=130&Type=search", "url2": "https://www.koresapo.jp", "内容": "これさぽ訪問看護ステーション南【訪問看護】岩手県一関市宮前町１４番７号レクシア宮前１階１０７号", "サービスの種類": "訪問看護" }, "geometry": { "type": "Point", "coordinates": [ 141.126975, 38.9386252 ] } },
{ "type": "Feature", "properties": { "緯度": 39.0209961, "経度": 141.63573267116399, "url": "https://www.kaigokensaku.mhlw.go.jp/03/index.php?action_kouhyou_detail_004_kani=true&JigyosyoCd=361090004-00&ServiceCd=130&Type=search", "url2": "http://www.shokyukai.or.jp", "内容": "松原訪問看護ステーション【訪問看護】岩手県陸前高田市高田町字中田69-2", "サービスの種類": "訪問看護" }, "geometry": { "type": "Point", "coordinates": [ 141.635732671163993, 39.0209961 ] } },
{ "type": "Feature", "properties": { "緯度": 39.016987700883597, "経度": 141.62923315582, "url": "https://www.kaigokensaku.mhlw.go.jp/03/index.php?action_kouhyou_detail_004_kani=true&JigyosyoCd=361090020-00&ServiceCd=130&Type=search", "url2": "https://lots.co.jp", "内容": "リハ特化型訪問看護ステーションさんぽ【訪問看護】岩手県陸前高田市高田町字館の沖303番地1アバッセタカタ専門店街", "サービスの種類": "訪問看護" }, "geometry": { "type": "Point", "coordinates": [ 141.629233155820003, 39.016987700883597 ] } },
{ "type": "Feature", "properties": { "緯度": 39.2689942, "経度": 141.8559162, "url": "https://www.kaigokensaku.mhlw.go.jp/03/index.php?action_kouhyou_detail_004_kani=true&JigyosyoCd=311110563-00&ServiceCd=130&Type=search", "url2": null, "内容": "小泉医院【訪問看護】釜石市中妻町３-６-６", "サービスの種類": "訪問看護" }, "geometry": { "type": "Point", "coordinates": [ 141.8559162, 39.2689942 ] } },
{ "type": "Feature", "properties": { "緯度": 39.2737686, "経度": 141.8784446, "url": "https://www.kaigokensaku.mhlw.go.jp/03/index.php?action_kouhyou_detail_004_kani=true&JigyosyoCd=311110829-00&ServiceCd=130&Type=search", "url2": null, "内容": "釜石ファミリークリニック【訪問看護】岩手県釜石市大渡町3-15-26釜石市保健福祉センター内", "サービスの種類": "訪問看護" }, "geometry": { "type": "Point", "coordinates": [ 141.8784446, 39.2737686 ] } },
{ "type": "Feature", "properties": { "緯度": 39.273876488161797, "経度": 141.88089114729101, "url": "https://www.kaigokensaku.mhlw.go.jp/03/index.php?action_kouhyou_detail_004_kani=true&JigyosyoCd=361190010-00&ServiceCd=130&Type=search", "url2": "https://welfare-care.co.jp/", "内容": "あゆみ訪問看護ステーション【訪問看護】岩手県釜石市大町二丁目2番24号", "サービスの種類": "訪問看護" }, "geometry": { "type": "Point", "coordinates": [ 141.88089114729101, 39.273876488161797 ] } },
{ "type": "Feature", "properties": { "緯度": 39.3424875, "経度": 141.8332027, "url": "https://www.kaigokensaku.mhlw.go.jp/03/index.php?action_kouhyou_detail_004_kani=true&JigyosyoCd=361190028-00&ServiceCd=130&Type=search", "url2": null, "内容": "フジクラ訪問看護リハビリステーション【訪問看護】岩手県釜石市栗林町２２－１４－５", "サービスの種類": "訪問看護" }, "geometry": { "type": "Point", "coordinates": [ 141.833202699999987, 39.3424875 ] } },
{ "type": "Feature", "properties": { "緯度": 40.1866496, "経度": 141.1548952, "url": "https://www.kaigokensaku.mhlw.go.jp/03/index.php?action_kouhyou_detail_004_kani=true&JigyosyoCd=311310262-00&ServiceCd=130&Type=search", "url2": null, "内容": "二戸市国民健康保険浄法寺診療所【訪問看護】岩手県二戸市浄法寺町小池6番地1", "サービスの種類": "訪問看護" }, "geometry": { "type": "Point", "coordinates": [ 141.1548952, 40.1866496 ] } },
{ "type": "Feature", "properties": { "緯度": 40.262805887262999, "経度": 141.29558136922901, "url": "https://www.kaigokensaku.mhlw.go.jp/03/index.php?action_kouhyou_detail_004_kani=true&JigyosyoCd=361390008-00&ServiceCd=130&Type=search", "url2": "http://www.iwate-kango.or.jp/", "内容": "公益社団法人岩手県看護協会立二戸訪問看護ステーション【訪問看護】岩手県二戸市福岡字八幡下11-1", "サービスの種類": "訪問看護" }, "geometry": { "type": "Point", "coordinates": [ 141.295581369229012, 40.262805887262999 ] } },
{ "type": "Feature", "properties": { "緯度": 39.9136606, "経度": 141.1019807, "url": "https://www.kaigokensaku.mhlw.go.jp/03/index.php?action_kouhyou_detail_004_kani=true&JigyosyoCd=311410203-00&ServiceCd=130&Type=search", "url2": "https://www.city.hachimantai.lg.jp/site/byoin/", "内容": "八幡平市立病院【訪問看護】岩手県八幡平市大更25-328-1", "サービスの種類": "訪問看護" }, "geometry": { "type": "Point", "coordinates": [ 141.101980700000013, 39.9136606 ] } },
{ "type": "Feature", "properties": { "緯度": 39.1465944, "経度": 141.1388767, "url": "https://www.kaigokensaku.mhlw.go.jp/03/index.php?action_kouhyou_detail_004_kani=true&JigyosyoCd=371500919-00&ServiceCd=130&Type=search", "url2": "http://www.mizhsp-iwate.jp/", "内容": "水沢病院訪問看護ステーションきらり【訪問看護】岩手県奥州市水沢大手町三丁目1番地奥州市総合水沢病院", "サービスの種類": "訪問看護" }, "geometry": { "type": "Point", "coordinates": [ 141.1388767, 39.1465944 ] } },
{ "type": "Feature", "properties": { "緯度": 39.1291199, "経度": 141.0679118, "url": "https://www.kaigokensaku.mhlw.go.jp/03/index.php?action_kouhyou_detail_004_kani=true&JigyosyoCd=311510879-00&ServiceCd=130&Type=search", "url2": "https://www.city.oshu.iwate.jp/site/magokoro/", "内容": "奥州市国民健康保険まごころ病院【訪問看護】岩手県奥州市胆沢南都田字大持40番地", "サービスの種類": "訪問看護" }, "geometry": { "type": "Point", "coordinates": [ 141.0679118, 39.1291199 ] } },
{ "type": "Feature", "properties": { "緯度": 39.1892799, "経度": 141.1688006, "url": "https://www.kaigokensaku.mhlw.go.jp/03/index.php?action_kouhyou_detail_004_kani=true&JigyosyoCd=361290018-00&ServiceCd=130&Type=search", "url2": "https://www.ousyu-tamachan.com/", "内容": "指定訪問看護ステーションたまちゃん【訪問看護】岩手県奥州市江刺岩谷堂字二本木７１－１", "サービスの種類": "訪問看護" }, "geometry": { "type": "Point", "coordinates": [ 141.1688006, 39.1892799 ] } },
{ "type": "Feature", "properties": { "緯度": 39.145277, "経度": 141.1840675, "url": "https://www.kaigokensaku.mhlw.go.jp/03/index.php?action_kouhyou_detail_004_kani=true&JigyosyoCd=371500968-00&ServiceCd=130&Type=search", "url2": "http://www.keiaikai-miyama.jp/", "内容": "社団医療法人啓愛会東水沢訪問看護ステーション【訪問看護】岩手県奥州市水沢羽田町駅前2丁目８７-２東水沢訪問看護ステーション", "サービスの種類": "訪問看護" }, "geometry": { "type": "Point", "coordinates": [ 141.1840675, 39.145277 ] } },
{ "type": "Feature", "properties": { "緯度": 39.0563588, "経度": 141.1226558, "url": "https://www.kaigokensaku.mhlw.go.jp/03/index.php?action_kouhyou_detail_004_kani=true&JigyosyoCd=371501263-00&ServiceCd=130&Type=search", "url2": "https://24hirainbow.com/", "内容": "ひたちの会虹色訪問看護ステーション【訪問看護】岩手県奥州市前沢山下２３番地５", "サービスの種類": "訪問看護" }, "geometry": { "type": "Point", "coordinates": [ 141.1226558, 39.0563588 ] } },
{ "type": "Feature", "properties": { "緯度": 39.132512642270399, "経度": 141.064856421813, "url": "https://www.kaigokensaku.mhlw.go.jp/03/index.php?action_kouhyou_detail_004_kani=true&JigyosyoCd=371500836-00&ServiceCd=130&Type=search", "url2": "http://www.yutaka-oshu.com", "内容": "訪問看護ゆたかな家っこ【訪問看護】岩手県奥州市胆沢若柳字下松原80番地", "サービスの種類": "訪問看護" }, "geometry": { "type": "Point", "coordinates": [ 141.064856421813005, 39.132512642270399 ] } },
{ "type": "Feature", "properties": { "緯度": 39.2006257, "経度": 141.1448601, "url": "https://www.kaigokensaku.mhlw.go.jp/03/index.php?action_kouhyou_detail_004_kani=true&JigyosyoCd=361590029-00&ServiceCd=130&Type=search", "url2": null, "内容": "指定訪問看護ステーションさくら【訪問看護】岩手県奥州市江刺愛宕字沼ノ上３２", "サービスの種類": "訪問看護" }, "geometry": { "type": "Point", "coordinates": [ 141.144860099999988, 39.2006257 ] } },
{ "type": "Feature", "properties": { "緯度": 39.1396494, "経度": 141.1482493, "url": "https://www.kaigokensaku.mhlw.go.jp/03/index.php?action_kouhyou_detail_004_kani=true&JigyosyoCd=371501255-00&ServiceCd=130&Type=search", "url2": "https://www.seiwakai-med.or.jp/himawari", "内容": "清和会訪問看護ステーションひまわり【訪問看護】岩手県奥州市水沢東大通り1丁目5番30号", "サービスの種類": "訪問看護" }, "geometry": { "type": "Point", "coordinates": [ 141.1482493, 39.1396494 ] } },
{ "type": "Feature", "properties": { "緯度": 39.7341983, "経度": 141.0948299, "url": "https://www.kaigokensaku.mhlw.go.jp/03/index.php?action_kouhyou_detail_004_kani=true&JigyosyoCd=361690019-00&ServiceCd=130&Type=search", "url2": null, "内容": "サン・ケアサービスセンター訪問看護事業所【訪問看護】岩手県滝沢市鵜飼大緩47番地28", "サービスの種類": "訪問看護" }, "geometry": { "type": "Point", "coordinates": [ 141.0948299, 39.7341983 ] } },
{ "type": "Feature", "properties": { "緯度": 39.778688257009698, "経度": 141.13121156872401, "url": "https://www.kaigokensaku.mhlw.go.jp/03/index.php?action_kouhyou_detail_004_kani=true&JigyosyoCd=361690035-00&ServiceCd=130&Type=search", "url2": "http://hp.kaipoke.biz/usp", "内容": "訪問看護ステーション巣子【訪問看護】岩手県滝沢市巣子1172番地27", "サービスの種類": "訪問看護" }, "geometry": { "type": "Point", "coordinates": [ 141.131211568724012, 39.778688257009698 ] } },
{ "type": "Feature", "properties": { "緯度": 39.7315866353687, "経度": 141.098459559525, "url": "https://www.kaigokensaku.mhlw.go.jp/03/index.php?action_kouhyou_detail_004_kani=true&JigyosyoCd=361690043-00&ServiceCd=130&Type=search", "url2": "https://hp.kaipoke.biz/nsn/", "内容": "リハヴィレッジいわて訪問看護ステーション【訪問看護】岩手県滝沢市鵜飼諸葛川１６番地１９", "サービスの種類": "訪問看護" }, "geometry": { "type": "Point", "coordinates": [ 141.098459559524997, 39.7315866353687 ] } },
{ "type": "Feature", "properties": { "緯度": 39.703107776313601, "経度": 141.07204874120299, "url": "https://www.kaigokensaku.mhlw.go.jp/03/index.php?action_kouhyou_detail_004_kani=true&JigyosyoCd=362190035-00&ServiceCd=130&Type=search", "url2": "http://www.uguisu.or.jp/", "内容": "社会福祉法人康済会訪問看護ステーション滝沢【訪問看護】岩手県滝沢市大釜竹鼻163-14", "サービスの種類": "訪問看護" }, "geometry": { "type": "Point", "coordinates": [ 141.072048741202991, 39.703107776313601 ] } },
{ "type": "Feature", "properties": { "緯度": 39.706476639153401, "経度": 141.07927506199599, "url": "https://www.kaigokensaku.mhlw.go.jp/03/index.php?action_kouhyou_detail_004_kani=true&JigyosyoCd=362190068-00&ServiceCd=130&Type=search", "url2": "http://www.yuuyui.com/", "内容": "訪問看護ステーションありがとう【訪問看護】岩手県滝沢市篠木黒畑56-1丹内ビル３-2号", "サービスの種類": "訪問看護" }, "geometry": { "type": "Point", "coordinates": [ 141.079275061995986, 39.706476639153401 ] } },
{ "type": "Feature", "properties": { "緯度": 39.7718849, "経度": 141.1428769, "url": "https://www.kaigokensaku.mhlw.go.jp/03/index.php?action_kouhyou_detail_004_kani=true&JigyosyoCd=361690092-00&ServiceCd=130&Type=search", "url2": "https://www.nfield.co.jp/", "内容": "訪問看護ステーション　デューン滝沢【訪問看護】岩手県滝沢市葉の木沢山506番28葉の木沢山事務所", "サービスの種類": "訪問看護" }, "geometry": { "type": "Point", "coordinates": [ 141.1428769, 39.7718849 ] } },
{ "type": "Feature", "properties": { "緯度": 39.733388103757598, "経度": 141.089563378821, "url": "https://www.kaigokensaku.mhlw.go.jp/03/index.php?action_kouhyou_detail_004_kani=true&JigyosyoCd=361690068-00&ServiceCd=130&Type=search", "url2": "https://miotsukushi-kohaku.com/", "内容": "訪問看護ステーション琥珀【訪問看護】岩手県滝沢市鵜飼笹森1-93", "サービスの種類": "訪問看護" }, "geometry": { "type": "Point", "coordinates": [ 141.089563378820998, 39.733388103757598 ] } },
{ "type": "Feature", "properties": { "緯度": 39.7115082, "経度": 141.0718867, "url": "https://www.kaigokensaku.mhlw.go.jp/03/index.php?action_kouhyou_detail_004_kani=true&JigyosyoCd=361690076-00&ServiceCd=130&Type=search", "url2": null, "内容": "訪問看護蕾【訪問看護】岩手県滝沢市大釜163番11ナーシングホーム夢咲", "サービスの種類": "訪問看護" }, "geometry": { "type": "Point", "coordinates": [ 141.0718867, 39.7115082 ] } },
{ "type": "Feature", "properties": { "緯度": 39.730583970049601, "経度": 141.09351653928701, "url": "https://www.kaigokensaku.mhlw.go.jp/03/index.php?action_kouhyou_detail_004_kani=true&JigyosyoCd=361690084-00&ServiceCd=130&Type=search", "url2": "https://www.kaigo.kind-life-japan.com", "内容": "訪問看護ステーション悠ライフ盛岡西【訪問看護】岩手県滝沢市鵜飼下高柳15番地1", "サービスの種類": "訪問看護" }, "geometry": { "type": "Point", "coordinates": [ 141.093516539287009, 39.730583970049601 ] } },
{ "type": "Feature", "properties": { "緯度": 39.7037568, "経度": 141.012918, "url": "https://www.kaigokensaku.mhlw.go.jp/03/index.php?action_kouhyou_detail_004_kani=true&JigyosyoCd=312110919-00&ServiceCd=130&Type=search", "url2": "http://www.irc.or.jp", "内容": "いわてリハビリテーションセンター【訪問看護】岩手県岩手郡雫石町七ツ森16番地243", "サービスの種類": "訪問看護" }, "geometry": { "type": "Point", "coordinates": [ 141.012918, 39.7037568 ] } },
{ "type": "Feature", "properties": { "緯度": 39.6970392212666, "経度": 140.97064878431399, "url": "https://www.kaigokensaku.mhlw.go.jp/03/index.php?action_kouhyou_detail_004_kani=true&JigyosyoCd=362190084-00&ServiceCd=130&Type=search", "url2": "https://cocorokango-shizukuishi.com", "内容": "しずくいし訪問看護ステーション心【訪問看護】岩手県岩手郡雫石町万田渡74-1", "サービスの種類": "訪問看護" }, "geometry": { "type": "Point", "coordinates": [ 140.970648784313994, 39.6970392212666 ] } },
{ "type": "Feature", "properties": { "緯度": 39.9738122, "経度": 141.2201096, "url": "https://www.kaigokensaku.mhlw.go.jp/03/index.php?action_kouhyou_detail_004_kani=true&JigyosyoCd=312110968-00&ServiceCd=130&Type=search", "url2": "http://www.sawatari-iin.com/", "内容": "佐渡医院訪問看護【訪問看護】岩手県岩手郡岩手町大字五日市第10地割175-15", "サービスの種類": "訪問看護" }, "geometry": { "type": "Point", "coordinates": [ 141.2201096, 39.9738122 ] } },
{ "type": "Feature", "properties": { "緯度": 39.9995513, "経度": 141.2374636, "url": "https://www.kaigokensaku.mhlw.go.jp/03/index.php?action_kouhyou_detail_004_kani=true&JigyosyoCd=362190076-00&ServiceCd=130&Type=search", "url2": "https://kaigoiwate.com/", "内容": "訪問看護ステーション和や家～なごやか～【訪問看護】岩手県岩手郡岩手町大字沼宮内第18地割85番地2", "サービスの種類": "訪問看護" }, "geometry": { "type": "Point", "coordinates": [ 141.237463600000012, 39.9995513 ] } },
{ "type": "Feature", "properties": { "緯度": 39.538926834237898, "経度": 141.165604087172, "url": "https://www.kaigokensaku.mhlw.go.jp/03/index.php?action_kouhyou_detail_004_kani=true&JigyosyoCd=362290017-00&ServiceCd=130&Type=search", "url2": null, "内容": "特定非営利活動法人しわ訪問看護ステーション虹【訪問看護】岩手県紫波郡紫波町北日詰字大日堂2番地1虹のいえ　２階", "サービスの種類": "訪問看護" }, "geometry": { "type": "Point", "coordinates": [ 141.165604087171999, 39.538926834237898 ] } },
{ "type": "Feature", "properties": { "緯度": 39.5410239, "経度": 141.1710089, "url": "https://www.kaigokensaku.mhlw.go.jp/03/index.php?action_kouhyou_detail_004_kani=true&JigyosyoCd=362290033-00&ServiceCd=130&Type=search", "url2": "https://www.peaceheart.jp", "内容": "訪問看護ステーションピースハート【訪問看護】岩手県紫波郡紫波町桜町字三本木171番地", "サービスの種類": "訪問看護" }, "geometry": { "type": "Point", "coordinates": [ 141.1710089, 39.5410239 ] } },
{ "type": "Feature", "properties": { "緯度": 39.5797538, "経度": 141.1579271, "url": "https://www.kaigokensaku.mhlw.go.jp/03/index.php?action_kouhyou_detail_004_kani=true&JigyosyoCd=372200956-00&ServiceCd=130&Type=search", "url2": null, "内容": "訪問看護ステーション縁【訪問看護】岩手県紫波郡紫波町中島前郷39-55", "サービスの種類": "訪問看護" }, "geometry": { "type": "Point", "coordinates": [ 141.1579271, 39.5797538 ] } },
{ "type": "Feature", "properties": { "緯度": 39.6218092, "経度": 141.0867039, "url": "https://www.kaigokensaku.mhlw.go.jp/03/index.php?action_kouhyou_detail_004_kani=true&JigyosyoCd=362290058-00&ServiceCd=130&Type=search", "url2": null, "内容": "訪問看護ステーション南昌【訪問看護】岩手県紫波郡矢巾町大字広宮沢第１地割2番181医療法人社団帰厚　南昌病院", "サービスの種類": "訪問看護" }, "geometry": { "type": "Point", "coordinates": [ 141.0867039, 39.6218092 ] } },
{ "type": "Feature", "properties": { "緯度": 39.613464129282697, "経度": 141.146965201961, "url": "https://www.kaigokensaku.mhlw.go.jp/03/index.php?action_kouhyou_detail_004_kani=true&JigyosyoCd=362290009-00&ServiceCd=130&Type=search", "url2": "https://ccnansyou.com", "内容": "訪問看護ステーションやはば【訪問看護】岩手県紫波郡矢巾町大字又兵ェ新田第5地割335番地医療福祉多機能ビル　ケアセンター南昌", "サービスの種類": "訪問看護" }, "geometry": { "type": "Point", "coordinates": [ 141.146965201960995, 39.613464129282697 ] } },
{ "type": "Feature", "properties": { "緯度": 39.616091019805197, "経度": 141.165368735079, "url": "https://www.kaigokensaku.mhlw.go.jp/03/index.php?action_kouhyou_detail_004_kani=true&JigyosyoCd=362290025-00&ServiceCd=130&Type=search", "url2": "https://www.goodnurse-yuinote.com/", "内容": "訪問看護ステーション結いの手【訪問看護】岩手県紫波郡矢巾町医大通二丁目7番7号CocoテラスY2階", "サービスの種類": "訪問看護" }, "geometry": { "type": "Point", "coordinates": [ 141.165368735078999, 39.616091019805197 ] } },
{ "type": "Feature", "properties": { "緯度": 39.6297421, "経度": 141.1712004, "url": "https://www.kaigokensaku.mhlw.go.jp/03/index.php?action_kouhyou_detail_004_kani=true&JigyosyoCd=362290041-00&ServiceCd=130&Type=search", "url2": null, "内容": "訪問看護ステーションにぎ和い【訪問看護】岩手県紫波郡矢巾町大字高田第13地割224番地4住宅型有料老人ホームにぎ和い", "サービスの種類": "訪問看護" }, "geometry": { "type": "Point", "coordinates": [ 141.1712004, 39.6297421 ] } },
{ "type": "Feature", "properties": { "緯度": 39.3724417, "経度": 140.7614748, "url": "https://www.kaigokensaku.mhlw.go.jp/03/index.php?action_kouhyou_detail_004_kani=true&JigyosyoCd=312410475-00&ServiceCd=130&Type=search", "url2": "http://www.town.nishiwaga.lg.jp/", "内容": "町立西和賀さわうち病院【訪問看護】岩手県和賀郡西和賀町沢内字大野13-3-12", "サービスの種類": "訪問看護" }, "geometry": { "type": "Point", "coordinates": [ 140.7614748, 39.3724417 ] } },
{ "type": "Feature", "properties": { "緯度": 39.1957198, "経度": 141.1114164, "url": "https://www.kaigokensaku.mhlw.go.jp/03/index.php?action_kouhyou_detail_004_kani=true&JigyosyoCd=362590002-00&ServiceCd=130&Type=search", "url2": "http://www.town.kanegasaki.iwate.jp", "内容": "金ケ崎町訪問看護ステーション【訪問看護】岩手県胆沢郡金ケ崎町西根鑓水98", "サービスの種類": "訪問看護" }, "geometry": { "type": "Point", "coordinates": [ 141.1114164, 39.1957198 ] } },
{ "type": "Feature", "properties": { "緯度": 39.1994389, "経度": 141.1150019, "url": "https://www.kaigokensaku.mhlw.go.jp/03/index.php?action_kouhyou_detail_004_kani=true&JigyosyoCd=362590036-00&ServiceCd=130&Type=search", "url2": "https://hanakeian.jp", "内容": "花憩庵訪問看護ステーション【訪問看護】岩手県胆沢郡金ケ崎町西根谷来浦46番地1", "サービスの種類": "訪問看護" }, "geometry": { "type": "Point", "coordinates": [ 141.11500190000001, 39.1994389 ] } },
{ "type": "Feature", "properties": { "緯度": 39.1412078, "経度": 141.575552, "url": "https://www.kaigokensaku.mhlw.go.jp/03/index.php?action_kouhyou_detail_004_kani=true&JigyosyoCd=362890014-00&ServiceCd=130&Type=search", "url2": "https://sumichan.jp", "内容": "未来かなえ訪問看護ステーション「すみちゃん」【訪問看護】岩手県気仙郡住田町世田米字川向96-5住田町保健福祉センター内", "サービスの種類": "訪問看護" }, "geometry": { "type": "Point", "coordinates": [ 141.575552, 39.1412078 ] } },
{ "type": "Feature", "properties": { "緯度": 39.4602459, "経度": 141.9433566, "url": "https://www.kaigokensaku.mhlw.go.jp/03/index.php?action_kouhyou_detail_004_kani=true&JigyosyoCd=373000827-00&ServiceCd=130&Type=search", "url2": null, "内容": "あゆみ訪問看護ステーション山田【訪問看護】岩手県下閉伊郡山田町飯岡第６地割９番１", "サービスの種類": "訪問看護" }, "geometry": { "type": "Point", "coordinates": [ 141.943356599999987, 39.4602459 ] } },
{ "type": "Feature", "properties": { "緯度": 39.8476694, "経度": 141.795031, "url": "https://www.kaigokensaku.mhlw.go.jp/03/index.php?action_kouhyou_detail_004_kani=true&JigyosyoCd=313010225-00&ServiceCd=130&Type=search", "url2": "http://www1.ocn.ne.jp/~nadesiko/", "内容": "社会福祉法人恩賜財団岩手県済生会岩泉病院【訪問看護】岩手県下閉伊郡岩泉町岩泉字中家１９番地１", "サービスの種類": "訪問看護" }, "geometry": { "type": "Point", "coordinates": [ 141.795031, 39.8476694 ] } },
{ "type": "Feature", "properties": { "緯度": 39.9317251, "経度": 141.8941676, "url": "https://www.kaigokensaku.mhlw.go.jp/03/index.php?action_kouhyou_detail_004_kani=true&JigyosyoCd=313010217-00&ServiceCd=130&Type=search", "url2": null, "内容": "国保田野畑村診療所【訪問看護】岩手県下閉伊郡田野畑村田野畑120番地3", "サービスの種類": "訪問看護" }, "geometry": { "type": "Point", "coordinates": [ 141.8941676, 39.9317251 ] } },
{ "type": "Feature", "properties": { "緯度": 40.113796279971197, "経度": 141.818600679762, "url": "https://www.kaigokensaku.mhlw.go.jp/03/index.php?action_kouhyou_detail_004_kani=true&JigyosyoCd=363190018-00&ServiceCd=130&Type=search", "url2": null, "内容": "われもこう訪問看護ステーション【訪問看護】岩手県九戸郡野田村大字野田第28地割18番地4", "サービスの種類": "訪問看護" }, "geometry": { "type": "Point", "coordinates": [ 141.818600679762, 40.113796279971197 ] } },
{ "type": "Feature", "properties": { "緯度": 40.4096531, "経度": 141.7100018, "url": "https://www.kaigokensaku.mhlw.go.jp/03/index.php?action_kouhyou_detail_004_kani=true&JigyosyoCd=373100783-00&ServiceCd=130&Type=search", "url2": "https://www.asumi-kango.jp/index.html", "内容": "あすみ訪問看護ステーション【訪問看護】岩手県九戸郡洋野町種市第23地割65番地6水上アパート105号室", "サービスの種類": "訪問看護" }, "geometry": { "type": "Point", "coordinates": [ 141.710001799999986, 40.4096531 ] } },
{ "type": "Feature", "properties": { "緯度": 40.2075318, "経度": 141.3050366, "url": "https://www.kaigokensaku.mhlw.go.jp/03/index.php?action_kouhyou_detail_004_kani=true&JigyosyoCd=313210296-00&ServiceCd=130&Type=search", "url2": "http://www.ichinohe-hp.com/", "内容": "岩手県立一戸病院【訪問看護】岩手県二戸郡一戸町一戸字砂森60番地1", "サービスの種類": "訪問看護" }, "geometry": { "type": "Point", "coordinates": [ 141.3050366, 40.2075318 ] } }
]
}
