{
"type": "FeatureCollection",
"name": "geo_03_介護老人保健施設",
"crs": { "type": "name", "properties": { "name": "urn:ogc:def:crs:OGC:1.3:CRS84" } },
"features": [
{ "type": "Feature", "properties": { "緯度": 39.7261523, "経度": 141.113109, "url": "https://www.kaigokensaku.mhlw.go.jp/03/index.php?action_kouhyou_detail_004_kani=true&JigyosyoCd=350180014-00&ServiceCd=520&Type=search", "url2": "http://www.toyama-byouin.jp/jacility/altenheim-aoyama/", "内容": "介護老人保健施設アルテンハイム青山【介護老人保健施設】岩手県盛岡市青山二丁目12-33", "サービスの種類": "介護老人保健施設" }, "geometry": { "type": "Point", "coordinates": [ 141.113109, 39.7261523 ] } },
{ "type": "Feature", "properties": { "緯度": 39.6602381, "経度": 141.1479443000001, "url": "https://www.kaigokensaku.mhlw.go.jp/03/index.php?action_kouhyou_detail_004_kani=true&JigyosyoCd=350180089-00&ServiceCd=520&Type=search", "url2": "https://syouseikai.jp", "内容": "介護療養型老人保健施設圭友【介護老人保健施設】岩手県盛岡市津志田西２丁目１９番１号", "サービスの種類": "介護老人保健施設" }, "geometry": { "type": "Point", "coordinates": [ 141.147944300000091, 39.6602381 ] } },
{ "type": "Feature", "properties": { "緯度": 39.7051417, "経度": 141.1666186, "url": "https://www.kaigokensaku.mhlw.go.jp/03/index.php?action_kouhyou_detail_004_kani=true&JigyosyoCd=350180113-00&ServiceCd=520&Type=search", "url2": "http://www.sg-kumiai.or.jp/", "内容": "介護老人保健施設ヴィラ加賀野【介護老人保健施設】岩手県盛岡市加賀野三丁目１番６号", "サービスの種類": "介護老人保健施設" }, "geometry": { "type": "Point", "coordinates": [ 141.1666186, 39.7051417 ] } },
{ "type": "Feature", "properties": { "緯度": 39.7239607, "経度": 141.1099955, "url": "https://www.kaigokensaku.mhlw.go.jp/03/index.php?action_kouhyou_detail_004_kani=true&JigyosyoCd=350180105-00&ServiceCd=520&Type=search", "url2": "https://sg-seijukai.com/carecourt-morioka/", "内容": "介護老人保健施設ケアコートもりおか【介護老人保健施設】岩手県盛岡市青山1-25-25", "サービスの種類": "介護老人保健施設" }, "geometry": { "type": "Point", "coordinates": [ 141.1099955, 39.7239607 ] } },
{ "type": "Feature", "properties": { "緯度": 39.688451449279029, "経度": 141.1376433595245, "url": "https://www.kaigokensaku.mhlw.go.jp/03/index.php?action_kouhyou_detail_004_kani=true&JigyosyoCd=350180055-00&ServiceCd=520&Type=search", "url2": "https://www.kuonkai.com/ginyou/", "内容": "介護老人保健施設銀楊【介護老人保健施設】岩手県盛岡市本宮２－２０－１０", "サービスの種類": "介護老人保健施設" }, "geometry": { "type": "Point", "coordinates": [ 141.137643359524503, 39.688451449279029 ] } },
{ "type": "Feature", "properties": { "緯度": 39.6599046, "経度": 141.1388173, "url": "https://www.kaigokensaku.mhlw.go.jp/03/index.php?action_kouhyou_detail_004_kani=true&JigyosyoCd=350180006-00&ServiceCd=520&Type=search", "url2": "http://www.ja-iwatekouseiren.or.jp/", "内容": "介護老人保健施設ハートフルもりおか【介護老人保健施設】岩手県盛岡市永井１４地割１５番地１", "サービスの種類": "介護老人保健施設" }, "geometry": { "type": "Point", "coordinates": [ 141.1388173, 39.6599046 ] } },
{ "type": "Feature", "properties": { "緯度": 39.6582721, "経度": 141.1846077, "url": "https://www.kaigokensaku.mhlw.go.jp/03/index.php?action_kouhyou_detail_004_kani=true&JigyosyoCd=350180048-00&ServiceCd=520&Type=search", "url2": "http://www.i-korakuen.com/", "内容": "介護老人保健施設康楽苑【介護老人保健施設】岩手県盛岡市手代森9地割64番地2", "サービスの種類": "介護老人保健施設" }, "geometry": { "type": "Point", "coordinates": [ 141.184607699999987, 39.6582721 ] } },
{ "type": "Feature", "properties": { "緯度": 39.6904567, "経度": 141.1408382, "url": "https://www.kaigokensaku.mhlw.go.jp/03/index.php?action_kouhyou_detail_004_kani=true&JigyosyoCd=350180022-00&ServiceCd=520&Type=search", "url2": "http://www.oginohospital.jp", "内容": "介護老人保健施設イーハトーブ【介護老人保健施設】岩手県盛岡市本宮一丁目6番12号", "サービスの種類": "介護老人保健施設" }, "geometry": { "type": "Point", "coordinates": [ 141.1408382, 39.6904567 ] } },
{ "type": "Feature", "properties": { "緯度": 39.8752669, "経度": 141.1663387, "url": "https://www.kaigokensaku.mhlw.go.jp/03/index.php?action_kouhyou_detail_004_kani=true&JigyosyoCd=352180012-00&ServiceCd=520&Type=search", "url2": "http://www.nisshindo-g.com/", "内容": "介護老人保健施設ケアホームやすみ【介護老人保健施設】岩手県盛岡市好摩字夏間木70－190", "サービスの種類": "介護老人保健施設" }, "geometry": { "type": "Point", "coordinates": [ 141.166338700000011, 39.8752669 ] } },
{ "type": "Feature", "properties": { "緯度": 39.6683752, "経度": 141.9575283, "url": "https://www.kaigokensaku.mhlw.go.jp/03/index.php?action_kouhyou_detail_004_kani=true&JigyosyoCd=370200560-00&ServiceCd=520&Type=search", "url2": "http://www.hohoeminosato.jp/", "内容": "介護老人保健施設ほほえみの里【介護老人保健施設】岩手県宮古市崎鍬ヶ崎第９地割３９番地２７", "サービスの種類": "介護老人保健施設" }, "geometry": { "type": "Point", "coordinates": [ 141.9575283, 39.6683752 ] } },
{ "type": "Feature", "properties": { "緯度": 39.6576202, "経度": 141.930778, "url": "https://www.kaigokensaku.mhlw.go.jp/03/index.php?action_kouhyou_detail_004_kani=true&JigyosyoCd=350280012-00&ServiceCd=520&Type=search", "url2": "https://www.shinwa-kai.jp", "内容": "宮古介護老人保健施設桜ヶ丘【介護老人保健施設】岩手県宮古市山口五丁目5番10号", "サービスの種類": "介護老人保健施設" }, "geometry": { "type": "Point", "coordinates": [ 141.930778, 39.6576202 ] } },
{ "type": "Feature", "properties": { "緯度": 39.0710219, "経度": 141.7100664, "url": "https://www.kaigokensaku.mhlw.go.jp/03/index.php?action_kouhyou_detail_004_kani=true&JigyosyoCd=350380010-00&ServiceCd=520&Type=search", "url2": "http://www.shokyukai.or.jp", "内容": "介護老人保健施設気仙苑【介護老人保健施設】岩手県大船渡市大船渡町字山馬越188番地", "サービスの種類": "介護老人保健施設" }, "geometry": { "type": "Point", "coordinates": [ 141.710066399999988, 39.0710219 ] } },
{ "type": "Feature", "properties": { "緯度": 39.4192447, "経度": 141.0122322, "url": "https://www.kaigokensaku.mhlw.go.jp/03/index.php?action_kouhyou_detail_004_kani=true&JigyosyoCd=370501009-00&ServiceCd=520&Type=search", "url2": null, "内容": "イーハトーブ介護リハビリセンター【介護老人保健施設】岩手県花巻市湯口字志戸平１４番１号", "サービスの種類": "介護老人保健施設" }, "geometry": { "type": "Point", "coordinates": [ 141.0122322, 39.4192447 ] } },
{ "type": "Feature", "properties": { "緯度": 39.4082178, "経度": 141.1230353, "url": "https://www.kaigokensaku.mhlw.go.jp/03/index.php?action_kouhyou_detail_004_kani=true&JigyosyoCd=350580015-00&ServiceCd=520&Type=search", "url2": "http://www.hogaraka.gr.jp", "内容": "介護老人保健施設サンホーム【介護老人保健施設】岩手県花巻市東宮野目１３－９５－１", "サービスの種類": "介護老人保健施設" }, "geometry": { "type": "Point", "coordinates": [ 141.1230353, 39.4082178 ] } },
{ "type": "Feature", "properties": { "緯度": 39.4101981, "経度": 141.120105, "url": "https://www.kaigokensaku.mhlw.go.jp/03/index.php?action_kouhyou_detail_004_kani=true&JigyosyoCd=350580023-00&ServiceCd=520&Type=search", "url2": "http://hogaraka.gr.jp/sunshine/", "内容": "介護老人保健施設サンシャイン【介護老人保健施設】岩手県花巻市本館189", "サービスの種類": "介護老人保健施設" }, "geometry": { "type": "Point", "coordinates": [ 141.120105, 39.4101981 ] } },
{ "type": "Feature", "properties": { "緯度": 39.4749144, "経度": 141.0956698, "url": "https://www.kaigokensaku.mhlw.go.jp/03/index.php?action_kouhyou_detail_004_kani=true&JigyosyoCd=352380000-00&ServiceCd=520&Type=search", "url2": null, "内容": "介護老人保健施設ゆうゆうの里【介護老人保健施設】岩手県花巻市石鳥谷町松林寺第3地割82番地1", "サービスの種類": "介護老人保健施設" }, "geometry": { "type": "Point", "coordinates": [ 141.0956698, 39.4749144 ] } },
{ "type": "Feature", "properties": { "緯度": 39.4692866, "経度": 141.2870475, "url": "https://www.kaigokensaku.mhlw.go.jp/03/index.php?action_kouhyou_detail_004_kani=true&JigyosyoCd=352380018-00&ServiceCd=520&Type=search", "url2": "https://www.hayachinenosato.jp/", "内容": "介護老人保健施設はやちねの里【介護老人保健施設】岩手県花巻市大迫町大迫４－１９－１", "サービスの種類": "介護老人保健施設" }, "geometry": { "type": "Point", "coordinates": [ 141.2870475, 39.4692866 ] } },
{ "type": "Feature", "properties": { "緯度": 39.3844338, "経度": 141.2242418, "url": "https://www.kaigokensaku.mhlw.go.jp/03/index.php?action_kouhyou_detail_004_kani=true&JigyosyoCd=352480008-00&ServiceCd=520&Type=search", "url2": null, "内容": "花巻市老人保健施設華の苑【介護老人保健施設】岩手県花巻市東和町安俵6区75番地１", "サービスの種類": "介護老人保健施設" }, "geometry": { "type": "Point", "coordinates": [ 141.224241799999987, 39.3844338 ] } },
{ "type": "Feature", "properties": { "緯度": 39.293511001829827, "経度": 141.0893779885896, "url": "https://www.kaigokensaku.mhlw.go.jp/03/index.php?action_kouhyou_detail_004_kani=true&JigyosyoCd=350690010-00&ServiceCd=520&Type=search", "url2": "http://www.keiwakai.info/", "内容": "介護老人保健施設たいわ【介護老人保健施設】岩手県北上市北鬼柳20-20", "サービスの種類": "介護老人保健施設" }, "geometry": { "type": "Point", "coordinates": [ 141.089377988589604, 39.293511001829827 ] } },
{ "type": "Feature", "properties": { "緯度": 39.299589, "経度": 141.0282277, "url": "https://www.kaigokensaku.mhlw.go.jp/03/index.php?action_kouhyou_detail_004_kani=true&JigyosyoCd=350680039-00&ServiceCd=520&Type=search", "url2": "http://www.keiwakai.info/", "内容": "介護老人保健施設まつみ【介護老人保健施設】岩手県北上市和賀町長沼5-350-1", "サービスの種類": "介護老人保健施設" }, "geometry": { "type": "Point", "coordinates": [ 141.0282277, 39.299589 ] } },
{ "type": "Feature", "properties": { "緯度": 39.2894554, "経度": 141.0005083, "url": "https://www.kaigokensaku.mhlw.go.jp/03/index.php?action_kouhyou_detail_004_kani=true&JigyosyoCd=370601007-00&ServiceCd=520&Type=search", "url2": "http://www.keiwakai.info/", "内容": "介護老人保健施設みさと【介護老人保健施設】岩手県北上市和賀町煤孫10-14-1", "サービスの種類": "介護老人保健施設" }, "geometry": { "type": "Point", "coordinates": [ 141.0005083, 39.2894554 ] } },
{ "type": "Feature", "properties": { "緯度": 39.2818912, "経度": 141.1215041, "url": "https://www.kaigokensaku.mhlw.go.jp/03/index.php?action_kouhyou_detail_004_kani=true&JigyosyoCd=350680047-00&ServiceCd=520&Type=search", "url2": "http://www.rihabili-park.com/sisetu/kitakami/top.htm/", "内容": "介護老人保健施設リハビリパーク北上【介護老人保健施設】岩手県北上市大通り一丁目1番22号", "サービスの種類": "介護老人保健施設" }, "geometry": { "type": "Point", "coordinates": [ 141.12150410000001, 39.2818912 ] } },
{ "type": "Feature", "properties": { "緯度": 40.165674994563183, "経度": 141.74527399629511, "url": "https://www.kaigokensaku.mhlw.go.jp/03/index.php?action_kouhyou_detail_004_kani=true&JigyosyoCd=350780011-00&ServiceCd=520&Type=search", "url2": "https://www.keyakinosato.jp/", "内容": "介護老人保健施設欅の里【介護老人保健施設】岩手県久慈市小久慈町１６－１２－１", "サービスの種類": "介護老人保健施設" }, "geometry": { "type": "Point", "coordinates": [ 141.745273996295111, 40.165674994563183 ] } },
{ "type": "Feature", "properties": { "緯度": 40.2003286, "経度": 141.7746293, "url": "https://www.kaigokensaku.mhlw.go.jp/03/index.php?action_kouhyou_detail_004_kani=true&JigyosyoCd=350780003-00&ServiceCd=520&Type=search", "url2": "http://rehabilitown-kuji.jimdofree.com", "内容": "介護老人保健施設リハビリタウンくじ【介護老人保健施設】岩手県久慈市旭町第8地割100番地2", "サービスの種類": "介護老人保健施設" }, "geometry": { "type": "Point", "coordinates": [ 141.774629299999987, 40.200328600000013 ] } },
{ "type": "Feature", "properties": { "緯度": 40.200301271064667, "経度": 141.77466899666069, "url": "https://www.kaigokensaku.mhlw.go.jp/03/index.php?action_kouhyou_detail_004_kani=true&JigyosyoCd=350780029-00&ServiceCd=520&Type=search", "url2": "http://rehabilitown-kuji.jimdofree.com", "内容": "介護老人保健施設リハビリタウンくじユニット館【介護老人保健施設】岩手県久慈市旭町第8地割100番地2", "サービスの種類": "介護老人保健施設" }, "geometry": { "type": "Point", "coordinates": [ 141.774668996660694, 40.200301271064667 ] } },
{ "type": "Feature", "properties": { "緯度": 39.3437294, "経度": 141.5410386, "url": "https://www.kaigokensaku.mhlw.go.jp/03/index.php?action_kouhyou_detail_004_kani=true&JigyosyoCd=350880019-00&ServiceCd=520&Type=search", "url2": null, "内容": "介護老人保健施設とおの【介護老人保健施設】岩手県遠野市松崎町白岩１３－３０－２", "サービスの種類": "介護老人保健施設" }, "geometry": { "type": "Point", "coordinates": [ 141.5410386, 39.3437294 ] } },
{ "type": "Feature", "properties": { "緯度": 39.3805009, "経度": 141.3467115, "url": "https://www.kaigokensaku.mhlw.go.jp/03/index.php?action_kouhyou_detail_004_kani=true&JigyosyoCd=352980015-00&ServiceCd=520&Type=search", "url2": "http://www.yamayurinosato.jp", "内容": "介護老人保健施設やまゆりの里【介護老人保健施設】岩手県遠野市宮守町達曽部27地割20番地11", "サービスの種類": "介護老人保健施設" }, "geometry": { "type": "Point", "coordinates": [ 141.3467115, 39.3805009 ] } },
{ "type": "Feature", "properties": { "緯度": 39.0209708, "経度": 141.3388964000001, "url": "https://www.kaigokensaku.mhlw.go.jp/03/index.php?action_kouhyou_detail_004_kani=true&JigyosyoCd=352780035-00&ServiceCd=520&Type=search", "url2": null, "内容": "介護老人保健施設ほうらい【介護老人保健施設】岩手県一関市大東町渋民字大洞地５５－１", "サービスの種類": "介護老人保健施設" }, "geometry": { "type": "Point", "coordinates": [ 141.338896400000095, 39.0209708 ] } },
{ "type": "Feature", "properties": { "緯度": 38.9230737, "経度": 141.33941159999989, "url": "https://www.kaigokensaku.mhlw.go.jp/03/index.php?action_kouhyou_detail_004_kani=true&JigyosyoCd=372700658-00&ServiceCd=520&Type=search", "url2": "http://i3syukai.com", "内容": "介護老人保健施設やまゆり【介護老人保健施設】岩手県一関市千厩町千厩字宮敷４５番地１", "サービスの種類": "介護老人保健施設" }, "geometry": { "type": "Point", "coordinates": [ 141.339411599999892, 38.9230737 ] } },
{ "type": "Feature", "properties": { "緯度": 38.8586455, "経度": 141.3499169, "url": "https://www.kaigokensaku.mhlw.go.jp/03/index.php?action_kouhyou_detail_004_kani=true&JigyosyoCd=350980033-00&ServiceCd=520&Type=search", "url2": null, "内容": "老健ふじさわ【介護老人保健施設】岩手県一関市藤沢町藤沢字町裏５２番地２", "サービスの種類": "介護老人保健施設" }, "geometry": { "type": "Point", "coordinates": [ 141.349916900000011, 38.8586455 ] } },
{ "type": "Feature", "properties": { "緯度": 38.8812192, "経度": 141.1383177, "url": "https://www.kaigokensaku.mhlw.go.jp/03/index.php?action_kouhyou_detail_004_kani=true&JigyosyoCd=350980017-00&ServiceCd=520&Type=search", "url2": "http://jinaikai-nursing.sakura.ne.jp", "内容": "介護老人保健施設一関ナーシングホーム【介護老人保健施設】岩手県一関市真柴字吉ケ沢20番地52", "サービスの種類": "介護老人保健施設" }, "geometry": { "type": "Point", "coordinates": [ 141.138317699999988, 38.8812192 ] } },
{ "type": "Feature", "properties": { "緯度": 38.9022282, "経度": 141.1517103, "url": "https://www.kaigokensaku.mhlw.go.jp/03/index.php?action_kouhyou_detail_004_kani=true&JigyosyoCd=350980025-00&ServiceCd=520&Type=search", "url2": null, "内容": "介護老人保健施設シルバーヘルス一関【介護老人保健施設】岩手県一関市字沢298番地2", "サービスの種類": "介護老人保健施設" }, "geometry": { "type": "Point", "coordinates": [ 141.1517103, 38.902228200000017 ] } },
{ "type": "Feature", "properties": { "緯度": 38.800511, "経度": 141.1909968, "url": "https://www.kaigokensaku.mhlw.go.jp/03/index.php?action_kouhyou_detail_004_kani=true&JigyosyoCd=352680011-00&ServiceCd=520&Type=search", "url2": null, "内容": "介護老人保健施設華松苑【介護老人保健施設】岩手県一関市花泉町涌津字悪法師３８－３１", "サービスの種類": "介護老人保健施設" }, "geometry": { "type": "Point", "coordinates": [ 141.1909968, 38.800511 ] } },
{ "type": "Feature", "properties": { "緯度": 38.9615806, "経度": 141.2493684, "url": "https://www.kaigokensaku.mhlw.go.jp/03/index.php?action_kouhyou_detail_004_kani=true&JigyosyoCd=350910518-00&ServiceCd=520&Type=search", "url2": null, "内容": "介護老人保健施設さいき【介護老人保健施設】岩手県一関市東山町松川字卯入道１２１", "サービスの種類": "介護老人保健施設" }, "geometry": { "type": "Point", "coordinates": [ 141.2493684, 38.961580600000019 ] } },
{ "type": "Feature", "properties": { "緯度": 39.0147213, "経度": 141.6487595, "url": "https://www.kaigokensaku.mhlw.go.jp/03/index.php?action_kouhyou_detail_004_kani=true&JigyosyoCd=351080007-00&ServiceCd=520&Type=search", "url2": "http://www.shokyukai.or.jp/", "内容": "介護老人保健施設松原苑【介護老人保健施設】岩手県陸前高田市高田町字中田69-2", "サービスの種類": "介護老人保健施設" }, "geometry": { "type": "Point", "coordinates": [ 141.648759500000011, 39.0147213 ] } },
{ "type": "Feature", "properties": { "緯度": 39.2621334, "経度": 141.8378711, "url": "https://www.kaigokensaku.mhlw.go.jp/03/index.php?action_kouhyou_detail_004_kani=true&JigyosyoCd=351180021-00&ServiceCd=520&Type=search", "url2": "http://www.rakuzankai.jp/", "内容": "介護老人保健施設フレールはまゆり【介護老人保健施設】岩手県釜石市小佐野町３丁目９番１号", "サービスの種類": "介護老人保健施設" }, "geometry": { "type": "Point", "coordinates": [ 141.8378711, 39.2621334 ] } },
{ "type": "Feature", "properties": { "緯度": 39.2617334, "経度": 141.8358435, "url": "https://www.kaigokensaku.mhlw.go.jp/03/index.php?action_kouhyou_detail_004_kani=true&JigyosyoCd=351180013-00&ServiceCd=520&Type=search", "url2": "http://www.rakuzankai.jp/", "内容": "介護老人保健施設はまゆりケアセンター【介護老人保健施設】岩手県釜石市小佐野町4丁目3-7", "サービスの種類": "介護老人保健施設" }, "geometry": { "type": "Point", "coordinates": [ 141.83584350000001, 39.2617334 ] } },
{ "type": "Feature", "properties": { "緯度": 40.3205541, "経度": 141.320321, "url": "https://www.kaigokensaku.mhlw.go.jp/03/index.php?action_kouhyou_detail_004_kani=true&JigyosyoCd=351380019-00&ServiceCd=520&Type=search", "url2": "http://www.reitakukai.net/", "内容": "湯の里にのへ【介護老人保健施設】岩手県二戸市金田一字湯田24番地", "サービスの種類": "介護老人保健施設" }, "geometry": { "type": "Point", "coordinates": [ 141.320321, 40.3205541 ] } },
{ "type": "Feature", "properties": { "緯度": 40.1136471, "経度": 141.058045, "url": "https://www.kaigokensaku.mhlw.go.jp/03/index.php?action_kouhyou_detail_004_kani=true&JigyosyoCd=353280001-00&ServiceCd=520&Type=search", "url2": "http://www.syouseikai.jp/", "内容": "介護老人保健施設あしろ苑【介護老人保健施設】岩手県八幡平市川原１２９番", "サービスの種類": "介護老人保健施設" }, "geometry": { "type": "Point", "coordinates": [ 141.058045, 40.1136471 ] } },
{ "type": "Feature", "properties": { "緯度": 39.8981091, "経度": 141.0926427, "url": "https://www.kaigokensaku.mhlw.go.jp/03/index.php?action_kouhyou_detail_004_kani=true&JigyosyoCd=352180079-00&ServiceCd=520&Type=search", "url2": null, "内容": "介護老人保健施設岩鷲苑【介護老人保健施設】岩手県八幡平市大更18地割88番地102", "サービスの種類": "介護老人保健施設" }, "geometry": { "type": "Point", "coordinates": [ 141.092642699999914, 39.8981091 ] } },
{ "type": "Feature", "properties": { "緯度": 39.915405493445718, "経度": 140.9819435232788, "url": "https://www.kaigokensaku.mhlw.go.jp/03/index.php?action_kouhyou_detail_004_kani=true&JigyosyoCd=351480017-00&ServiceCd=520&Type=search", "url2": "http://www.mairin.jp/", "内容": "介護老人保健施設希望（のぞみ）【介護老人保健施設】岩手県八幡平市柏台二丁目８番３号", "サービスの種類": "介護老人保健施設" }, "geometry": { "type": "Point", "coordinates": [ 140.981943523278801, 39.915405493445718 ] } },
{ "type": "Feature", "properties": { "緯度": 39.1813143, "経度": 141.1820638, "url": "https://www.kaigokensaku.mhlw.go.jp/03/index.php?action_kouhyou_detail_004_kani=true&JigyosyoCd=351280003-00&ServiceCd=520&Type=search", "url2": "https://sg-seijukai.com/sunlife-esashi/", "内容": "介護老人保健施設サンライフえさし【介護老人保健施設】岩手県奥州市江刺岩谷堂字下惣田２９０番地の３", "サービスの種類": "介護老人保健施設" }, "geometry": { "type": "Point", "coordinates": [ 141.1820638, 39.1813143 ] } },
{ "type": "Feature", "properties": { "緯度": 39.14357305881132, "経度": 141.14866271360009, "url": "https://www.kaigokensaku.mhlw.go.jp/03/index.php?action_kouhyou_detail_004_kani=true&JigyosyoCd=350410329-00&ServiceCd=520&Type=search", "url2": "http://www.rnac.ne.jp/~otomegawahp/", "内容": "水沢老人保健施設興生園【介護老人保健施設】岩手県奥州市水沢佐倉河字慶徳27番地１", "サービスの種類": "介護老人保健施設" }, "geometry": { "type": "Point", "coordinates": [ 141.148662713600089, 39.14357305881132 ] } },
{ "type": "Feature", "properties": { "緯度": 39.1291379, "経度": 141.2112656, "url": "https://www.kaigokensaku.mhlw.go.jp/03/index.php?action_kouhyou_detail_004_kani=true&JigyosyoCd=350480034-00&ServiceCd=520&Type=search", "url2": "http://www.kihp.jp/", "内容": "老人保健施設ハイム・ベルク【介護老人保健施設】岩手県奥州市水沢羽田町字水無沢４９６番地", "サービスの種類": "介護老人保健施設" }, "geometry": { "type": "Point", "coordinates": [ 141.211265599999905, 39.129137900000011 ] } },
{ "type": "Feature", "properties": { "緯度": 39.0707166, "経度": 141.1272054, "url": "https://www.kaigokensaku.mhlw.go.jp/03/index.php?action_kouhyou_detail_004_kani=true&JigyosyoCd=352580005-00&ServiceCd=520&Type=search", "url2": null, "内容": "老人保健施設ハイム・アザレア【介護老人保健施設】岩手県奥州市前沢古城字丑沢上野１００番地", "サービスの種類": "介護老人保健施設" }, "geometry": { "type": "Point", "coordinates": [ 141.1272054, 39.070716599999983 ] } },
{ "type": "Feature", "properties": { "緯度": 39.1398322, "経度": 141.1480793000001, "url": "https://www.kaigokensaku.mhlw.go.jp/03/index.php?action_kouhyou_detail_004_kani=true&JigyosyoCd=350480018-00&ServiceCd=520&Type=search", "url2": "https://www.seiwakai-med.or.jp", "内容": "介護老人保健施設清和苑【介護老人保健施設】岩手県奥州市水沢東大通り1丁目5番30号", "サービスの種類": "介護老人保健施設" }, "geometry": { "type": "Point", "coordinates": [ 141.148079300000092, 39.1398322 ] } },
{ "type": "Feature", "properties": { "緯度": 39.7370505, "経度": 141.0878915000001, "url": "https://www.kaigokensaku.mhlw.go.jp/03/index.php?action_kouhyou_detail_004_kani=true&JigyosyoCd=352180020-00&ServiceCd=520&Type=search", "url2": "http://syouseikai.jp", "内容": "介護老人保健施設ホスピー滝沢【介護老人保健施設】岩手県滝沢市鵜飼狐洞1番地139", "サービスの種類": "介護老人保健施設" }, "geometry": { "type": "Point", "coordinates": [ 141.087891500000097, 39.7370505 ] } },
{ "type": "Feature", "properties": { "緯度": 39.733376, "経度": 141.0909747000001, "url": "https://www.kaigokensaku.mhlw.go.jp/03/index.php?action_kouhyou_detail_004_kani=true&JigyosyoCd=371600164-00&ServiceCd=520&Type=search", "url2": null, "内容": "医療法人社団松誠会介護老人保健施設たきざわ【介護老人保健施設】岩手県滝沢市鵜飼笹森42番地2", "サービスの種類": "介護老人保健施設" }, "geometry": { "type": "Point", "coordinates": [ 141.090974700000089, 39.733376 ] } },
{ "type": "Feature", "properties": { "緯度": 39.7481465, "経度": 141.0917992, "url": "https://www.kaigokensaku.mhlw.go.jp/03/index.php?action_kouhyou_detail_004_kani=true&JigyosyoCd=352180038-00&ServiceCd=520&Type=search", "url2": "https://care-net.biz/03/karumona/", "内容": "介護老人保健施設カルモナ【介護老人保健施設】岩手県滝沢市高屋敷平11-39", "サービスの種類": "介護老人保健施設" }, "geometry": { "type": "Point", "coordinates": [ 141.0917992, 39.7481465 ] } },
{ "type": "Feature", "properties": { "緯度": 39.7018823, "経度": 141.0196367, "url": "https://www.kaigokensaku.mhlw.go.jp/03/index.php?action_kouhyou_detail_004_kani=true&JigyosyoCd=352180046-00&ServiceCd=520&Type=search", "url2": null, "内容": "介護老人保健施設はーとぽーと雫石【介護老人保健施設】岩手県岩手郡雫石町板橋3-7", "サービスの種類": "介護老人保健施設" }, "geometry": { "type": "Point", "coordinates": [ 141.0196367, 39.7018823 ] } },
{ "type": "Feature", "properties": { "緯度": 39.7018823, "経度": 141.0196367, "url": "https://www.kaigokensaku.mhlw.go.jp/03/index.php?action_kouhyou_detail_004_kani=true&JigyosyoCd=372101907-00&ServiceCd=520&Type=search", "url2": null, "内容": "介護老人保健施設はーとぽーと雫石２号館【介護老人保健施設】岩手県岩手郡雫石町板橋３－７", "サービスの種類": "介護老人保健施設" }, "geometry": { "type": "Point", "coordinates": [ 141.0196367, 39.7018823 ] } },
{ "type": "Feature", "properties": { "緯度": 39.6481616, "経度": 140.950902, "url": "https://www.kaigokensaku.mhlw.go.jp/03/index.php?action_kouhyou_detail_004_kani=true&JigyosyoCd=352180087-00&ServiceCd=520&Type=search", "url2": "http://www.ohshuku.or.jp", "内容": "介護老人保健施設おうしゅく【介護老人保健施設】岩手県岩手郡雫石町南畑第32地割字南桝沢265番地", "サービスの種類": "介護老人保健施設" }, "geometry": { "type": "Point", "coordinates": [ 140.950902, 39.6481616 ] } },
{ "type": "Feature", "properties": { "緯度": 40.0336446, "経度": 141.4614945, "url": "https://www.kaigokensaku.mhlw.go.jp/03/index.php?action_kouhyou_detail_004_kani=true&JigyosyoCd=352180004-00&ServiceCd=520&Type=search", "url2": "http://www.athome-kuzumaki.or.jp", "内容": "介護老人保健施設アットホームくずまき【介護老人保健施設】岩手県岩手郡葛巻町江刈5-155-7", "サービスの種類": "介護老人保健施設" }, "geometry": { "type": "Point", "coordinates": [ 141.461494499999986, 40.0336446 ] } },
{ "type": "Feature", "properties": { "緯度": 39.9135773, "経度": 141.2035142, "url": "https://www.kaigokensaku.mhlw.go.jp/03/index.php?action_kouhyou_detail_004_kani=true&JigyosyoCd=352180061-00&ServiceCd=520&Type=search", "url2": "http://nisshindo-g.com/", "内容": "介護老人保健施設ケアホーム川口【介護老人保健施設】岩手県岩手郡岩手町大字川口第13地割26番地6", "サービスの種類": "介護老人保健施設" }, "geometry": { "type": "Point", "coordinates": [ 141.2035142, 39.9135773 ] } },
{ "type": "Feature", "properties": { "緯度": 39.6220545, "経度": 141.0868604, "url": "https://www.kaigokensaku.mhlw.go.jp/03/index.php?action_kouhyou_detail_004_kani=true&JigyosyoCd=352280010-00&ServiceCd=520&Type=search", "url2": "https://kikodo.or.jp", "内容": "介護老人保健施設敬愛荘【介護老人保健施設】岩手県紫波郡矢巾町大字広宮沢第1地割2番181", "サービスの種類": "介護老人保健施設" }, "geometry": { "type": "Point", "coordinates": [ 141.0868604, 39.6220545 ] } },
{ "type": "Feature", "properties": { "緯度": 39.6133917, "経度": 141.1469786, "url": "https://www.kaigokensaku.mhlw.go.jp/03/index.php?action_kouhyou_detail_004_kani=true&JigyosyoCd=372200816-00&ServiceCd=520&Type=search", "url2": "http://www.ccnansyou.com/", "内容": "介護老人保健施設博愛荘【介護老人保健施設】岩手県紫波郡矢巾町又兵エ新田第５地割３３５番地医療福祉多機能ビル　ケアセンター南昌", "サービスの種類": "介護老人保健施設" }, "geometry": { "type": "Point", "coordinates": [ 141.146978600000011, 39.613391699999987 ] } },
{ "type": "Feature", "properties": { "緯度": 39.5831119, "経度": 141.1721423, "url": "https://www.kaigokensaku.mhlw.go.jp/03/index.php?action_kouhyou_detail_004_kani=true&JigyosyoCd=372201004-00&ServiceCd=520&Type=search", "url2": "http://www.s-souseikai.jp", "内容": "介護老人保健施設シェーンハイムやはば【介護老人保健施設】岩手県紫波郡矢巾町土橋第11地割35-1", "サービスの種類": "介護老人保健施設" }, "geometry": { "type": "Point", "coordinates": [ 141.1721423, 39.5831119 ] } },
{ "type": "Feature", "properties": { "緯度": 39.3591657, "経度": 140.7627611, "url": "https://www.kaigokensaku.mhlw.go.jp/03/index.php?action_kouhyou_detail_004_kani=true&JigyosyoCd=352410040-00&ServiceCd=520&Type=search", "url2": "https://www.kouseikai2.jp/", "内容": "介護老人保健施設清水苑【介護老人保健施設】岩手県和賀郡西和賀町清水ヶ野18地割167番地1", "サービスの種類": "介護老人保健施設" }, "geometry": { "type": "Point", "coordinates": [ 140.7627611, 39.359165700000013 ] } },
{ "type": "Feature", "properties": { "緯度": 39.1947671, "経度": 141.1111637, "url": "https://www.kaigokensaku.mhlw.go.jp/03/index.php?action_kouhyou_detail_004_kani=true&JigyosyoCd=352580013-00&ServiceCd=520&Type=search", "url2": "https://kairouen.jp/", "内容": "介護老人保健施設快老苑金ヶ崎【介護老人保健施設】岩手県胆沢郡金ヶ崎町西根鑓水１０３－１", "サービスの種類": "介護老人保健施設" }, "geometry": { "type": "Point", "coordinates": [ 141.1111637, 39.1947671 ] } },
{ "type": "Feature", "properties": { "緯度": 38.9960844, "経度": 141.1452967, "url": "https://www.kaigokensaku.mhlw.go.jp/03/index.php?action_kouhyou_detail_004_kani=true&JigyosyoCd=352680003-00&ServiceCd=520&Type=search", "url2": "https://i3syukai.com", "内容": "介護老人保健施設さわなり苑【介護老人保健施設】岩手県西磐井郡平泉町長島字砂子沢６番１", "サービスの種類": "介護老人保健施設" }, "geometry": { "type": "Point", "coordinates": [ 141.145296699999989, 38.9960844 ] } },
{ "type": "Feature", "properties": { "緯度": 39.379437424477601, "経度": 141.84522527769539, "url": "https://www.kaigokensaku.mhlw.go.jp/03/index.php?action_kouhyou_detail_004_kani=true&JigyosyoCd=352980007-00&ServiceCd=520&Type=search", "url2": "http://careplazaotsuchi.webnode.jp", "内容": "介護老人保健施設ケアプラザおおつち【介護老人保健施設】岩手県上閉伊郡大槌町小鎚第14地割字蕨打直82番1", "サービスの種類": "介護老人保健施設" }, "geometry": { "type": "Point", "coordinates": [ 141.845225277695391, 39.379437424477601 ] } },
{ "type": "Feature", "properties": { "緯度": 39.466417334513032, "経度": 141.94594262687531, "url": "https://www.kaigokensaku.mhlw.go.jp/03/index.php?action_kouhyou_detail_004_kani=true&JigyosyoCd=373000934-00&ServiceCd=520&Type=search", "url2": null, "内容": "介護老人保健施設さくら山【介護老人保健施設】岩手県下閉伊郡山田町飯岡9-23-1", "サービスの種類": "介護老人保健施設" }, "geometry": { "type": "Point", "coordinates": [ 141.945942626875308, 39.466417334513032 ] } },
{ "type": "Feature", "properties": { "緯度": 39.8400444, "経度": 141.8588924000001, "url": "https://www.kaigokensaku.mhlw.go.jp/03/index.php?action_kouhyou_detail_004_kani=true&JigyosyoCd=353080026-00&ServiceCd=520&Type=search", "url2": "https://www.f-iwaizumi.com/", "内容": "介護老人保健施設ふれんどりー岩泉【介護老人保健施設】岩手県下閉伊郡岩泉町乙茂字上９番地１２", "サービスの種類": "介護老人保健施設" }, "geometry": { "type": "Point", "coordinates": [ 141.858892400000087, 39.8400444 ] } },
{ "type": "Feature", "properties": { "緯度": 40.3150302, "経度": 141.4581194, "url": "https://www.kaigokensaku.mhlw.go.jp/03/index.php?action_kouhyou_detail_004_kani=true&JigyosyoCd=353180011-00&ServiceCd=520&Type=search", "url2": "http://www.reitakukai.net/", "内容": "介護老人保健施設花の里かるまい【介護老人保健施設】岩手県九戸郡軽米町大字軽米第6地割89番地1", "サービスの種類": "介護老人保健施設" }, "geometry": { "type": "Point", "coordinates": [ 141.458119399999987, 40.3150302 ] } },
{ "type": "Feature", "properties": { "緯度": 40.410544957413208, "経度": 141.7188739790985, "url": "https://www.kaigokensaku.mhlw.go.jp/03/index.php?action_kouhyou_detail_004_kani=true&JigyosyoCd=353180029-00&ServiceCd=520&Type=search", "url2": null, "内容": "介護療養型老人保健施設たねいち【介護老人保健施設】岩手県九戸郡洋野町種市第23地割27番地2", "サービスの種類": "介護老人保健施設" }, "geometry": { "type": "Point", "coordinates": [ 141.718873979098504, 40.410544957413208 ] } },
{ "type": "Feature", "properties": { "緯度": 40.3065066, "経度": 141.7818264, "url": "https://www.kaigokensaku.mhlw.go.jp/03/index.php?action_kouhyou_detail_004_kani=true&JigyosyoCd=353180003-00&ServiceCd=520&Type=search", "url2": null, "内容": "介護老人保健施設ユートピア白滝【介護老人保健施設】岩手県九戸郡洋野町中野第３地割３８－１８２", "サービスの種類": "介護老人保健施設" }, "geometry": { "type": "Point", "coordinates": [ 141.7818264, 40.3065066 ] } },
{ "type": "Feature", "properties": { "緯度": 40.1813898, "経度": 141.3050573, "url": "https://www.kaigokensaku.mhlw.go.jp/03/index.php?action_kouhyou_detail_004_kani=true&JigyosyoCd=353280019-00&ServiceCd=520&Type=search", "url2": "https://kozuya-sunburg.jp/", "内容": "介護老人保健施設こずやサンブルク【介護老人保健施設】岩手県二戸郡一戸町小鳥谷字野中２１", "サービスの種類": "介護老人保健施設" }, "geometry": { "type": "Point", "coordinates": [ 141.305057299999987, 40.1813898 ] } }
]
}
