{
"type": "FeatureCollection",
"name": "geo_03_特定施設入居者生活介護（有料老人ホーム）",
"crs": { "type": "name", "properties": { "name": "urn:ogc:def:crs:OGC:1.3:CRS84" } },
"features": [
{ "type": "Feature", "properties": { "緯度": 39.6880351, "経度": 141.1253213, "url": "https://www.kaigokensaku.mhlw.go.jp/03/index.php?action_kouhyou_detail_004_kani=true&JigyosyoCd=370107385-00&ServiceCd=331&Type=search", "url2": null, "内容": "福寿の森【特定施設入居者生活介護（有料老人ホーム）】岩手県盛岡市本宮6丁目1-47福寿の森", "サービスの種類": "特定施設入居者生活介護（有料老人ホーム）" }, "geometry": { "type": "Point", "coordinates": [ 141.1253213, 39.6880351 ] } },
{ "type": "Feature", "properties": { "緯度": 39.6804712, "経度": 141.0265012, "url": "https://www.kaigokensaku.mhlw.go.jp/03/index.php?action_kouhyou_detail_004_kani=true&JigyosyoCd=372101444-00&ServiceCd=331&Type=search", "url2": "https://www.yasuragi-home.jp", "内容": "介護付有料老人ホームやすらぎ【特定施設入居者生活介護（有料老人ホーム）】岩手県盛岡市繋字猿田１番地４６", "サービスの種類": "特定施設入居者生活介護（有料老人ホーム）" }, "geometry": { "type": "Point", "coordinates": [ 141.026501200000013, 39.6804712 ] } },
{ "type": "Feature", "properties": { "緯度": 39.666238, "経度": 141.149463, "url": "https://www.kaigokensaku.mhlw.go.jp/03/index.php?action_kouhyou_detail_004_kani=true&JigyosyoCd=370107229-00&ServiceCd=331&Type=search", "url2": "http://www.hopetown-wakka.com", "内容": "介護付き有料老人ホームホープタウン輪っか【特定施設入居者生活介護（有料老人ホーム）】岩手県盛岡市津志田西2丁目2-51ホープタウン輪っか", "サービスの種類": "特定施設入居者生活介護（有料老人ホーム）" }, "geometry": { "type": "Point", "coordinates": [ 141.149463, 39.666238 ] } },
{ "type": "Feature", "properties": { "緯度": 39.6993922, "経度": 141.1540034, "url": "https://www.kaigokensaku.mhlw.go.jp/03/index.php?action_kouhyou_detail_004_kani=true&JigyosyoCd=370103327-00&ServiceCd=331&Type=search", "url2": "http://www.brightstage.co.jp", "内容": "ブライトステージ【特定施設入居者生活介護（有料老人ホーム）】岩手県盛岡市肴町３番１８号", "サービスの種類": "特定施設入居者生活介護（有料老人ホーム）" }, "geometry": { "type": "Point", "coordinates": [ 141.1540034, 39.6993922 ] } },
{ "type": "Feature", "properties": { "緯度": 39.69318312778865, "経度": 141.1334047558197, "url": "https://www.kaigokensaku.mhlw.go.jp/03/index.php?action_kouhyou_detail_004_kani=true&JigyosyoCd=370107922-00&ServiceCd=331&Type=search", "url2": "https://genkinakaigo.co.jp/", "内容": "介護付き有料老人ホーム「百万石」【特定施設入居者生活介護（有料老人ホーム）】岩手県盛岡市本宮３丁目9-2", "サービスの種類": "特定施設入居者生活介護（有料老人ホーム）" }, "geometry": { "type": "Point", "coordinates": [ 141.133404755819697, 39.69318312778865 ] } },
{ "type": "Feature", "properties": { "緯度": 39.668210930035713, "経度": 141.1534404662705, "url": "https://www.kaigokensaku.mhlw.go.jp/03/index.php?action_kouhyou_detail_004_kani=true&JigyosyoCd=370106460-00&ServiceCd=331&Type=search", "url2": "http://medical-sp.jp/", "内容": "介護付有料老人ホームあおぞら【特定施設入居者生活介護（有料老人ホーム）】岩手県盛岡市津志田町一丁目15番37号", "サービスの種類": "特定施設入居者生活介護（有料老人ホーム）" }, "geometry": { "type": "Point", "coordinates": [ 141.153440466270496, 39.668210930035713 ] } },
{ "type": "Feature", "properties": { "緯度": 39.7297717, "経度": 141.1577996, "url": "https://www.kaigokensaku.mhlw.go.jp/03/index.php?action_kouhyou_detail_004_kani=true&JigyosyoCd=370107195-00&ServiceCd=331&Type=search", "url2": null, "内容": "盛岡北ケアコミュニティそよ風【特定施設入居者生活介護（有料老人ホーム）】岩手県盛岡市三ツ割4丁目7-17", "サービスの種類": "特定施設入居者生活介護（有料老人ホーム）" }, "geometry": { "type": "Point", "coordinates": [ 141.1577996, 39.7297717 ] } },
{ "type": "Feature", "properties": { "緯度": 39.6979981, "経度": 141.1611389, "url": "https://www.kaigokensaku.mhlw.go.jp/03/index.php?action_kouhyou_detail_004_kani=true&JigyosyoCd=370103772-00&ServiceCd=331&Type=search", "url2": "http://www.ambitious-city.co.jp/", "内容": "アンビシャスシティ志家【特定施設入居者生活介護（有料老人ホーム）】岩手県盛岡市中ノ橋通２丁目７－３８", "サービスの種類": "特定施設入居者生活介護（有料老人ホーム）" }, "geometry": { "type": "Point", "coordinates": [ 141.1611389, 39.6979981 ] } },
{ "type": "Feature", "properties": { "緯度": 39.3867913, "経度": 141.1233569, "url": "https://www.kaigokensaku.mhlw.go.jp/03/index.php?action_kouhyou_detail_004_kani=true&JigyosyoCd=370502007-00&ServiceCd=331&Type=search", "url2": "https://cm-hanamaki.com/", "内容": "介護付き有料老人ホームケアメディカルはなまき【特定施設入居者生活介護（有料老人ホーム）】岩手県花巻市御田屋町４－５６", "サービスの種類": "特定施設入居者生活介護（有料老人ホーム）" }, "geometry": { "type": "Point", "coordinates": [ 141.1233569, 39.3867913 ] } },
{ "type": "Feature", "properties": { "緯度": 38.9407671, "経度": 141.1170206, "url": "https://www.kaigokensaku.mhlw.go.jp/03/index.php?action_kouhyou_detail_004_kani=true&JigyosyoCd=370900979-00&ServiceCd=331&Type=search", "url2": "https://i3syukai.com", "内容": "介護付有料老人ホ－ムいわいの郷【特定施設入居者生活介護（有料老人ホーム）】岩手県一関市山目字館６４番７", "サービスの種類": "特定施設入居者生活介護（有料老人ホーム）" }, "geometry": { "type": "Point", "coordinates": [ 141.117020599999904, 38.940767099999967 ] } }
]
}
