{
"type": "FeatureCollection",
"name": "geo_03_訪問入浴介護",
"crs": { "type": "name", "properties": { "name": "urn:ogc:def:crs:OGC:1.3:CRS84" } },
"features": [
{ "type": "Feature", "properties": { "緯度": 39.7483588, "経度": 141.152812, "url": "https://www.kaigokensaku.mhlw.go.jp/03/index.php?action_kouhyou_detail_004_kani=true&JigyosyoCd=370107427-00&ServiceCd=120&Type=search", "url2": "https://www.tsukui.net/home-care/2031/", "内容": "ツクイ盛岡【訪問入浴介護】岩手県盛岡市東黒石野2丁目1番5号", "サービスの種類": "訪問入浴介護" }, "geometry": { "type": "Point", "coordinates": [ 141.152812, 39.7483588 ] } },
{ "type": "Feature", "properties": { "緯度": 39.7447535, "経度": 141.1303847, "url": "https://www.kaigokensaku.mhlw.go.jp/03/index.php?action_kouhyou_detail_004_kani=true&JigyosyoCd=370101933-00&ServiceCd=120&Type=search", "url2": "http://www.earthsupport.co.jp", "内容": "アースサポート盛岡【訪問入浴介護】岩手県盛岡市厨川1丁目16番3号", "サービスの種類": "訪問入浴介護" }, "geometry": { "type": "Point", "coordinates": [ 141.1303847, 39.7447535 ] } },
{ "type": "Feature", "properties": { "緯度": 39.6349594, "経度": 141.9399439, "url": "https://www.kaigokensaku.mhlw.go.jp/03/index.php?action_kouhyou_detail_004_kani=true&JigyosyoCd=370200081-00&ServiceCd=120&Type=search", "url2": "http://www.miyako-shakyo.or.jp", "内容": "宮古市社会福祉協議会訪問入浴サービスセンター【訪問入浴介護】岩手県宮古市小山田二丁目9番20号", "サービスの種類": "訪問入浴介護" }, "geometry": { "type": "Point", "coordinates": [ 141.9399439, 39.6349594 ] } },
{ "type": "Feature", "properties": { "緯度": 39.6597928, "経度": 141.9516206000001, "url": "https://www.kaigokensaku.mhlw.go.jp/03/index.php?action_kouhyou_detail_004_kani=true&JigyosyoCd=370200115-00&ServiceCd=120&Type=search", "url2": "http://www.wakatakekai.or.jp/", "内容": "指定訪問入浴介護事業所サンホームみやこ【訪問入浴介護】岩手県宮古市崎鍬ヶ崎第4地割1番地20", "サービスの種類": "訪問入浴介護" }, "geometry": { "type": "Point", "coordinates": [ 141.951620600000098, 39.6597928 ] } },
{ "type": "Feature", "properties": { "緯度": 39.0791932, "経度": 141.712077, "url": "https://www.kaigokensaku.mhlw.go.jp/03/index.php?action_kouhyou_detail_004_kani=true&JigyosyoCd=370300055-00&ServiceCd=120&Type=search", "url2": null, "内容": "大船渡市社会福祉協議会指定訪問入浴介護事業所【訪問入浴介護】岩手県大船渡市盛町字下舘下１４－１大船渡市総合福祉センター", "サービスの種類": "訪問入浴介護" }, "geometry": { "type": "Point", "coordinates": [ 141.712077, 39.0791932 ] } },
{ "type": "Feature", "properties": { "緯度": 39.3767132, "経度": 141.11140479999989, "url": "https://www.kaigokensaku.mhlw.go.jp/03/index.php?action_kouhyou_detail_004_kani=true&JigyosyoCd=370501223-00&ServiceCd=120&Type=search", "url2": "http://www.earthsupport.co.jp", "内容": "アースサポート花巻【訪問入浴介護】岩手県花巻市不動町2丁目1番地8", "サービスの種類": "訪問入浴介護" }, "geometry": { "type": "Point", "coordinates": [ 141.111404799999889, 39.3767132 ] } },
{ "type": "Feature", "properties": { "緯度": 39.3909937, "経度": 141.1101263, "url": "https://www.kaigokensaku.mhlw.go.jp/03/index.php?action_kouhyou_detail_004_kani=true&JigyosyoCd=370501983-00&ServiceCd=120&Type=search", "url2": "https://www.asahi-sun-clean.co.jp/", "内容": "アサヒサンクリーン在宅介護センター花巻【訪問入浴介護】岩手県花巻市西大通り一丁目１０番９号SARACA　B号室", "サービスの種類": "訪問入浴介護" }, "geometry": { "type": "Point", "coordinates": [ 141.1101263, 39.3909937 ] } },
{ "type": "Feature", "properties": { "緯度": 39.3913903, "経度": 141.1592525, "url": "https://www.kaigokensaku.mhlw.go.jp/03/index.php?action_kouhyou_detail_004_kani=true&JigyosyoCd=370500167-00&ServiceCd=120&Type=search", "url2": "http://hanamaki-syakyo.or.jp/", "内容": "花巻市社会福祉協議会指定矢沢訪問入浴介護事業所【訪問入浴介護】岩手県花巻市高松第３地割85番地1矢沢地域福祉センター", "サービスの種類": "訪問入浴介護" }, "geometry": { "type": "Point", "coordinates": [ 141.1592525, 39.3913903 ] } },
{ "type": "Feature", "properties": { "緯度": 39.4713945, "経度": 141.2791482, "url": "https://www.kaigokensaku.mhlw.go.jp/03/index.php?action_kouhyou_detail_004_kani=true&JigyosyoCd=372300079-00&ServiceCd=120&Type=search", "url2": null, "内容": "花巻市社会福祉協議会指定大迫訪問入浴介護事業所【訪問入浴介護】岩手県花巻市大迫町大迫第13地割23番地1", "サービスの種類": "訪問入浴介護" }, "geometry": { "type": "Point", "coordinates": [ 141.2791482, 39.4713945 ] } },
{ "type": "Feature", "properties": { "緯度": 39.3912805, "経度": 141.0987083, "url": "https://www.kaigokensaku.mhlw.go.jp/03/index.php?action_kouhyou_detail_004_kani=true&JigyosyoCd=370500274-00&ServiceCd=120&Type=search", "url2": "http://iris-hanamaki.jp", "内容": "アイリス花巻指定訪問入浴介護事業所【訪問入浴介護】岩手県花巻市南万丁目970番地2", "サービスの種類": "訪問入浴介護" }, "geometry": { "type": "Point", "coordinates": [ 141.0987083, 39.3912805 ] } },
{ "type": "Feature", "properties": { "緯度": 39.3292071, "経度": 141.5327669000001, "url": "https://www.kaigokensaku.mhlw.go.jp/03/index.php?action_kouhyou_detail_004_kani=true&JigyosyoCd=370800427-00&ServiceCd=120&Type=search", "url2": "https://www.care-grant.co.jp/", "内容": "かなえケアステーション【訪問入浴介護】岩手県遠野市穀町１３－１", "サービスの種類": "訪問入浴介護" }, "geometry": { "type": "Point", "coordinates": [ 141.532766900000098, 39.3292071 ] } },
{ "type": "Feature", "properties": { "緯度": 39.3434499, "経度": 141.5366715, "url": "https://www.kaigokensaku.mhlw.go.jp/03/index.php?action_kouhyou_detail_004_kani=true&JigyosyoCd=370800054-00&ServiceCd=120&Type=search", "url2": "http://www.tono-shakyo.jp/", "内容": "ヘルパーステーション薬研淵【訪問入浴介護】岩手県遠野市松崎町白岩字薬研淵1-3", "サービスの種類": "訪問入浴介護" }, "geometry": { "type": "Point", "coordinates": [ 141.536671500000011, 39.3434499 ] } },
{ "type": "Feature", "properties": { "緯度": 38.9301883, "経度": 141.1384856, "url": "https://www.kaigokensaku.mhlw.go.jp/03/index.php?action_kouhyou_detail_004_kani=true&JigyosyoCd=370901084-00&ServiceCd=120&Type=search", "url2": "http://www.earthsupport.co.jp", "内容": "アースサポート一関【訪問入浴介護】岩手県一関市上大槻街4-23", "サービスの種類": "訪問入浴介護" }, "geometry": { "type": "Point", "coordinates": [ 141.1384856, 38.9301883 ] } },
{ "type": "Feature", "properties": { "緯度": 38.918505527389968, "経度": 141.09588281148211, "url": "https://www.kaigokensaku.mhlw.go.jp/03/index.php?action_kouhyou_detail_004_kani=true&JigyosyoCd=370901761-00&ServiceCd=120&Type=search", "url2": null, "内容": "フォレスト訪問入浴サービス東磐井【訪問入浴介護】岩手県一関市萩荘字打ノ目255-1", "サービスの種類": "訪問入浴介護" }, "geometry": { "type": "Point", "coordinates": [ 141.095882811482113, 38.918505527389968 ] } },
{ "type": "Feature", "properties": { "緯度": 38.9955071, "経度": 141.252153, "url": "https://www.kaigokensaku.mhlw.go.jp/03/index.php?action_kouhyou_detail_004_kani=true&JigyosyoCd=372700260-00&ServiceCd=120&Type=search", "url2": "http://www.ichinoseki-shakyo.com/", "内容": "訪問入浴センター東山【訪問入浴介護】岩手県一関市東山町長坂字西本町139番地1", "サービスの種類": "訪問入浴介護" }, "geometry": { "type": "Point", "coordinates": [ 141.252153, 38.9955071 ] } },
{ "type": "Feature", "properties": { "緯度": 38.928369697452403, "経度": 141.116081272885, "url": "https://www.kaigokensaku.mhlw.go.jp/03/index.php?action_kouhyou_detail_004_kani=true&JigyosyoCd=370901811-00&ServiceCd=120&Type=search", "url2": "https://www.asahi-sun-clean.co.jp/", "内容": "アサヒサンクリーン在宅介護センター一関【訪問入浴介護】岩手県一関市山目字十二神122-3", "サービスの種類": "訪問入浴介護" }, "geometry": { "type": "Point", "coordinates": [ 141.116081272884998, 38.928369697452403 ] } },
{ "type": "Feature", "properties": { "緯度": 38.9407697, "経度": 141.130752, "url": "https://www.kaigokensaku.mhlw.go.jp/03/index.php?action_kouhyou_detail_004_kani=true&JigyosyoCd=370901993-00&ServiceCd=120&Type=search", "url2": "http://www.tsukui.net", "内容": "ツクイ一関【訪問入浴介護】岩手県一関市東五代6番30号", "サービスの種類": "訪問入浴介護" }, "geometry": { "type": "Point", "coordinates": [ 141.130752, 38.9407697 ] } },
{ "type": "Feature", "properties": { "緯度": 38.9239447, "経度": 141.3441619, "url": "https://www.kaigokensaku.mhlw.go.jp/03/index.php?action_kouhyou_detail_004_kani=true&JigyosyoCd=370902025-00&ServiceCd=120&Type=search", "url2": "https://www.1goitiyu.com", "内容": "訪問入浴春夏秋冬【訪問入浴介護】岩手県一関市千厩町千厩字下駒場294番地18", "サービスの種類": "訪問入浴介護" }, "geometry": { "type": "Point", "coordinates": [ 141.344161899999989, 38.9239447 ] } },
{ "type": "Feature", "properties": { "緯度": 39.0221729, "経度": 141.6390769, "url": "https://www.kaigokensaku.mhlw.go.jp/03/index.php?action_kouhyou_detail_004_kani=true&JigyosyoCd=371000092-00&ServiceCd=120&Type=search", "url2": null, "内容": "高寿園指定訪問入浴介護事業所【訪問入浴介護】岩手県陸前高田市高田町字東和野６７サポートセンター内", "サービスの種類": "訪問入浴介護" }, "geometry": { "type": "Point", "coordinates": [ 141.6390769, 39.0221729 ] } },
{ "type": "Feature", "properties": { "緯度": 39.344924374373882, "経度": 141.84735477102811, "url": "https://www.kaigokensaku.mhlw.go.jp/03/index.php?action_kouhyou_detail_004_kani=true&JigyosyoCd=371100322-00&ServiceCd=120&Type=search", "url2": null, "内容": "いきいき指定訪問入浴介護センター【訪問入浴介護】岩手県釜石市鵜住居町2-20-1いきいき福祉センター", "サービスの種類": "訪問入浴介護" }, "geometry": { "type": "Point", "coordinates": [ 141.847354771028108, 39.344924374373882 ] } },
{ "type": "Feature", "properties": { "緯度": 40.3035225, "経度": 141.3087429, "url": "https://www.kaigokensaku.mhlw.go.jp/03/index.php?action_kouhyou_detail_004_kani=true&JigyosyoCd=371300088-00&ServiceCd=120&Type=search", "url2": "http://ninohe-shakyo.jp", "内容": "二戸市社会福祉協議会訪問入浴介護事業所【訪問入浴介護】岩手県二戸市仁左平字横手２番地３", "サービスの種類": "訪問入浴介護" }, "geometry": { "type": "Point", "coordinates": [ 141.3087429, 40.3035225 ] } },
{ "type": "Feature", "properties": { "緯度": 40.1844415, "経度": 141.1574534, "url": "https://www.kaigokensaku.mhlw.go.jp/03/index.php?action_kouhyou_detail_004_kani=true&JigyosyoCd=373200146-00&ServiceCd=120&Type=search", "url2": "http://ninohe-shakyo.jp/", "内容": "浄法寺訪問入浴介護事業所【訪問入浴介護】岩手県二戸市浄法寺町小池３番地ほほえみセンター", "サービスの種類": "訪問入浴介護" }, "geometry": { "type": "Point", "coordinates": [ 141.1574534, 40.1844415 ] } },
{ "type": "Feature", "properties": { "緯度": 39.1433034, "経度": 141.1226453, "url": "https://www.kaigokensaku.mhlw.go.jp/03/index.php?action_kouhyou_detail_004_kani=true&JigyosyoCd=371500331-00&ServiceCd=120&Type=search", "url2": "http://www.earthsupport.co.jp", "内容": "アースサポート奥州【訪問入浴介護】岩手県奥州市水沢後田16－4", "サービスの種類": "訪問入浴介護" }, "geometry": { "type": "Point", "coordinates": [ 141.122645299999903, 39.1433034 ] } },
{ "type": "Feature", "properties": { "緯度": 39.11679981584701, "経度": 141.07242189818231, "url": "https://www.kaigokensaku.mhlw.go.jp/03/index.php?action_kouhyou_detail_004_kani=true&JigyosyoCd=372500165-00&ServiceCd=120&Type=search", "url2": "http://www.oshuisawakai.iwate.jp", "内容": "やまゆり荘訪問入浴介護事業所【訪問入浴介護】岩手県奥州市胆沢南都田字加賀谷地416", "サービスの種類": "訪問入浴介護" }, "geometry": { "type": "Point", "coordinates": [ 141.072421898182313, 39.11679981584701 ] } },
{ "type": "Feature", "properties": { "緯度": 39.703132539474083, "経度": 141.07211847863769, "url": "https://www.kaigokensaku.mhlw.go.jp/03/index.php?action_kouhyou_detail_004_kani=true&JigyosyoCd=372100735-00&ServiceCd=120&Type=search", "url2": "http://www.uguisu.or.jp/", "内容": "社会福祉法人康済会訪問入浴介護サービス事業所【訪問入浴介護】岩手県滝沢市大釜竹鼻163番地14", "サービスの種類": "訪問入浴介護" }, "geometry": { "type": "Point", "coordinates": [ 141.072118478637691, 39.703132539474083 ] } },
{ "type": "Feature", "properties": { "緯度": 39.613491928200283, "経度": 141.14694240461569, "url": "https://www.kaigokensaku.mhlw.go.jp/03/index.php?action_kouhyou_detail_004_kani=true&JigyosyoCd=372200212-00&ServiceCd=120&Type=search", "url2": "https://kikodo.or.jp", "内容": "訪問入浴介護やはば【訪問入浴介護】岩手県紫波郡矢巾町大字又兵ェ新田第5地割335番地医療福祉多機能ビル　　ケアセンター南昌", "サービスの種類": "訪問入浴介護" }, "geometry": { "type": "Point", "coordinates": [ 141.146942404615686, 39.613491928200283 ] } },
{ "type": "Feature", "properties": { "緯度": 39.3140542, "経度": 140.775447, "url": "https://www.kaigokensaku.mhlw.go.jp/03/index.php?action_kouhyou_detail_004_kani=true&JigyosyoCd=372400135-00&ServiceCd=120&Type=search", "url2": "http://nishi-shakyo.net/", "内容": "訪問入浴にしわが【訪問入浴介護】岩手県和賀郡西和賀町川尻40地割73番地82", "サービスの種類": "訪問入浴介護" }, "geometry": { "type": "Point", "coordinates": [ 140.775447, 39.3140542 ] } },
{ "type": "Feature", "properties": { "緯度": 39.194481245189991, "経度": 141.59972104431921, "url": "https://www.kaigokensaku.mhlw.go.jp/03/index.php?action_kouhyou_detail_004_kani=true&JigyosyoCd=372800052-00&ServiceCd=120&Type=search", "url2": "http://sumita-shakyo.jp/", "内容": "住田町社会福祉協議会指定訪問入浴介護事業所【訪問入浴介護】岩手県気仙郡住田町上有住字和田野12-5", "サービスの種類": "訪問入浴介護" }, "geometry": { "type": "Point", "coordinates": [ 141.59972104431921, 39.194481245189991 ] } },
{ "type": "Feature", "properties": { "緯度": 39.381093361587673, "経度": 141.88512337028769, "url": "https://www.kaigokensaku.mhlw.go.jp/03/index.php?action_kouhyou_detail_004_kani=true&JigyosyoCd=372900126-00&ServiceCd=120&Type=search", "url2": "https://www.otsuchi-shakyo.jp/", "内容": "大槌町社協指定訪問入浴介護事業所【訪問入浴介護】岩手県上閉伊郡大槌町大槌第12地割71番2大槌町社会福祉協議会介護サービスステーション", "サービスの種類": "訪問入浴介護" }, "geometry": { "type": "Point", "coordinates": [ 141.885123370287687, 39.381093361587673 ] } },
{ "type": "Feature", "properties": { "緯度": 39.47479738202523, "経度": 141.9365736427612, "url": "https://www.kaigokensaku.mhlw.go.jp/03/index.php?action_kouhyou_detail_004_kani=true&JigyosyoCd=373000199-00&ServiceCd=120&Type=search", "url2": "http://www.yamada-shakyo.or.jp", "内容": "山田町社協指定訪問入浴介護事業所【訪問入浴介護】岩手県下閉伊郡山田町山田第１５地割８２番地２", "サービスの種類": "訪問入浴介護" }, "geometry": { "type": "Point", "coordinates": [ 141.936573642761203, 39.47479738202523 ] } },
{ "type": "Feature", "properties": { "緯度": 39.4620654, "経度": 141.94465620000011, "url": "https://www.kaigokensaku.mhlw.go.jp/03/index.php?action_kouhyou_detail_004_kani=true&JigyosyoCd=373000355-00&ServiceCd=120&Type=search", "url2": null, "内容": "有限会社あすなろ指定訪問入浴介護事業所【訪問入浴介護】岩手県下閉伊郡山田町長崎4-14-1", "サービスの種類": "訪問入浴介護" }, "geometry": { "type": "Point", "coordinates": [ 141.944656200000111, 39.4620654 ] } },
{ "type": "Feature", "properties": { "緯度": 39.8472362, "経度": 141.8002, "url": "https://www.kaigokensaku.mhlw.go.jp/03/index.php?action_kouhyou_detail_004_kani=true&JigyosyoCd=373000421-00&ServiceCd=120&Type=search", "url2": "http://iwaizumi-shakyo.or.jp", "内容": "岩泉町社協指定訪問入浴介護事業所【訪問入浴介護】岩手県下閉伊郡岩泉町岩泉字森の越４－１４", "サービスの種類": "訪問入浴介護" }, "geometry": { "type": "Point", "coordinates": [ 141.8002, 39.8472362 ] } }
]
}
