{
"type": "FeatureCollection",
"name": "geo_03_小規模多機能型居宅介護",
"crs": { "type": "name", "properties": { "name": "urn:ogc:def:crs:OGC:1.3:CRS84" } },
"features": [
{ "type": "Feature", "properties": { "緯度": 39.6882842, "経度": 141.1237092, "url": "https://www.kaigokensaku.mhlw.go.jp/03/index.php?action_kouhyou_detail_004_kani=true&JigyosyoCd=390100071-00&ServiceCd=730&Type=search", "url2": "https://morioka-fujimikai.or.jp", "内容": "小規模多機能型居宅介護事業所かまどっこ【小規模多機能型居宅介護】岩手県盛岡市本宮6丁目2-18", "サービスの種類": "小規模多機能型居宅介護" }, "geometry": { "type": "Point", "coordinates": [ 141.1237092, 39.6882842 ] } },
{ "type": "Feature", "properties": { "緯度": 39.7266852, "経度": 141.1366153, "url": "https://www.kaigokensaku.mhlw.go.jp/03/index.php?action_kouhyou_detail_004_kani=true&JigyosyoCd=390100899-00&ServiceCd=730&Type=search", "url2": "http://nugumaru.com", "内容": "サテライト型小規模多機能施設たかまつ【小規模多機能型居宅介護】岩手県盛岡市高松４丁目３番６号", "サービスの種類": "小規模多機能型居宅介護" }, "geometry": { "type": "Point", "coordinates": [ 141.136615299999988, 39.7266852 ] } },
{ "type": "Feature", "properties": { "緯度": 39.7090001, "経度": 141.1796286, "url": "https://www.kaigokensaku.mhlw.go.jp/03/index.php?action_kouhyou_detail_004_kani=true&JigyosyoCd=390100519-00&ServiceCd=730&Type=search", "url2": "https://yachidamonoie.dai-ichi.com/", "内容": "小規模多機能ホームやちだもの家つつじが丘【小規模多機能型居宅介護】岩手県盛岡市つつじが丘15-38", "サービスの種類": "小規模多機能型居宅介護" }, "geometry": { "type": "Point", "coordinates": [ 141.1796286, 39.7090001 ] } },
{ "type": "Feature", "properties": { "緯度": 39.7062282, "経度": 141.1635119, "url": "https://www.kaigokensaku.mhlw.go.jp/03/index.php?action_kouhyou_detail_004_kani=true&JigyosyoCd=390100618-00&ServiceCd=730&Type=search", "url2": "https://yachidamonoie.dai-ichi.com/", "内容": "小規模多機能ホームやちだもの家加賀野【小規模多機能型居宅介護】岩手県盛岡市加賀野1丁目18-5", "サービスの種類": "小規模多機能型居宅介護" }, "geometry": { "type": "Point", "coordinates": [ 141.1635119, 39.7062282 ] } },
{ "type": "Feature", "properties": { "緯度": 39.725613486727639, "経度": 141.12076557056949, "url": "https://www.kaigokensaku.mhlw.go.jp/03/index.php?action_kouhyou_detail_004_kani=true&JigyosyoCd=390100295-00&ServiceCd=730&Type=search", "url2": "https://yachidamonoie.dai-ichi.com/", "内容": "小規模多機能ホームやちだもの家青山駅前【小規模多機能型居宅介護】岩手県盛岡市上堂二丁目３番１３号ケアタウンやちだもの家青山駅前A棟", "サービスの種類": "小規模多機能型居宅介護" }, "geometry": { "type": "Point", "coordinates": [ 141.120765570569489, 39.725613486727639 ] } },
{ "type": "Feature", "properties": { "緯度": 39.6567111, "経度": 141.18344409999989, "url": "https://www.kaigokensaku.mhlw.go.jp/03/index.php?action_kouhyou_detail_004_kani=true&JigyosyoCd=390100212-00&ServiceCd=730&Type=search", "url2": null, "内容": "あお空小規模多機能センター手代森【小規模多機能型居宅介護】岩手県盛岡市手代森１４地割１６－４５５", "サービスの種類": "小規模多機能型居宅介護" }, "geometry": { "type": "Point", "coordinates": [ 141.183444099999889, 39.6567111 ] } },
{ "type": "Feature", "properties": { "緯度": 39.715706486173502, "経度": 141.1504538429916, "url": "https://www.kaigokensaku.mhlw.go.jp/03/index.php?action_kouhyou_detail_004_kani=true&JigyosyoCd=390100337-00&ServiceCd=730&Type=search", "url2": "https://nugumaru.com/", "内容": "小規模多機能型居宅介護施設与願寿【小規模多機能型居宅介護】岩手県盛岡市北山１丁目１６番１５号", "サービスの種類": "小規模多機能型居宅介護" }, "geometry": { "type": "Point", "coordinates": [ 141.150453842991595, 39.715706486173502 ] } },
{ "type": "Feature", "properties": { "緯度": 39.7168334, "経度": 141.1029491, "url": "https://www.kaigokensaku.mhlw.go.jp/03/index.php?action_kouhyou_detail_004_kani=true&JigyosyoCd=390100550-00&ServiceCd=730&Type=search", "url2": "http://www.iwate.coop/", "内容": "小規模多機能型居宅介護あい長橋町【小規模多機能型居宅介護】岩手県盛岡市長橋町17-35", "サービスの種類": "小規模多機能型居宅介護" }, "geometry": { "type": "Point", "coordinates": [ 141.102949099999904, 39.7168334 ] } },
{ "type": "Feature", "properties": { "緯度": 39.6776978, "経度": 141.1411977, "url": "https://www.kaigokensaku.mhlw.go.jp/03/index.php?action_kouhyou_detail_004_kani=true&JigyosyoCd=390100824-00&ServiceCd=730&Type=search", "url2": "https://genkinakaigo.co.jp/", "内容": "小規模多機能型「なごみ館」向中野【小規模多機能型居宅介護】岩手県盛岡市向中野５丁目23-27小規模多機能型「なごみ館」向中野", "サービスの種類": "小規模多機能型居宅介護" }, "geometry": { "type": "Point", "coordinates": [ 141.1411977, 39.6776978 ] } },
{ "type": "Feature", "properties": { "緯度": 39.763081476394937, "経度": 141.1639362110451, "url": "https://www.kaigokensaku.mhlw.go.jp/03/index.php?action_kouhyou_detail_004_kani=true&JigyosyoCd=390100428-00&ServiceCd=730&Type=search", "url2": "https://emuzu-fukinotou.co.jp", "内容": "小規模多機能ホームふきのとう小鳥沢【小規模多機能型居宅介護】岩手県盛岡市小鳥沢一丁目31番10号小規模多機能ホームふきのとう小鳥沢", "サービスの種類": "小規模多機能型居宅介護" }, "geometry": { "type": "Point", "coordinates": [ 141.163936211045097, 39.763081476394937 ] } },
{ "type": "Feature", "properties": { "緯度": 39.628598112264832, "経度": 141.78754524824191, "url": "https://www.kaigokensaku.mhlw.go.jp/03/index.php?action_kouhyou_detail_004_kani=true&JigyosyoCd=390200095-00&ServiceCd=730&Type=search", "url2": null, "内容": "小規模多機能型居宅介護事業所あすなろ【小規模多機能型居宅介護】岩手県宮古市茂市第１地割１１５番地１", "サービスの種類": "小規模多機能型居宅介護" }, "geometry": { "type": "Point", "coordinates": [ 141.787545248241912, 39.628598112264832 ] } },
{ "type": "Feature", "properties": { "緯度": 39.6251138, "経度": 141.9549456, "url": "https://www.kaigokensaku.mhlw.go.jp/03/index.php?action_kouhyou_detail_004_kani=true&JigyosyoCd=390200038-00&ServiceCd=730&Type=search", "url2": "http://www.ln-kanon.com/", "内容": "かのん小規模多機能センター【小規模多機能型居宅介護】岩手県宮古市実田一丁目７番２８号", "サービスの種類": "小規模多機能型居宅介護" }, "geometry": { "type": "Point", "coordinates": [ 141.9549456, 39.6251138 ] } },
{ "type": "Feature", "properties": { "緯度": 39.6404085, "経度": 141.9495518, "url": "https://www.kaigokensaku.mhlw.go.jp/03/index.php?action_kouhyou_detail_004_kani=true&JigyosyoCd=390200384-00&ServiceCd=730&Type=search", "url2": null, "内容": "介護多機能ホームあすも【小規模多機能型居宅介護】岩手県宮古市大通三丁目6番51号", "サービスの種類": "小規模多機能型居宅介護" }, "geometry": { "type": "Point", "coordinates": [ 141.9495518, 39.6404085 ] } },
{ "type": "Feature", "properties": { "緯度": 39.6480577, "経度": 141.9379885, "url": "https://www.kaigokensaku.mhlw.go.jp/03/index.php?action_kouhyou_detail_004_kani=true&JigyosyoCd=390200285-00&ServiceCd=730&Type=search", "url2": null, "内容": "小規模多機能ホームあすも【小規模多機能型居宅介護】岩手県宮古市田の神二丁目4番28号", "サービスの種類": "小規模多機能型居宅介護" }, "geometry": { "type": "Point", "coordinates": [ 141.937988499999989, 39.6480577 ] } },
{ "type": "Feature", "properties": { "緯度": 39.5801462, "経度": 142.0222836, "url": "https://www.kaigokensaku.mhlw.go.jp/03/index.php?action_kouhyou_detail_004_kani=true&JigyosyoCd=390200087-00&ServiceCd=730&Type=search", "url2": "http://fureai385.web.fc2.com/", "内容": "おもえ小規模多機能支援センター【小規模多機能型居宅介護】岩手県宮古市重茂1-35-1", "サービスの種類": "小規模多機能型居宅介護" }, "geometry": { "type": "Point", "coordinates": [ 142.0222836, 39.5801462 ] } },
{ "type": "Feature", "properties": { "緯度": 39.6177326, "経度": 141.9066395, "url": "https://www.kaigokensaku.mhlw.go.jp/03/index.php?action_kouhyou_detail_004_kani=true&JigyosyoCd=390200145-00&ServiceCd=730&Type=search", "url2": null, "内容": "小規模多機能センターさくらつつみ【小規模多機能型居宅介護】岩手県宮古市田鎖第５地割３３－４", "サービスの種類": "小規模多機能型居宅介護" }, "geometry": { "type": "Point", "coordinates": [ 141.906639500000011, 39.6177326 ] } },
{ "type": "Feature", "properties": { "緯度": 39.124935290249752, "経度": 141.8063734706864, "url": "https://www.kaigokensaku.mhlw.go.jp/03/index.php?action_kouhyou_detail_004_kani=true&JigyosyoCd=390300036-00&ServiceCd=730&Type=search", "url2": "http://www.caresono.jp", "内容": "多機能ホームさんりく【小規模多機能型居宅介護】岩手県大船渡市三陸町越喜来字所通９１番地", "サービスの種類": "小規模多機能型居宅介護" }, "geometry": { "type": "Point", "coordinates": [ 141.806373470686395, 39.124935290249752 ] } },
{ "type": "Feature", "properties": { "緯度": 39.1557545, "経度": 141.843221, "url": "https://www.kaigokensaku.mhlw.go.jp/03/index.php?action_kouhyou_detail_004_kani=true&JigyosyoCd=390300184-00&ServiceCd=730&Type=search", "url2": null, "内容": "小規模多機能ホーム「森と海のまなびやよしはま」【小規模多機能型居宅介護】岩手県大船渡市三陸町吉浜字扇洞７", "サービスの種類": "小規模多機能型居宅介護" }, "geometry": { "type": "Point", "coordinates": [ 141.843221, 39.1557545 ] } },
{ "type": "Feature", "properties": { "緯度": 39.0770862, "経度": 141.746641, "url": "https://www.kaigokensaku.mhlw.go.jp/03/index.php?action_kouhyou_detail_004_kani=true&JigyosyoCd=390300028-00&ServiceCd=730&Type=search", "url2": null, "内容": "小規模多機能ホーム「後ノ入」【小規模多機能型居宅介護】岩手県大船渡市赤崎町字後ノ入73番地3", "サービスの種類": "小規模多機能型居宅介護" }, "geometry": { "type": "Point", "coordinates": [ 141.746641, 39.0770862 ] } },
{ "type": "Feature", "properties": { "緯度": 39.0107624, "経度": 141.7084015, "url": "https://www.kaigokensaku.mhlw.go.jp/03/index.php?action_kouhyou_detail_004_kani=true&JigyosyoCd=390300101-00&ServiceCd=730&Type=search", "url2": "http://www.tenjinkai.com", "内容": "小規模多機能ホーム「つばきの丘」【小規模多機能型居宅介護】岩手県大船渡市末崎町字中野157-1", "サービスの種類": "小規模多機能型居宅介護" }, "geometry": { "type": "Point", "coordinates": [ 141.7084015, 39.0107624 ] } },
{ "type": "Feature", "properties": { "緯度": 39.0428422, "経度": 141.7173247000001, "url": "https://www.kaigokensaku.mhlw.go.jp/03/index.php?action_kouhyou_detail_004_kani=true&JigyosyoCd=390300069-00&ServiceCd=730&Type=search", "url2": "http://www.tenjinkai.com", "内容": "小規模多機能ホーム「平」【小規模多機能型居宅介護】岩手県大船渡市大船渡町字下平24-1", "サービスの種類": "小規模多機能型居宅介護" }, "geometry": { "type": "Point", "coordinates": [ 141.717324700000091, 39.0428422 ] } },
{ "type": "Feature", "properties": { "緯度": 39.05464003308888, "経度": 141.7971154824173, "url": "https://www.kaigokensaku.mhlw.go.jp/03/index.php?action_kouhyou_detail_004_kani=true&JigyosyoCd=390300127-00&ServiceCd=730&Type=search", "url2": "http://www.shokyukai.or.jp/", "内容": "小規模多機能ホーム「綾の里」【小規模多機能型居宅介護】岩手県大船渡市三陸町綾里字清水125番地2", "サービスの種類": "小規模多機能型居宅介護" }, "geometry": { "type": "Point", "coordinates": [ 141.797115482417297, 39.05464003308888 ] } },
{ "type": "Feature", "properties": { "緯度": 39.129812732325057, "経度": 141.68101163089679, "url": "https://www.kaigokensaku.mhlw.go.jp/03/index.php?action_kouhyou_detail_004_kani=true&JigyosyoCd=390300143-00&ServiceCd=730&Type=search", "url2": "http://www.i-seijinkai.jp", "内容": "小規模多機能型居宅介護施設ひころいちの郷【小規模多機能型居宅介護】岩手県大船渡市日頃市町字上宿17-4ひころいちの郷", "サービスの種類": "小規模多機能型居宅介護" }, "geometry": { "type": "Point", "coordinates": [ 141.681011630896791, 39.129812732325057 ] } },
{ "type": "Feature", "properties": { "緯度": 39.0706142, "経度": 141.7113478, "url": "https://www.kaigokensaku.mhlw.go.jp/03/index.php?action_kouhyou_detail_004_kani=true&JigyosyoCd=390300218-00&ServiceCd=730&Type=search", "url2": "http://www.tenjinkai.com", "内容": "小規模多機能ホーム「ひまわり」【小規模多機能型居宅介護】岩手県大船渡市大船渡町字山馬越196番地", "サービスの種類": "小規模多機能型居宅介護" }, "geometry": { "type": "Point", "coordinates": [ 141.7113478, 39.0706142 ] } },
{ "type": "Feature", "properties": { "緯度": 39.335404, "経度": 141.2379981, "url": "https://www.kaigokensaku.mhlw.go.jp/03/index.php?action_kouhyou_detail_004_kani=true&JigyosyoCd=390500213-00&ServiceCd=730&Type=search", "url2": "https://yuyu-nagomi.com/nagomi_ukita", "内容": "なごみホームうきた【小規模多機能型居宅介護】岩手県花巻市東和町下浮田1区136番地", "サービスの種類": "小規模多機能型居宅介護" }, "geometry": { "type": "Point", "coordinates": [ 141.2379981, 39.335404 ] } },
{ "type": "Feature", "properties": { "緯度": 39.383567310273747, "経度": 141.23321742659749, "url": "https://www.kaigokensaku.mhlw.go.jp/03/index.php?action_kouhyou_detail_004_kani=true&JigyosyoCd=390500197-00&ServiceCd=730&Type=search", "url2": "https://tomoniayumukai.com/", "内容": "小規模多機能ホームいづな【小規模多機能型居宅介護】岩手県花巻市東和町土沢8区203", "サービスの種類": "小規模多機能型居宅介護" }, "geometry": { "type": "Point", "coordinates": [ 141.233217426597491, 39.383567310273747 ] } },
{ "type": "Feature", "properties": { "緯度": 39.4497142, "経度": 141.07653649999989, "url": "https://www.kaigokensaku.mhlw.go.jp/03/index.php?action_kouhyou_detail_004_kani=true&JigyosyoCd=390500072-00&ServiceCd=730&Type=search", "url2": "https://poccapoca-grants.jp", "内容": "小規模多機能型居宅介護ぽっかぽか花巻西【小規模多機能型居宅介護】岩手県花巻市大畑１－６２－４", "サービスの種類": "小規模多機能型居宅介護" }, "geometry": { "type": "Point", "coordinates": [ 141.076536499999889, 39.4497142 ] } },
{ "type": "Feature", "properties": { "緯度": 39.503382799546728, "経度": 141.1599349919266, "url": "https://www.kaigokensaku.mhlw.go.jp/03/index.php?action_kouhyou_detail_004_kani=true&JigyosyoCd=390500361-00&ServiceCd=730&Type=search", "url2": "https://www.ishidoriyasou.jp/", "内容": "小規模多機能ホームほしめぐり【小規模多機能型居宅介護】岩手県花巻市石鳥谷町好地第14地割9番地3", "サービスの種類": "小規模多機能型居宅介護" }, "geometry": { "type": "Point", "coordinates": [ 141.159934991926605, 39.503382799546728 ] } },
{ "type": "Feature", "properties": { "緯度": 39.3066165, "経度": 140.9779457, "url": "https://www.kaigokensaku.mhlw.go.jp/03/index.php?action_kouhyou_detail_004_kani=true&JigyosyoCd=390600302-00&ServiceCd=730&Type=search", "url2": "http://keiwakai.sakura.ne.jp/keiwakai/sth_yokokawame/index.html", "内容": "小規模多機能ホーム横川目【小規模多機能型居宅介護】岩手県北上市和賀町横川目11地割161番地1", "サービスの種類": "小規模多機能型居宅介護" }, "geometry": { "type": "Point", "coordinates": [ 140.9779457, 39.3066165 ] } },
{ "type": "Feature", "properties": { "緯度": 39.2894554, "経度": 141.0005083, "url": "https://www.kaigokensaku.mhlw.go.jp/03/index.php?action_kouhyou_detail_004_kani=true&JigyosyoCd=390600021-00&ServiceCd=730&Type=search", "url2": null, "内容": "小規模多機能ホームわが家【小規模多機能型居宅介護】岩手県北上市和賀町煤孫１０－１４－５", "サービスの種類": "小規模多機能型居宅介護" }, "geometry": { "type": "Point", "coordinates": [ 141.0005083, 39.2894554 ] } },
{ "type": "Feature", "properties": { "緯度": 39.3479718, "経度": 141.1012846, "url": "https://www.kaigokensaku.mhlw.go.jp/03/index.php?action_kouhyou_detail_004_kani=true&JigyosyoCd=390600070-00&ServiceCd=730&Type=search", "url2": "http://www.jahanamaki.or.jp", "内容": "JAいわて花巻小規模多機能ホームえんで【小規模多機能型居宅介護】岩手県北上市飯豊22地割45番地1", "サービスの種類": "小規模多機能型居宅介護" }, "geometry": { "type": "Point", "coordinates": [ 141.101284600000014, 39.3479718 ] } },
{ "type": "Feature", "properties": { "緯度": 39.2967664, "経度": 141.12549779999989, "url": "https://www.kaigokensaku.mhlw.go.jp/03/index.php?action_kouhyou_detail_004_kani=true&JigyosyoCd=390600054-00&ServiceCd=730&Type=search", "url2": "http://keiwakai.info/", "内容": "小規模多機能ホームうえのまち【小規模多機能型居宅介護】岩手県北上市上野町一丁目7-1", "サービスの種類": "小規模多機能型居宅介護" }, "geometry": { "type": "Point", "coordinates": [ 141.125497799999891, 39.296766400000017 ] } },
{ "type": "Feature", "properties": { "緯度": 39.2787064, "経度": 141.0811688, "url": "https://www.kaigokensaku.mhlw.go.jp/03/index.php?action_kouhyou_detail_004_kani=true&JigyosyoCd=390600278-00&ServiceCd=730&Type=search", "url2": "http://www.keiwakai.info/", "内容": "小規模多機能ホームおにやなぎ【小規模多機能型居宅介護】岩手県北上市鬼柳町新井田45小規模多機能ホームおにやなぎ", "サービスの種類": "小規模多機能型居宅介護" }, "geometry": { "type": "Point", "coordinates": [ 141.0811688, 39.2787064 ] } },
{ "type": "Feature", "properties": { "緯度": 40.1987205, "経度": 141.7789957, "url": "https://www.kaigokensaku.mhlw.go.jp/03/index.php?action_kouhyou_detail_004_kani=true&JigyosyoCd=390700045-00&ServiceCd=730&Type=search", "url2": "https://kuji-chuokaigo.jimdo.com/", "内容": "小規模多機能ホームあさひ【小規模多機能型居宅介護】岩手県久慈市旭町第10地割66番地1", "サービスの種類": "小規模多機能型居宅介護" }, "geometry": { "type": "Point", "coordinates": [ 141.7789957, 40.1987205 ] } },
{ "type": "Feature", "properties": { "緯度": 40.1985094, "経度": 141.78534549999989, "url": "https://www.kaigokensaku.mhlw.go.jp/03/index.php?action_kouhyou_detail_004_kani=true&JigyosyoCd=390700011-00&ServiceCd=730&Type=search", "url2": "https://tokiwaen.jpn.org/", "内容": "小規模多機能ホームときわ苑【小規模多機能型居宅介護】岩手県久慈市湊町第14地割103番地", "サービスの種類": "小規模多機能型居宅介護" }, "geometry": { "type": "Point", "coordinates": [ 141.785345499999892, 40.198509400000013 ] } },
{ "type": "Feature", "properties": { "緯度": 40.144580347554722, "経度": 141.56605370147469, "url": "https://www.kaigokensaku.mhlw.go.jp/03/index.php?action_kouhyou_detail_004_kani=true&JigyosyoCd=390700102-00&ServiceCd=730&Type=search", "url2": null, "内容": "小規模多機能型居宅介護しらかば園【小規模多機能型居宅介護】岩手県久慈市山形町川井10－55－1", "サービスの種類": "小規模多機能型居宅介護" }, "geometry": { "type": "Point", "coordinates": [ 141.566053701474686, 40.144580347554722 ] } },
{ "type": "Feature", "properties": { "緯度": 40.1956014, "経度": 141.7594859, "url": "https://www.kaigokensaku.mhlw.go.jp/03/index.php?action_kouhyou_detail_004_kani=true&JigyosyoCd=390700037-00&ServiceCd=730&Type=search", "url2": "http://care-net.biz/03/ohisama", "内容": "小規模多機能ホームひなたぼっこ【小規模多機能型居宅介護】岩手県久慈市栄町32地割37番地９", "サービスの種類": "小規模多機能型居宅介護" }, "geometry": { "type": "Point", "coordinates": [ 141.759485899999987, 40.1956014 ] } },
{ "type": "Feature", "properties": { "緯度": 39.319924928509508, "経度": 141.57164342953459, "url": "https://www.kaigokensaku.mhlw.go.jp/03/index.php?action_kouhyou_detail_004_kani=true&JigyosyoCd=390800076-00&ServiceCd=730&Type=search", "url2": null, "内容": "あお空小規模多機能センター青笹【小規模多機能型居宅介護】岩手県遠野市青笹町青笹11地割3の11", "サービスの種類": "小規模多機能型居宅介護" }, "geometry": { "type": "Point", "coordinates": [ 141.571643429534589, 39.319924928509508 ] } },
{ "type": "Feature", "properties": { "緯度": 39.3313051, "経度": 141.4807165, "url": "https://www.kaigokensaku.mhlw.go.jp/03/index.php?action_kouhyou_detail_004_kani=true&JigyosyoCd=390800100-00&ServiceCd=730&Type=search", "url2": null, "内容": "地域密着型サービス事業所柔（YAWARA）【小規模多機能型居宅介護】岩手県遠野市綾織町新里28-54-1", "サービスの種類": "小規模多機能型居宅介護" }, "geometry": { "type": "Point", "coordinates": [ 141.4807165, 39.3313051 ] } },
{ "type": "Feature", "properties": { "緯度": 39.3335342, "経度": 141.5300725, "url": "https://www.kaigokensaku.mhlw.go.jp/03/index.php?action_kouhyou_detail_004_kani=true&JigyosyoCd=390800027-00&ServiceCd=730&Type=search", "url2": "https://t-chouju.jp/", "内容": "小規模多機能型居宅介護事業所長寿庵【小規模多機能型居宅介護】岩手県遠野市材木町２－２２", "サービスの種類": "小規模多機能型居宅介護" }, "geometry": { "type": "Point", "coordinates": [ 141.530072499999989, 39.3335342 ] } },
{ "type": "Feature", "properties": { "緯度": 38.9372539, "経度": 141.1290779, "url": "https://www.kaigokensaku.mhlw.go.jp/03/index.php?action_kouhyou_detail_004_kani=true&JigyosyoCd=390900314-00&ServiceCd=730&Type=search", "url2": "http://i3syukai.com", "内容": "クリニック小規模多機能型居宅介護【小規模多機能型居宅介護】岩手県一関市中央町二丁目４番２号", "サービスの種類": "小規模多機能型居宅介護" }, "geometry": { "type": "Point", "coordinates": [ 141.1290779, 38.9372539 ] } },
{ "type": "Feature", "properties": { "緯度": 38.9519732, "経度": 141.350276, "url": "https://www.kaigokensaku.mhlw.go.jp/03/index.php?action_kouhyou_detail_004_kani=true&JigyosyoCd=390900280-00&ServiceCd=730&Type=search", "url2": null, "内容": "小規模多機能ホームあおぞら【小規模多機能型居宅介護】岩手県一関市千厩町奥玉字北ノ沢１番地２", "サービスの種類": "小規模多機能型居宅介護" }, "geometry": { "type": "Point", "coordinates": [ 141.350276, 38.9519732 ] } },
{ "type": "Feature", "properties": { "緯度": 38.9364505, "経度": 141.0936745, "url": "https://www.kaigokensaku.mhlw.go.jp/03/index.php?action_kouhyou_detail_004_kani=true&JigyosyoCd=390900017-00&ServiceCd=730&Type=search", "url2": "https://workers-coop.com", "内容": "あったかホームちゃごみ【小規模多機能型居宅介護】岩手県一関市赤荻字荻野330番地1", "サービスの種類": "小規模多機能型居宅介護" }, "geometry": { "type": "Point", "coordinates": [ 141.0936745, 38.9364505 ] } },
{ "type": "Feature", "properties": { "緯度": 38.9408433, "経度": 141.1019908, "url": "https://www.kaigokensaku.mhlw.go.jp/03/index.php?action_kouhyou_detail_004_kani=true&JigyosyoCd=390900397-00&ServiceCd=730&Type=search", "url2": "http://ritsuwa.com", "内容": "ケアビレッジ一関ケアサービスステーション小規模多機能型居宅介護事業所【小規模多機能型居宅介護】岩手県一関市赤荻字月町176番地", "サービスの種類": "小規模多機能型居宅介護" }, "geometry": { "type": "Point", "coordinates": [ 141.10199080000001, 38.9408433 ] } },
{ "type": "Feature", "properties": { "緯度": 39.017061311383102, "経度": 141.64965832209009, "url": "https://www.kaigokensaku.mhlw.go.jp/03/index.php?action_kouhyou_detail_004_kani=true&JigyosyoCd=391000031-00&ServiceCd=730&Type=search", "url2": "http://www.shokyukai.or.jp/", "内容": "小規模多機能ホーム「厨」【小規模多機能型居宅介護】岩手県陸前高田市高田町字中田76番地1", "サービスの種類": "小規模多機能型居宅介護" }, "geometry": { "type": "Point", "coordinates": [ 141.64965832209009, 39.017061311383102 ] } },
{ "type": "Feature", "properties": { "緯度": 38.9873537, "経度": 141.7101909, "url": "https://www.kaigokensaku.mhlw.go.jp/03/index.php?action_kouhyou_detail_004_kani=true&JigyosyoCd=391000049-00&ServiceCd=730&Type=search", "url2": "http://www.shokyukai.or.jp/", "内容": "小規模多機能ホーム「小百合」【小規模多機能型居宅介護】岩手県陸前高田市小友町字谷地館５１", "サービスの種類": "小規模多機能型居宅介護" }, "geometry": { "type": "Point", "coordinates": [ 141.710190899999986, 38.9873537 ] } },
{ "type": "Feature", "properties": { "緯度": 39.033271, "経度": 141.621403, "url": "https://www.kaigokensaku.mhlw.go.jp/03/index.php?action_kouhyou_detail_004_kani=true&JigyosyoCd=391000056-00&ServiceCd=730&Type=search", "url2": "http://www.shokyukai.or.jp/", "内容": "小規模多機能ホーム玉山【小規模多機能型居宅介護】岩手県陸前高田市竹駒町字相川73-30", "サービスの種類": "小規模多機能型居宅介護" }, "geometry": { "type": "Point", "coordinates": [ 141.621403, 39.033271 ] } },
{ "type": "Feature", "properties": { "緯度": 39.026137636979769, "経度": 141.63676748902441, "url": "https://www.kaigokensaku.mhlw.go.jp/03/index.php?action_kouhyou_detail_004_kani=true&JigyosyoCd=391000106-00&ServiceCd=730&Type=search", "url2": "http://rikutaka-koujyukai.com", "内容": "なごみの家指定小規模多機能型居宅介護事業所【小規模多機能型居宅介護】岩手県陸前高田市高田町字中和野87番1", "サービスの種類": "小規模多機能型居宅介護" }, "geometry": { "type": "Point", "coordinates": [ 141.636767489024407, 39.026137636979769 ] } },
{ "type": "Feature", "properties": { "緯度": 39.2465751, "経度": 141.8856953, "url": "https://www.kaigokensaku.mhlw.go.jp/03/index.php?action_kouhyou_detail_004_kani=true&JigyosyoCd=371100777-00&ServiceCd=730&Type=search", "url2": "https://zen-project.jimdo.com/", "内容": "小規模多機能センター善【小規模多機能型居宅介護】岩手県釜石市大字平田第３地割２９番地１０", "サービスの種類": "小規模多機能型居宅介護" }, "geometry": { "type": "Point", "coordinates": [ 141.8856953, 39.2465751 ] } },
{ "type": "Feature", "properties": { "緯度": 39.3349057, "経度": 141.8886817, "url": "https://www.kaigokensaku.mhlw.go.jp/03/index.php?action_kouhyou_detail_004_kani=true&JigyosyoCd=391100039-00&ServiceCd=730&Type=search", "url2": null, "内容": "あお空小規模多機能センター釜石【小規模多機能型居宅介護】岩手県釜石市片岸町第2地割13-28", "サービスの種類": "小規模多機能型居宅介護" }, "geometry": { "type": "Point", "coordinates": [ 141.8886817, 39.3349057 ] } },
{ "type": "Feature", "properties": { "緯度": 40.183375, "経度": 141.157834, "url": "https://www.kaigokensaku.mhlw.go.jp/03/index.php?action_kouhyou_detail_004_kani=true&JigyosyoCd=391300050-00&ServiceCd=730&Type=search", "url2": "http://ninohe-shakyo.jp", "内容": "小規模多機能型居宅まいにち館【小規模多機能型居宅介護】岩手県二戸市浄法寺町浄法寺84番地", "サービスの種類": "小規模多機能型居宅介護" }, "geometry": { "type": "Point", "coordinates": [ 141.157834, 40.183375 ] } },
{ "type": "Feature", "properties": { "緯度": 39.927933723290131, "経度": 141.06250701957379, "url": "https://www.kaigokensaku.mhlw.go.jp/03/index.php?action_kouhyou_detail_004_kani=true&JigyosyoCd=391400082-00&ServiceCd=730&Type=search", "url2": "http://www.s-tumugi.jp/", "内容": "小規模多機能ホームくるまっこ【小規模多機能型居宅介護】岩手県八幡平市田頭12-94-1", "サービスの種類": "小規模多機能型居宅介護" }, "geometry": { "type": "Point", "coordinates": [ 141.062507019573786, 39.927933723290131 ] } },
{ "type": "Feature", "properties": { "緯度": 39.954211589424531, "経度": 141.0984530650818, "url": "https://www.kaigokensaku.mhlw.go.jp/03/index.php?action_kouhyou_detail_004_kani=true&JigyosyoCd=391400033-00&ServiceCd=730&Type=search", "url2": "http://www.nishinekai.jp", "内容": "陽だまりの家平舘【小規模多機能型居宅介護】岩手県八幡平市堀切14地割49番地１", "サービスの種類": "小規模多機能型居宅介護" }, "geometry": { "type": "Point", "coordinates": [ 141.098453065081799, 39.954211589424531 ] } },
{ "type": "Feature", "properties": { "緯度": 39.141905470485341, "経度": 141.1412415767212, "url": "https://www.kaigokensaku.mhlw.go.jp/03/index.php?action_kouhyou_detail_004_kani=true&JigyosyoCd=391500048-00&ServiceCd=730&Type=search", "url2": null, "内容": "奥州壱番館【小規模多機能型居宅介護】岩手県奥州市水沢字大町５７番地", "サービスの種類": "小規模多機能型居宅介護" }, "geometry": { "type": "Point", "coordinates": [ 141.1412415767212, 39.141905470485341 ] } },
{ "type": "Feature", "properties": { "緯度": 39.1194445, "経度": 141.108689, "url": "https://www.kaigokensaku.mhlw.go.jp/03/index.php?action_kouhyou_detail_004_kani=true&JigyosyoCd=391500188-00&ServiceCd=730&Type=search", "url2": "http://www.jyusuikai.jp", "内容": "小規模多機能ホーム見分けの森【小規模多機能型居宅介護】岩手県奥州市胆沢小山字森下52番地23", "サービスの種類": "小規模多機能型居宅介護" }, "geometry": { "type": "Point", "coordinates": [ 141.108689, 39.1194445 ] } },
{ "type": "Feature", "properties": { "緯度": 39.1434257, "経度": 141.1371842, "url": "https://www.kaigokensaku.mhlw.go.jp/03/index.php?action_kouhyou_detail_004_kani=true&JigyosyoCd=391500394-00&ServiceCd=730&Type=search", "url2": null, "内容": "小規模多機能ホームみんなの居場所「吉小路」【小規模多機能型居宅介護】岩手県奥州市水沢吉小路26番地8", "サービスの種類": "小規模多機能型居宅介護" }, "geometry": { "type": "Point", "coordinates": [ 141.1371842, 39.1434257 ] } },
{ "type": "Feature", "properties": { "緯度": 39.150025979011453, "経度": 141.1446045718277, "url": "https://www.kaigokensaku.mhlw.go.jp/03/index.php?action_kouhyou_detail_004_kani=true&JigyosyoCd=391500410-00&ServiceCd=730&Type=search", "url2": "http://www.yutaka-oshu.com/", "内容": "小規模多機能ホームゆたか【小規模多機能型居宅介護】岩手県奥州市水沢秋葉町67番地2", "サービスの種類": "小規模多機能型居宅介護" }, "geometry": { "type": "Point", "coordinates": [ 141.144604571827699, 39.150025979011453 ] } },
{ "type": "Feature", "properties": { "緯度": 39.1238227, "経度": 141.1302001, "url": "https://www.kaigokensaku.mhlw.go.jp/03/index.php?action_kouhyou_detail_004_kani=true&JigyosyoCd=391500469-00&ServiceCd=730&Type=search", "url2": "http://www.yutaka-oshu.com", "内容": "小規模多機能ホームゆたかみずさわ南【小規模多機能型居宅介護】岩手県奥州市水沢桜屋敷485番地", "サービスの種類": "小規模多機能型居宅介護" }, "geometry": { "type": "Point", "coordinates": [ 141.1302001, 39.1238227 ] } },
{ "type": "Feature", "properties": { "緯度": 39.0630424, "経度": 141.1253199, "url": "https://www.kaigokensaku.mhlw.go.jp/03/index.php?action_kouhyou_detail_004_kani=true&JigyosyoCd=391500071-00&ServiceCd=730&Type=search", "url2": null, "内容": "小規模多機能型居宅あすも【小規模多機能型居宅介護】岩手県奥州市前沢字山下１４９－１", "サービスの種類": "小規模多機能型居宅介護" }, "geometry": { "type": "Point", "coordinates": [ 141.1253199, 39.0630424 ] } },
{ "type": "Feature", "properties": { "緯度": 39.736522366020679, "経度": 141.08771296018841, "url": "https://www.kaigokensaku.mhlw.go.jp/03/index.php?action_kouhyou_detail_004_kani=true&JigyosyoCd=391600020-00&ServiceCd=730&Type=search", "url2": "http://shoujitsukai.or.jp", "内容": "小規模多機能型居宅介護事業所おはな【小規模多機能型居宅介護】岩手県滝沢市鵜飼狐洞1番地162松実会複合型福祉施設", "サービスの種類": "小規模多機能型居宅介護" }, "geometry": { "type": "Point", "coordinates": [ 141.087712960188412, 39.736522366020679 ] } },
{ "type": "Feature", "properties": { "緯度": 39.7153252, "経度": 141.02193050000011, "url": "https://www.kaigokensaku.mhlw.go.jp/03/index.php?action_kouhyou_detail_004_kani=true&JigyosyoCd=391600012-00&ServiceCd=730&Type=search", "url2": "http://belvere.com/", "内容": "小規模多機能型居宅介護施設ベルヴェーレの里【小規模多機能型居宅介護】岩手県滝沢市大釜風林445番地1複合型福祉施設　ベルヴェーレの里", "サービスの種類": "小規模多機能型居宅介護" }, "geometry": { "type": "Point", "coordinates": [ 141.02193050000011, 39.7153252 ] } },
{ "type": "Feature", "properties": { "緯度": 40.0065484, "経度": 141.4785757, "url": "https://www.kaigokensaku.mhlw.go.jp/03/index.php?action_kouhyou_detail_004_kani=true&JigyosyoCd=392100053-00&ServiceCd=730&Type=search", "url2": "http://www.athome-kuzumaki.or.jp", "内容": "小規模多機能型居宅介護支援施設マイホームくずまき【小規模多機能型居宅介護】岩手県岩手郡葛巻町江刈5-59-5", "サービスの種類": "小規模多機能型居宅介護" }, "geometry": { "type": "Point", "coordinates": [ 141.4785757, 40.0065484 ] } },
{ "type": "Feature", "properties": { "緯度": 39.5640835, "経度": 141.1665879, "url": "https://www.kaigokensaku.mhlw.go.jp/03/index.php?action_kouhyou_detail_004_kani=true&JigyosyoCd=392200036-00&ServiceCd=730&Type=search", "url2": null, "内容": "えんどり小規模多機能型居宅介護事業所【小規模多機能型居宅介護】岩手県紫波郡紫波町二日町字山子３６－２", "サービスの種類": "小規模多機能型居宅介護" }, "geometry": { "type": "Point", "coordinates": [ 141.1665879, 39.5640835 ] } },
{ "type": "Feature", "properties": { "緯度": 39.57356346454408, "経度": 141.14051221751089, "url": "https://www.kaigokensaku.mhlw.go.jp/03/index.php?action_kouhyou_detail_004_kani=true&JigyosyoCd=392200010-00&ServiceCd=730&Type=search", "url2": null, "内容": "小規模多機能型居宅介護事業所むつき【小規模多機能型居宅介護】岩手県紫波郡矢巾町太田17-13-1", "サービスの種類": "小規模多機能型居宅介護" }, "geometry": { "type": "Point", "coordinates": [ 141.140512217510889, 39.57356346454408 ] } },
{ "type": "Feature", "properties": { "緯度": 39.3126043, "経度": 140.77608869999989, "url": "https://www.kaigokensaku.mhlw.go.jp/03/index.php?action_kouhyou_detail_004_kani=true&JigyosyoCd=392400032-00&ServiceCd=730&Type=search", "url2": "https://www.koujyukai.or.jp/", "内容": "小規模多機能ホームひなたぼっこ【小規模多機能型居宅介護】岩手県和賀郡西和賀町上野々３９地割１８０番地", "サービスの種類": "小規模多機能型居宅介護" }, "geometry": { "type": "Point", "coordinates": [ 140.776088699999889, 39.3126043 ] } },
{ "type": "Feature", "properties": { "緯度": 39.29692350440839, "経度": 140.72866604800899, "url": "https://www.kaigokensaku.mhlw.go.jp/03/index.php?action_kouhyou_detail_004_kani=true&JigyosyoCd=392400057-00&ServiceCd=730&Type=search", "url2": "https://www.nisiwaga.net/yukitsubaki", "内容": "小規模多機能ホーム雪つばきの里【小規模多機能型居宅介護】岩手県和賀郡西和賀町越中畑64-1-20", "サービスの種類": "小規模多機能型居宅介護" }, "geometry": { "type": "Point", "coordinates": [ 140.728666048008989, 39.29692350440839 ] } },
{ "type": "Feature", "properties": { "緯度": 39.396443363826272, "経度": 140.7562400123031, "url": "https://www.kaigokensaku.mhlw.go.jp/03/index.php?action_kouhyou_detail_004_kani=true&JigyosyoCd=392400024-00&ServiceCd=730&Type=search", "url2": "http://www.iwate-tanaken.com/yuikko/index.html", "内容": "介護ステーションゆいっこ小規模多機能ホーム【小規模多機能型居宅介護】岩手県和賀郡西和賀町沢内字新町４地割３２番地１", "サービスの種類": "小規模多機能型居宅介護" }, "geometry": { "type": "Point", "coordinates": [ 140.756240012303095, 39.396443363826272 ] } },
{ "type": "Feature", "properties": { "緯度": 39.1988751, "経度": 141.1172378, "url": "https://www.kaigokensaku.mhlw.go.jp/03/index.php?action_kouhyou_detail_004_kani=true&JigyosyoCd=392500047-00&ServiceCd=730&Type=search", "url2": "http://www.yuaikai-kanegasaki.com/", "内容": "交流ステーション友愛園【小規模多機能型居宅介護】岩手県胆沢郡金ヶ崎町西根矢来５番地", "サービスの種類": "小規模多機能型居宅介護" }, "geometry": { "type": "Point", "coordinates": [ 141.1172378, 39.1988751 ] } },
{ "type": "Feature", "properties": { "緯度": 39.1889111, "経度": 141.0037506, "url": "https://www.kaigokensaku.mhlw.go.jp/03/index.php?action_kouhyou_detail_004_kani=true&JigyosyoCd=392500039-00&ServiceCd=730&Type=search", "url2": "http://kanegasaki.oshushi.com/seikoso.php", "内容": "介護予防施設西光荘【小規模多機能型居宅介護】岩手県胆沢郡金ケ崎町西根和光５４４番地２", "サービスの種類": "小規模多機能型居宅介護" }, "geometry": { "type": "Point", "coordinates": [ 141.003750599999989, 39.1889111 ] } },
{ "type": "Feature", "properties": { "緯度": 39.38090532751913, "経度": 141.88555415804441, "url": "https://www.kaigokensaku.mhlw.go.jp/03/index.php?action_kouhyou_detail_004_kani=true&JigyosyoCd=392900023-00&ServiceCd=730&Type=search", "url2": "https://www.otsuchi-shakyo.jp", "内容": "ほっとおおつち【小規模多機能型居宅介護】岩手県上閉伊郡大槌町大槌12-71-2ほっと　おおつち", "サービスの種類": "小規模多機能型居宅介護" }, "geometry": { "type": "Point", "coordinates": [ 141.885554158044414, 39.38090532751913 ] } },
{ "type": "Feature", "properties": { "緯度": 39.357334758182851, "経度": 141.8808165253362, "url": "https://www.kaigokensaku.mhlw.go.jp/03/index.php?action_kouhyou_detail_004_kani=true&JigyosyoCd=392900064-00&ServiceCd=730&Type=search", "url2": null, "内容": "小規模多機能型居宅介護事業所ハイスこづち【小規模多機能型居宅介護】岩手県上閉伊郡大槌町小鎚第２３地割８３番地１", "サービスの種類": "小規模多機能型居宅介護" }, "geometry": { "type": "Point", "coordinates": [ 141.880816525336201, 39.357334758182851 ] } },
{ "type": "Feature", "properties": { "緯度": 39.477128137736898, "経度": 141.95955882090149, "url": "https://www.kaigokensaku.mhlw.go.jp/03/index.php?action_kouhyou_detail_004_kani=true&JigyosyoCd=393000104-00&ServiceCd=730&Type=search", "url2": null, "内容": "小規模多機能型居宅介護事業所恵みの里眺望【小規模多機能型居宅介護】岩手県下閉伊郡山田町山田第1地割11番地3", "サービスの種類": "小規模多機能型居宅介護" }, "geometry": { "type": "Point", "coordinates": [ 141.959558820901492, 39.477128137736898 ] } },
{ "type": "Feature", "properties": { "緯度": 39.435866601999393, "経度": 141.98392668273979, "url": "https://www.kaigokensaku.mhlw.go.jp/03/index.php?action_kouhyou_detail_004_kani=true&JigyosyoCd=393000039-00&ServiceCd=730&Type=search", "url2": "http://honbu0704.ec-net.jp/", "内容": "小規模多機能センター絆の里やすらぎ【小規模多機能型居宅介護】岩手県下閉伊郡山田町船越9-26-18", "サービスの種類": "小規模多機能型居宅介護" }, "geometry": { "type": "Point", "coordinates": [ 141.983926682739792, 39.435866601999393 ] } },
{ "type": "Feature", "properties": { "緯度": 39.8440322, "経度": 141.9688109, "url": "https://www.kaigokensaku.mhlw.go.jp/03/index.php?action_kouhyou_detail_004_kani=true&JigyosyoCd=393000021-00&ServiceCd=730&Type=search", "url2": null, "内容": "小規模多機能センターあお空【小規模多機能型居宅介護】岩手県下閉伊郡岩泉町小本字南中野２８９", "サービスの種類": "小規模多機能型居宅介護" }, "geometry": { "type": "Point", "coordinates": [ 141.9688109, 39.8440322 ] } },
{ "type": "Feature", "properties": { "緯度": 39.9984746, "経度": 141.9299685, "url": "https://www.kaigokensaku.mhlw.go.jp/03/index.php?action_kouhyou_detail_004_kani=true&JigyosyoCd=393000112-00&ServiceCd=730&Type=search", "url2": "https://www.unetorisou.com", "内容": "くろさき小規模多機能ホーム【小規模多機能型居宅介護】岩手県下閉伊郡普代村第1地割字上村4番地1", "サービスの種類": "小規模多機能型居宅介護" }, "geometry": { "type": "Point", "coordinates": [ 141.9299685, 39.9984746 ] } },
{ "type": "Feature", "properties": { "緯度": 40.3147163, "経度": 141.4568557, "url": "https://www.kaigokensaku.mhlw.go.jp/03/index.php?action_kouhyou_detail_004_kani=true&JigyosyoCd=393100086-00&ServiceCd=730&Type=search", "url2": "http://www.reitakukai.net", "内容": "小規模多機能ホーム花の里かるまい【小規模多機能型居宅介護】岩手県九戸郡軽米町大字軽米第２２地割４２", "サービスの種類": "小規模多機能型居宅介護" }, "geometry": { "type": "Point", "coordinates": [ 141.4568557, 40.3147163 ] } },
{ "type": "Feature", "properties": { "緯度": 40.2449662, "経度": 141.4120763, "url": "https://www.kaigokensaku.mhlw.go.jp/03/index.php?action_kouhyou_detail_004_kani=true&JigyosyoCd=393100235-00&ServiceCd=730&Type=search", "url2": null, "内容": "「青い空」小規模多機能ホーム【小規模多機能型居宅介護】岩手県九戸郡九戸村大字江刺家第４地割１５番地１", "サービスの種類": "小規模多機能型居宅介護" }, "geometry": { "type": "Point", "coordinates": [ 141.4120763, 40.2449662 ] } },
{ "type": "Feature", "properties": { "緯度": 40.4449052, "経度": 141.6781902, "url": "https://www.kaigokensaku.mhlw.go.jp/03/index.php?action_kouhyou_detail_004_kani=true&JigyosyoCd=393100102-00&ServiceCd=730&Type=search", "url2": null, "内容": "小規模多機能ホームまごころ【小規模多機能型居宅介護】岩手県九戸郡洋野町種市第４１地割１５番地２", "サービスの種類": "小規模多機能型居宅介護" }, "geometry": { "type": "Point", "coordinates": [ 141.678190199999989, 40.4449052 ] } },
{ "type": "Feature", "properties": { "緯度": 40.3342056, "経度": 141.7668034, "url": "https://www.kaigokensaku.mhlw.go.jp/03/index.php?action_kouhyou_detail_004_kani=true&JigyosyoCd=393100045-00&ServiceCd=730&Type=search", "url2": null, "内容": "小規模多機能ホーム「ほがら家」【小規模多機能型居宅介護】岩手県九戸郡洋野町小子内第４地割８５番地２０", "サービスの種類": "小規模多機能型居宅介護" }, "geometry": { "type": "Point", "coordinates": [ 141.766803399999986, 40.3342056 ] } },
{ "type": "Feature", "properties": { "緯度": 40.2833048, "経度": 141.6307548, "url": "https://www.kaigokensaku.mhlw.go.jp/03/index.php?action_kouhyou_detail_004_kani=true&JigyosyoCd=393100201-00&ServiceCd=730&Type=search", "url2": "http://m-kujihirasou.jp", "内容": "小規模多機能ホームくじひら【小規模多機能型居宅介護】岩手県九戸郡洋野町大野第63地割7番地2", "サービスの種類": "小規模多機能型居宅介護" }, "geometry": { "type": "Point", "coordinates": [ 141.6307548, 40.2833048 ] } },
{ "type": "Feature", "properties": { "緯度": 40.3049787, "経度": 141.7727381, "url": "https://www.kaigokensaku.mhlw.go.jp/03/index.php?action_kouhyou_detail_004_kani=true&JigyosyoCd=393100029-00&ServiceCd=730&Type=search", "url2": "https://www.heartfelt-care.com/", "内容": "小規模多機能ホームカッケロ【小規模多機能型居宅介護】岩手県九戸郡洋野町中野第５地割６２番地８", "サービスの種類": "小規模多機能型居宅介護" }, "geometry": { "type": "Point", "coordinates": [ 141.7727381, 40.3049787 ] } },
{ "type": "Feature", "properties": { "緯度": 40.2503969, "経度": 141.6994135, "url": "https://www.kaigokensaku.mhlw.go.jp/03/index.php?action_kouhyou_detail_004_kani=true&JigyosyoCd=393100078-00&ServiceCd=730&Type=search", "url2": null, "内容": "小規模多機能ホームくるみ【小規模多機能型居宅介護】岩手県九戸郡洋野町帯島7地割44番地3", "サービスの種類": "小規模多機能型居宅介護" }, "geometry": { "type": "Point", "coordinates": [ 141.6994135, 40.2503969 ] } }
]
}
