{
"type": "FeatureCollection",
"name": "geo_03_特定施設入居者生活介護（有料老人ホーム（サービス付き高齢者向け住宅））",
"crs": { "type": "name", "properties": { "name": "urn:ogc:def:crs:OGC:1.3:CRS84" } },
"features": [
{ "type": "Feature", "properties": { "緯度": 39.6792493, "経度": 141.1332032, "url": "https://www.kaigokensaku.mhlw.go.jp/03/index.php?action_kouhyou_detail_004_kani=true&JigyosyoCd=370105231-00&ServiceCd=&Type=search", "url2": "http://www.yu-ai.net", "内容": "サービス付き高齢者向け住宅ゆうあいの街【特定施設入居者生活介護（有料老人ホーム（サービス付き高齢者向け住宅））】岩手県盛岡市北飯岡1丁目2-25", "サービスの種類": "特定施設入居者生活介護（有料老人ホーム（サービス付き高齢者向け住宅））" }, "geometry": { "type": "Point", "coordinates": [ 141.1332032, 39.6792493 ] } },
{ "type": "Feature", "properties": { "緯度": 39.698761682365827, "経度": 141.1135623644181, "url": "https://www.kaigokensaku.mhlw.go.jp/03/index.php?action_kouhyou_detail_004_kani=true&JigyosyoCd=370106684-00&ServiceCd=&Type=search", "url2": "https://airinkai.net", "内容": "エイジングホーム健寿庵【特定施設入居者生活介護（有料老人ホーム（サービス付き高齢者向け住宅））】岩手県盛岡市太田六丁目16番3号エイジングホーム健寿庵", "サービスの種類": "特定施設入居者生活介護（有料老人ホーム（サービス付き高齢者向け住宅））" }, "geometry": { "type": "Point", "coordinates": [ 141.113562364418101, 39.698761682365827 ] } },
{ "type": "Feature", "properties": { "緯度": 39.182962062944242, "経度": 141.17136328465571, "url": "https://www.kaigokensaku.mhlw.go.jp/03/index.php?action_kouhyou_detail_004_kani=true&JigyosyoCd=371500240-00&ServiceCd=&Type=search", "url2": null, "内容": "特定施設入居者生活介護事業所安親館【特定施設入居者生活介護（有料老人ホーム（サービス付き高齢者向け住宅））】岩手県奥州市江刺愛宕字観音堂沖400番地1", "サービスの種類": "特定施設入居者生活介護（有料老人ホーム（サービス付き高齢者向け住宅））" }, "geometry": { "type": "Point", "coordinates": [ 141.171363284655712, 39.182962062944242 ] } },
{ "type": "Feature", "properties": { "緯度": 39.1823755, "経度": 141.184472, "url": "https://www.kaigokensaku.mhlw.go.jp/03/index.php?action_kouhyou_detail_004_kani=true&JigyosyoCd=371501248-00&ServiceCd=&Type=search", "url2": "http://www.esashijyuseikai.or.jp", "内容": "サービス付き高齢者向け住宅反町の郷【特定施設入居者生活介護（有料老人ホーム（サービス付き高齢者向け住宅））】岩手県奥州市江刺岩谷堂字反町361番地1反町福祉パーク反町の郷", "サービスの種類": "特定施設入居者生活介護（有料老人ホーム（サービス付き高齢者向け住宅））" }, "geometry": { "type": "Point", "coordinates": [ 141.184472, 39.182375500000013 ] } }
]
}
