{
"type": "FeatureCollection",
"name": "geo_03_認知症対応型通所介護",
"crs": { "type": "name", "properties": { "name": "urn:ogc:def:crs:OGC:1.3:CRS84" } },
"features": [
{ "type": "Feature", "properties": { "緯度": 39.7245861, "経度": 141.12681339999989, "url": "https://www.kaigokensaku.mhlw.go.jp/03/index.php?action_kouhyou_detail_004_kani=true&JigyosyoCd=370102287-00&ServiceCd=720&Type=search", "url2": "https://www.kuruminoie.com", "内容": "デイサービスくるみの家【認知症対応型通所介護】岩手県盛岡市上堂1丁目3番40号", "サービスの種類": "認知症対応型通所介護" }, "geometry": { "type": "Point", "coordinates": [ 141.126813399999889, 39.7245861 ] } },
{ "type": "Feature", "properties": { "緯度": 39.741048299701397, "経度": 141.1518422202378, "url": "https://www.kaigokensaku.mhlw.go.jp/03/index.php?action_kouhyou_detail_004_kani=true&JigyosyoCd=370102261-00&ServiceCd=720&Type=search", "url2": "http://www.wagaya2.jp/", "内容": "第二のわが家「黒石野」デイサービスセンター【認知症対応型通所介護】岩手県盛岡市黒石野一丁目3番38号", "サービスの種類": "認知症対応型通所介護" }, "geometry": { "type": "Point", "coordinates": [ 141.151842220237796, 39.741048299701397 ] } },
{ "type": "Feature", "properties": { "緯度": 39.670406245306211, "経度": 141.17116633068849, "url": "https://www.kaigokensaku.mhlw.go.jp/03/index.php?action_kouhyou_detail_004_kani=true&JigyosyoCd=370102170-00&ServiceCd=720&Type=search", "url2": "https://www.sunme.co.jp/", "内容": "サンパーク笑う門デイサービスセンター【認知症対応型通所介護】岩手県盛岡市門一丁目15－10", "サービスの種類": "認知症対応型通所介護" }, "geometry": { "type": "Point", "coordinates": [ 141.171166330688493, 39.670406245306211 ] } },
{ "type": "Feature", "properties": { "緯度": 39.764181621570202, "経度": 141.96488371097561, "url": "https://www.kaigokensaku.mhlw.go.jp/03/index.php?action_kouhyou_detail_004_kani=true&JigyosyoCd=390200350-00&ServiceCd=720&Type=search", "url2": "http://www.hohoeminosato.jp/", "内容": "グループホームおもつべ【認知症対応型通所介護】岩手県宮古市田老字重津部34番77", "サービスの種類": "認知症対応型通所介護" }, "geometry": { "type": "Point", "coordinates": [ 141.964883710975613, 39.764181621570202 ] } },
{ "type": "Feature", "properties": { "緯度": 39.668528, "経度": 141.9569228, "url": "https://www.kaigokensaku.mhlw.go.jp/03/index.php?action_kouhyou_detail_004_kani=true&JigyosyoCd=390200269-00&ServiceCd=720&Type=search", "url2": "https://www.hohoeminosato.jp/group/", "内容": "グループホームたろう【認知症対応型通所介護】岩手県宮古市崎鍬ヶ崎９－３９－１グループホームたろう", "サービスの種類": "認知症対応型通所介護" }, "geometry": { "type": "Point", "coordinates": [ 141.9569228, 39.668528 ] } },
{ "type": "Feature", "properties": { "緯度": 39.6274438, "経度": 141.836636, "url": "https://www.kaigokensaku.mhlw.go.jp/03/index.php?action_kouhyou_detail_004_kani=true&JigyosyoCd=390200327-00&ServiceCd=720&Type=search", "url2": null, "内容": "JAライフサポートグループホーム花＊花【認知症対応型通所介護】岩手県宮古市蟇目第3地割15番地1", "サービスの種類": "認知症対応型通所介護" }, "geometry": { "type": "Point", "coordinates": [ 141.836636, 39.627443799999988 ] } },
{ "type": "Feature", "properties": { "緯度": 39.346760992004533, "経度": 141.04668205396729, "url": "https://www.kaigokensaku.mhlw.go.jp/03/index.php?action_kouhyou_detail_004_kani=true&JigyosyoCd=390500296-00&ServiceCd=720&Type=search", "url2": "https://www.jahanamaki.or.jp/fukushi/index.html", "内容": "JAいわて花巻グループホームとどろき【認知症対応型通所介護】岩手県花巻市北笹間13-71", "サービスの種類": "認知症対応型通所介護" }, "geometry": { "type": "Point", "coordinates": [ 141.046682053967288, 39.346760992004533 ] } },
{ "type": "Feature", "properties": { "緯度": 39.3973654, "経度": 141.1967023, "url": "https://www.kaigokensaku.mhlw.go.jp/03/index.php?action_kouhyou_detail_004_kani=true&JigyosyoCd=370500431-00&ServiceCd=720&Type=search", "url2": "http://www.ginganosato.com", "内容": "認知症対応型通所介護銀河の里【認知症対応型通所介護】岩手県花巻市幸田４－１１６－１", "サービスの種類": "認知症対応型通所介護" }, "geometry": { "type": "Point", "coordinates": [ 141.1967023, 39.3973654 ] } },
{ "type": "Feature", "properties": { "緯度": 39.2799061, "経度": 141.1403452, "url": "https://www.kaigokensaku.mhlw.go.jp/03/index.php?action_kouhyou_detail_004_kani=true&JigyosyoCd=390600419-00&ServiceCd=720&Type=search", "url2": "https://yachidamonoie.dai-ichi.com/", "内容": "やちだもの家北上共用型デイサービス【認知症対応型通所介護】岩手県北上市立花17地割1-2ケアタウンやちだもの家Ａ棟", "サービスの種類": "認知症対応型通所介護" }, "geometry": { "type": "Point", "coordinates": [ 141.140345200000013, 39.2799061 ] } },
{ "type": "Feature", "properties": { "緯度": 39.2939927, "経度": 141.122951, "url": "https://www.kaigokensaku.mhlw.go.jp/03/index.php?action_kouhyou_detail_004_kani=true&JigyosyoCd=390600427-00&ServiceCd=720&Type=search", "url2": "https://anju-nakano.com/", "内容": "安寿の里【認知症対応型通所介護】岩手県北上市中野町2丁目12番24号", "サービスの種類": "認知症対応型通所介護" }, "geometry": { "type": "Point", "coordinates": [ 141.122951, 39.2939927 ] } },
{ "type": "Feature", "properties": { "緯度": 40.168530506229231, "経度": 141.73700686574551, "url": "https://www.kaigokensaku.mhlw.go.jp/03/index.php?action_kouhyou_detail_004_kani=true&JigyosyoCd=390700136-00&ServiceCd=720&Type=search", "url2": "https://kohakukai.org/", "内容": "認知症対応型デイサービスセンターきんぎょ【認知症対応型通所介護】岩手県久慈市小久慈町第18地割4番地11", "サービスの種類": "認知症対応型通所介護" }, "geometry": { "type": "Point", "coordinates": [ 141.737006865745514, 40.168530506229231 ] } },
{ "type": "Feature", "properties": { "緯度": 40.1952848, "経度": 141.7744602, "url": "https://www.kaigokensaku.mhlw.go.jp/03/index.php?action_kouhyou_detail_004_kani=true&JigyosyoCd=390700094-00&ServiceCd=720&Type=search", "url2": null, "内容": "デイサービス暖家【認知症対応型通所介護】岩手県久慈市田屋町1-30-40", "サービスの種類": "認知症対応型通所介護" }, "geometry": { "type": "Point", "coordinates": [ 141.7744602, 40.1952848 ] } },
{ "type": "Feature", "properties": { "緯度": 39.3294561, "経度": 141.5311017, "url": "https://www.kaigokensaku.mhlw.go.jp/03/index.php?action_kouhyou_detail_004_kani=true&JigyosyoCd=390800118-00&ServiceCd=720&Type=search", "url2": "http://sankyo-ika.jp/", "内容": "デイサービスセンターあったかいごひといち【認知症対応型通所介護】岩手県遠野市中央通り5-25", "サービスの種類": "認知症対応型通所介護" }, "geometry": { "type": "Point", "coordinates": [ 141.5311017, 39.3294561 ] } },
{ "type": "Feature", "properties": { "緯度": 39.0336093, "経度": 141.2947642, "url": "https://www.kaigokensaku.mhlw.go.jp/03/index.php?action_kouhyou_detail_004_kani=true&JigyosyoCd=372700641-00&ServiceCd=720&Type=search", "url2": null, "内容": "グループホームにこにこだいとう【認知症対応型通所介護】岩手県一関市大東町猿沢字板倉60番地１", "サービスの種類": "認知症対応型通所介護" }, "geometry": { "type": "Point", "coordinates": [ 141.2947642, 39.033609299999988 ] } },
{ "type": "Feature", "properties": { "緯度": 38.9289921, "経度": 141.1493372, "url": "https://www.kaigokensaku.mhlw.go.jp/03/index.php?action_kouhyou_detail_004_kani=true&JigyosyoCd=390900066-00&ServiceCd=720&Type=search", "url2": null, "内容": "ディサービスさくらコンフォート【認知症対応型通所介護】岩手県一関市三関字日照77-2", "サービスの種類": "認知症対応型通所介護" }, "geometry": { "type": "Point", "coordinates": [ 141.1493372, 38.928992099999988 ] } },
{ "type": "Feature", "properties": { "緯度": 39.023989, "経度": 141.6289501, "url": "https://www.kaigokensaku.mhlw.go.jp/03/index.php?action_kouhyou_detail_004_kani=true&JigyosyoCd=371000068-00&ServiceCd=720&Type=search", "url2": "http://rikutaka-koujyukai.com/", "内容": "高田デイサービスセンター指定通所介護事業所【認知症対応型通所介護】岩手県陸前高田市高田町字鳴石52番地31", "サービスの種類": "認知症対応型通所介護" }, "geometry": { "type": "Point", "coordinates": [ 141.6289501, 39.023989 ] } },
{ "type": "Feature", "properties": { "緯度": 39.2754573, "経度": 141.8821109, "url": "https://www.kaigokensaku.mhlw.go.jp/03/index.php?action_kouhyou_detail_004_kani=true&JigyosyoCd=391100120-00&ServiceCd=720&Type=search", "url2": "http://yakata-home.com/", "内容": "デイサービスやかた【認知症対応型通所介護】岩手県釜石市大町三丁目9－16", "サービスの種類": "認知症対応型通所介護" }, "geometry": { "type": "Point", "coordinates": [ 141.882110899999986, 39.2754573 ] } },
{ "type": "Feature", "properties": { "緯度": 39.2465751, "経度": 141.8856953, "url": "https://www.kaigokensaku.mhlw.go.jp/03/index.php?action_kouhyou_detail_004_kani=true&JigyosyoCd=371100777-00&ServiceCd=720&Type=search", "url2": "https://zen-project.jimdo.com/", "内容": "デイサービスセンター善【認知症対応型通所介護】岩手県釜石市大字平田第３地割２９番地１０", "サービスの種類": "認知症対応型通所介護" }, "geometry": { "type": "Point", "coordinates": [ 141.8856953, 39.2465751 ] } },
{ "type": "Feature", "properties": { "緯度": 39.92819892740156, "経度": 141.06302646826171, "url": "https://www.kaigokensaku.mhlw.go.jp/03/index.php?action_kouhyou_detail_004_kani=true&JigyosyoCd=391400074-00&ServiceCd=720&Type=search", "url2": "http://www.s-tumugi.jp", "内容": "認知症対応型通所介護事業所里・つむぎ【認知症対応型通所介護】岩手県八幡平市田頭12-99-1", "サービスの種類": "認知症対応型通所介護" }, "geometry": { "type": "Point", "coordinates": [ 141.063026468261711, 39.92819892740156 ] } },
{ "type": "Feature", "properties": { "緯度": 39.1293505, "経度": 141.0693561, "url": "https://www.kaigokensaku.mhlw.go.jp/03/index.php?action_kouhyou_detail_004_kani=true&JigyosyoCd=372500488-00&ServiceCd=720&Type=search", "url2": "https://www.oshuisawakai.iwate.jp/", "内容": "ぬくもりの家デイサービスセンター【認知症対応型通所介護】岩手県奥州市胆沢南都田字大持30番地", "サービスの種類": "認知症対応型通所介護" }, "geometry": { "type": "Point", "coordinates": [ 141.0693561, 39.129350500000022 ] } },
{ "type": "Feature", "properties": { "緯度": 39.1193961, "経度": 141.0676399, "url": "https://www.kaigokensaku.mhlw.go.jp/03/index.php?action_kouhyou_detail_004_kani=true&JigyosyoCd=391500212-00&ServiceCd=720&Type=search", "url2": null, "内容": "デイサービスセンターじゅあんの園【認知症対応型通所介護】岩手県奥州市胆沢南都田石行30番地1いさわ高齢者複合施設じゅあんの園", "サービスの種類": "認知症対応型通所介護" }, "geometry": { "type": "Point", "coordinates": [ 141.067639899999989, 39.1193961 ] } },
{ "type": "Feature", "properties": { "緯度": 39.1874707, "経度": 141.2341723, "url": "https://www.kaigokensaku.mhlw.go.jp/03/index.php?action_kouhyou_detail_004_kani=true&JigyosyoCd=391500162-00&ServiceCd=720&Type=search", "url2": "http://www.koyo-esashi.co.jp", "内容": "ふじの里デイサービスルーム【認知症対応型通所介護】岩手県奥州市江刺藤里字平37番地２", "サービスの種類": "認知症対応型通所介護" }, "geometry": { "type": "Point", "coordinates": [ 141.234172300000012, 39.187470700000013 ] } },
{ "type": "Feature", "properties": { "緯度": 39.7971304, "経度": 141.1501531, "url": "https://www.kaigokensaku.mhlw.go.jp/03/index.php?action_kouhyou_detail_004_kani=true&JigyosyoCd=391600046-00&ServiceCd=720&Type=search", "url2": "http://www.magonote.cc", "内容": "ケアホームまごのてお茶のみクラブ【認知症対応型通所介護】岩手県滝沢市野沢62-1041", "サービスの種類": "認知症対応型通所介護" }, "geometry": { "type": "Point", "coordinates": [ 141.150153100000011, 39.7971304 ] } },
{ "type": "Feature", "properties": { "緯度": 39.641011488479982, "経度": 140.93089603385349, "url": "https://www.kaigokensaku.mhlw.go.jp/03/index.php?action_kouhyou_detail_004_kani=true&JigyosyoCd=392100186-00&ServiceCd=720&Type=search", "url2": "http://ousyuku.blog55.fc2.com/", "内容": "デイサービスセンターおうしゅく【認知症対応型通所介護】岩手県岩手郡雫石町鶯宿第9地割67番地1特別養護老人ホームおうしゅく", "サービスの種類": "認知症対応型通所介護" }, "geometry": { "type": "Point", "coordinates": [ 140.930896033853486, 39.641011488479982 ] } },
{ "type": "Feature", "properties": { "緯度": 39.9995874, "経度": 141.2370108, "url": "https://www.kaigokensaku.mhlw.go.jp/03/index.php?action_kouhyou_detail_004_kani=true&JigyosyoCd=392100020-00&ServiceCd=720&Type=search", "url2": "https://kaigoiwate.com", "内容": "デイサービス和や家～なごやか～【認知症対応型通所介護】岩手県岩手郡岩手町大字沼宮内第18地割85番地4", "サービスの種類": "認知症対応型通所介護" }, "geometry": { "type": "Point", "coordinates": [ 141.2370108, 39.999587400000017 ] } },
{ "type": "Feature", "properties": { "緯度": 39.6137574, "経度": 141.1428274, "url": "https://www.kaigokensaku.mhlw.go.jp/03/index.php?action_kouhyou_detail_004_kani=true&JigyosyoCd=392200044-00&ServiceCd=720&Type=search", "url2": "http://www.ccnansyou.com/", "内容": "デイサービスつむぎ【認知症対応型通所介護】岩手県紫波郡矢巾町又兵エ新田第５地割335番地医療福祉多機能ビル　ケアセンター南昌", "サービスの種類": "認知症対応型通所介護" }, "geometry": { "type": "Point", "coordinates": [ 141.142827399999987, 39.6137574 ] } },
{ "type": "Feature", "properties": { "緯度": 39.3404355, "経度": 140.7733492, "url": "https://www.kaigokensaku.mhlw.go.jp/03/index.php?action_kouhyou_detail_004_kani=true&JigyosyoCd=392400040-00&ServiceCd=720&Type=search", "url2": null, "内容": "医療法人社団真心会グループホーム笹の木【認知症対応型通所介護】岩手県和賀郡西和賀町湯本30地割74-8", "サービスの種類": "認知症対応型通所介護" }, "geometry": { "type": "Point", "coordinates": [ 140.773349200000013, 39.3404355 ] } },
{ "type": "Feature", "properties": { "緯度": 39.431738, "経度": 140.7495021, "url": "https://www.kaigokensaku.mhlw.go.jp/03/index.php?action_kouhyou_detail_004_kani=true&JigyosyoCd=372400150-00&ServiceCd=720&Type=search", "url2": "http://yasuragikai.com/", "内容": "デイサービスセンターぶなの園【認知症対応型通所介護】岩手県和賀郡西和賀町沢内字太田２地割１３５番地", "サービスの種類": "認知症対応型通所介護" }, "geometry": { "type": "Point", "coordinates": [ 140.7495021, 39.431738 ] } },
{ "type": "Feature", "properties": { "緯度": 39.1889111, "経度": 141.0037506, "url": "https://www.kaigokensaku.mhlw.go.jp/03/index.php?action_kouhyou_detail_004_kani=true&JigyosyoCd=392500021-00&ServiceCd=720&Type=search", "url2": "https://kanegasaki.oshushi.com/seikoso.php", "内容": "介護予防施設西光荘【認知症対応型通所介護】岩手県胆沢郡金ケ崎町西根和光５４４番地２", "サービスの種類": "認知症対応型通所介護" }, "geometry": { "type": "Point", "coordinates": [ 141.003750599999989, 39.1889111 ] } },
{ "type": "Feature", "properties": { "緯度": 38.961565, "経度": 141.1225844, "url": "https://www.kaigokensaku.mhlw.go.jp/03/index.php?action_kouhyou_detail_004_kani=true&JigyosyoCd=392600037-00&ServiceCd=720&Type=search", "url2": "http://www.cc-ikoi.com/", "内容": "デイサービスセンターいこいの杜【認知症対応型通所介護】岩手県西磐井郡平泉町平泉字樋の沢25-1", "サービスの種類": "認知症対応型通所介護" }, "geometry": { "type": "Point", "coordinates": [ 141.1225844, 38.961565 ] } },
{ "type": "Feature", "properties": { "緯度": 39.9636568, "経度": 141.9348588, "url": "https://www.kaigokensaku.mhlw.go.jp/03/index.php?action_kouhyou_detail_004_kani=true&JigyosyoCd=393000088-00&ServiceCd=720&Type=search", "url2": null, "内容": "デイサービスつくえ【認知症対応型通所介護】岩手県下閉伊郡田野畑村机２９９番地", "サービスの種類": "認知症対応型通所介護" }, "geometry": { "type": "Point", "coordinates": [ 141.9348588, 39.9636568 ] } },
{ "type": "Feature", "properties": { "緯度": 40.0830032, "経度": 141.82830220000011, "url": "https://www.kaigokensaku.mhlw.go.jp/03/index.php?action_kouhyou_detail_004_kani=true&JigyosyoCd=393100185-00&ServiceCd=720&Type=search", "url2": "https://peraichi.com/landing_pages/view/kenjikai001", "内容": "デイサービスぬくもり【認知症対応型通所介護】岩手県九戸郡野田村大字玉川第５地割４５－２２", "サービスの種類": "認知症対応型通所介護" }, "geometry": { "type": "Point", "coordinates": [ 141.82830220000011, 40.0830032 ] } },
{ "type": "Feature", "properties": { "緯度": 40.4427443, "経度": 141.6771654, "url": "https://www.kaigokensaku.mhlw.go.jp/03/index.php?action_kouhyou_detail_004_kani=true&JigyosyoCd=393100151-00&ServiceCd=720&Type=search", "url2": null, "内容": "デイサービスセンターすみれ【認知症対応型通所介護】岩手県九戸郡洋野町種市第40地割22番地2", "サービスの種類": "認知症対応型通所介護" }, "geometry": { "type": "Point", "coordinates": [ 141.6771654, 40.4427443 ] } },
{ "type": "Feature", "properties": { "緯度": 40.2156701, "経度": 141.2997791, "url": "https://www.kaigokensaku.mhlw.go.jp/03/index.php?action_kouhyou_detail_004_kani=true&JigyosyoCd=391300019-00&ServiceCd=720&Type=search", "url2": null, "内容": "グループホームにこトピア一戸【認知症対応型通所介護】岩手県二戸郡一戸町一戸字向町56番地1", "サービスの種類": "認知症対応型通所介護" }, "geometry": { "type": "Point", "coordinates": [ 141.2997791, 40.2156701 ] } }
]
}
