{
"type": "FeatureCollection",
"name": "geo_03_介護医療院",
"crs": { "type": "name", "properties": { "name": "urn:ogc:def:crs:OGC:1.3:CRS84" } },
"features": [
{ "type": "Feature", "properties": { "緯度": 39.6971554, "経度": 141.1490812, "url": "https://www.kaigokensaku.mhlw.go.jp/03/index.php?action_kouhyou_detail_004_kani=true&JigyosyoCd=03B0100035-00&ServiceCd=550&Type=search", "url2": "http://www.toyama-byouin.jp", "内容": "介護医療院とおやま【介護医療院】岩手県盛岡市下ノ橋町６－１４", "サービスの種類": "介護医療院" }, "geometry": { "type": "Point", "coordinates": [ 141.149081200000012, 39.6971554 ] } },
{ "type": "Feature", "properties": { "緯度": 39.8376541, "経度": 141.1649134, "url": "https://www.kaigokensaku.mhlw.go.jp/03/index.php?action_kouhyou_detail_004_kani=true&JigyosyoCd=03B0100027-00&ServiceCd=550&Type=search", "url2": "http://shibutamihp.byoinnavi.jp", "内容": "渋民中央病院介護医療院【介護医療院】岩手県盛岡市渋民字大前田53番地2", "サービスの種類": "介護医療院" }, "geometry": { "type": "Point", "coordinates": [ 141.164913399999989, 39.8376541 ] } },
{ "type": "Feature", "properties": { "緯度": 39.7622442, "経度": 141.1774179, "url": "https://www.kaigokensaku.mhlw.go.jp/03/index.php?action_kouhyou_detail_004_kani=true&JigyosyoCd=03B0100050-00&ServiceCd=550&Type=search", "url2": "https://matsuzono.jp/kaigoiryouin_information/", "内容": "松園病院介護医療院【介護医療院】岩手県盛岡市北松園四丁目36番75号", "サービスの種類": "介護医療院" }, "geometry": { "type": "Point", "coordinates": [ 141.1774179, 39.7622442 ] } },
{ "type": "Feature", "properties": { "緯度": 39.738143, "経度": 141.1137246, "url": "https://www.kaigokensaku.mhlw.go.jp/03/index.php?action_kouhyou_detail_004_kani=true&JigyosyoCd=03B0100068-00&ServiceCd=550&Type=search", "url2": null, "内容": "介護医療院フォーユーみたけ【介護医療院】岩手県盛岡市みたけ3丁目11番36号", "サービスの種類": "介護医療院" }, "geometry": { "type": "Point", "coordinates": [ 141.113724600000012, 39.738143 ] } },
{ "type": "Feature", "properties": { "緯度": 39.711036, "経度": 141.140857, "url": "https://www.kaigokensaku.mhlw.go.jp/03/index.php?action_kouhyou_detail_004_kani=true&JigyosyoCd=03B0100019-00&ServiceCd=550&Type=search", "url2": "http://www.o-med.net", "内容": "介護医療院おいかわ内科クリニック【介護医療院】岩手県盛岡市上田1丁目18番46号", "サービスの種類": "介護医療院" }, "geometry": { "type": "Point", "coordinates": [ 141.140857, 39.711036 ] } },
{ "type": "Feature", "properties": { "緯度": 39.6888067, "経度": 141.1376725, "url": "https://www.kaigokensaku.mhlw.go.jp/03/index.php?action_kouhyou_detail_004_kani=true&JigyosyoCd=03B0100043-00&ServiceCd=550&Type=search", "url2": "https://www.kamata-cl.com", "内容": "鎌田内科クリニック介護医療院【介護医療院】岩手県盛岡市本宮2-20-1", "サービスの種類": "介護医療院" }, "geometry": { "type": "Point", "coordinates": [ 141.1376725, 39.6888067 ] } },
{ "type": "Feature", "properties": { "緯度": 39.4189846, "経度": 141.0125034, "url": "https://www.kaigokensaku.mhlw.go.jp/03/index.php?action_kouhyou_detail_004_kani=true&JigyosyoCd=03B0500010-00&ServiceCd=550&Type=search", "url2": null, "内容": "イーハトーブ介護医療院【介護医療院】岩手県花巻市湯口字志戸平14番地1", "サービスの種類": "介護医療院" }, "geometry": { "type": "Point", "coordinates": [ 141.012503400000014, 39.418984599999987 ] } },
{ "type": "Feature", "properties": { "緯度": 40.200896227940611, "経度": 141.7903331171967, "url": "https://www.kaigokensaku.mhlw.go.jp/03/index.php?action_kouhyou_detail_004_kani=true&JigyosyoCd=03B0700016-00&ServiceCd=550&Type=search", "url2": "https://kujikeiai.jimdofree.com/", "内容": "久慈恵愛病院介護医療院【介護医療院】岩手県久慈市湊町第17地割100番地", "サービスの種類": "介護医療院" }, "geometry": { "type": "Point", "coordinates": [ 141.790333117196695, 40.200896227940611 ] } }
]
}
