{
"type": "FeatureCollection",
"name": "geo_03_特定施設入居者生活介護（軽費老人ホーム）",
"crs": { "type": "name", "properties": { "name": "urn:ogc:def:crs:OGC:1.3:CRS84" } },
"features": [
{ "type": "Feature", "properties": { "緯度": 39.7072948, "経度": 141.0846621000001, "url": "https://www.kaigokensaku.mhlw.go.jp/03/index.php?action_kouhyou_detail_004_kani=true&JigyosyoCd=370103889-00&ServiceCd=332&Type=search", "url2": "https://roushinkai.jp/", "内容": "ケアハウスおでんせ特定施設入居者生活介護【特定施設入居者生活介護（軽費老人ホーム）】岩手県盛岡市上厨川字横長根76番地1", "サービスの種類": "特定施設入居者生活介護（軽費老人ホーム）" }, "geometry": { "type": "Point", "coordinates": [ 141.084662100000088, 39.7072948 ] } },
{ "type": "Feature", "properties": { "緯度": 39.7297524, "経度": 141.1454727, "url": "https://www.kaigokensaku.mhlw.go.jp/03/index.php?action_kouhyou_detail_004_kani=true&JigyosyoCd=370103376-00&ServiceCd=332&Type=search", "url2": "http://www.reitakukai.net", "内容": "軽費老人ホームケアガーデン高松公園【特定施設入居者生活介護（軽費老人ホーム）】岩手県盛岡市上田字毛無森２番地７", "サービスの種類": "特定施設入居者生活介護（軽費老人ホーム）" }, "geometry": { "type": "Point", "coordinates": [ 141.1454727, 39.7297524 ] } },
{ "type": "Feature", "properties": { "緯度": 39.6901378, "経度": 141.0658584, "url": "https://www.kaigokensaku.mhlw.go.jp/03/index.php?action_kouhyou_detail_004_kani=true&JigyosyoCd=370105058-00&ServiceCd=332&Type=search", "url2": "http://www.reitakukai.net", "内容": "軽費老人ホームケアハウス麗沢【特定施設入居者生活介護（軽費老人ホーム）】岩手県盛岡市猪去三枚橋21番地", "サービスの種類": "特定施設入居者生活介護（軽費老人ホーム）" }, "geometry": { "type": "Point", "coordinates": [ 141.0658584, 39.6901378 ] } },
{ "type": "Feature", "properties": { "緯度": 39.4381685, "経度": 141.0792144, "url": "https://www.kaigokensaku.mhlw.go.jp/03/index.php?action_kouhyou_detail_004_kani=true&JigyosyoCd=370501132-00&ServiceCd=332&Type=search", "url2": null, "内容": "ケアハウス金矢【特定施設入居者生活介護（軽費老人ホーム）】岩手県花巻市湯本第19地割408番地ケアハウス金矢", "サービスの種類": "特定施設入居者生活介護（軽費老人ホーム）" }, "geometry": { "type": "Point", "coordinates": [ 141.079214400000012, 39.438168500000039 ] } },
{ "type": "Feature", "properties": { "緯度": 39.5014246, "経度": 141.096385, "url": "https://www.kaigokensaku.mhlw.go.jp/03/index.php?action_kouhyou_detail_004_kani=true&JigyosyoCd=370501561-00&ServiceCd=332&Type=search", "url2": "https://www.jyusuikai.jp", "内容": "ケアハウス千鳥苑【特定施設入居者生活介護（軽費老人ホーム）】岩手県花巻市石鳥谷町大瀬川8-10-1", "サービスの種類": "特定施設入居者生活介護（軽費老人ホーム）" }, "geometry": { "type": "Point", "coordinates": [ 141.096385, 39.5014246 ] } },
{ "type": "Feature", "properties": { "緯度": 39.2675327, "経度": 141.0897853, "url": "https://www.kaigokensaku.mhlw.go.jp/03/index.php?action_kouhyou_detail_004_kani=true&JigyosyoCd=370600934-00&ServiceCd=332&Type=search", "url2": "http://risshokai.jp", "内容": "ケアハウス北星荘【特定施設入居者生活介護（軽費老人ホーム）】岩手県北上市下鬼柳１７地割１２７番地５", "サービスの種類": "特定施設入居者生活介護（軽費老人ホーム）" }, "geometry": { "type": "Point", "coordinates": [ 141.089785299999988, 39.2675327 ] } },
{ "type": "Feature", "properties": { "緯度": 38.8805137, "経度": 141.137915, "url": "https://www.kaigokensaku.mhlw.go.jp/03/index.php?action_kouhyou_detail_004_kani=true&JigyosyoCd=370901282-00&ServiceCd=332&Type=search", "url2": "http://www.riha.jp", "内容": "一関ロイヤルハウス【特定施設入居者生活介護（軽費老人ホーム）】岩手県一関市真柴字吉ヶ沢20-81", "サービスの種類": "特定施設入居者生活介護（軽費老人ホーム）" }, "geometry": { "type": "Point", "coordinates": [ 141.137915, 38.8805137 ] } },
{ "type": "Feature", "properties": { "緯度": 40.296601, "経度": 141.2980666, "url": "https://www.kaigokensaku.mhlw.go.jp/03/index.php?action_kouhyou_detail_004_kani=true&JigyosyoCd=371300401-00&ServiceCd=332&Type=search", "url2": "http://www.reitakukai.net", "内容": "ケアハウスにのへ【特定施設入居者生活介護（軽費老人ホーム）】岩手県二戸市堀野字馬場50-14", "サービスの種類": "特定施設入居者生活介護（軽費老人ホーム）" }, "geometry": { "type": "Point", "coordinates": [ 141.2980666, 40.296601 ] } },
{ "type": "Feature", "properties": { "緯度": 40.304346044283847, "経度": 141.30582926627039, "url": "https://www.kaigokensaku.mhlw.go.jp/03/index.php?action_kouhyou_detail_004_kani=true&JigyosyoCd=371300476-00&ServiceCd=332&Type=search", "url2": "http://www.keisenkai.jp", "内容": "ケアハウスまべち川【特定施設入居者生活介護（軽費老人ホーム）】岩手県二戸市金田一字上田面301番地1", "サービスの種類": "特定施設入居者生活介護（軽費老人ホーム）" }, "geometry": { "type": "Point", "coordinates": [ 141.305829266270393, 40.304346044283847 ] } },
{ "type": "Feature", "properties": { "緯度": 39.915877360898449, "経度": 140.9841057079345, "url": "https://www.kaigokensaku.mhlw.go.jp/03/index.php?action_kouhyou_detail_004_kani=true&JigyosyoCd=371400052-00&ServiceCd=332&Type=search", "url2": "https://michinoku.or.jp/product/care_urvane/", "内容": "ケアハウスアーベイン八幡平【特定施設入居者生活介護（軽費老人ホーム）】岩手県八幡平市柏台二丁目9番3号", "サービスの種類": "特定施設入居者生活介護（軽費老人ホーム）" }, "geometry": { "type": "Point", "coordinates": [ 140.984105707934503, 39.915877360898449 ] } },
{ "type": "Feature", "properties": { "緯度": 39.782808752898823, "経度": 141.13892034120019, "url": "https://www.kaigokensaku.mhlw.go.jp/03/index.php?action_kouhyou_detail_004_kani=true&JigyosyoCd=372101816-00&ServiceCd=332&Type=search", "url2": "https://www.shoujitsukai.or.jp", "内容": "介護付軽費老人ホームケアハウス巣子【特定施設入居者生活介護（軽費老人ホーム）】岩手県滝沢市巣子732番地2", "サービスの種類": "特定施設入居者生活介護（軽費老人ホーム）" }, "geometry": { "type": "Point", "coordinates": [ 141.13892034120019, 39.782808752898823 ] } }
]
}
