{
"type": "FeatureCollection",
"name": "geo_03_短期入所生活介護",
"crs": { "type": "name", "properties": { "name": "urn:ogc:def:crs:OGC:1.3:CRS84" } },
"features": [
{ "type": "Feature", "properties": { "緯度": 39.7388549, "経度": 141.1795221, "url": "https://www.kaigokensaku.mhlw.go.jp/03/index.php?action_kouhyou_detail_004_kani=true&JigyosyoCd=370106908-00&ServiceCd=210&Type=search", "url2": null, "内容": "特別養護老人ホーム　なのりの杜2号館【短期入所生活介護】岩手県盛岡市上米内字名乗沢1-58", "サービスの種類": "短期入所生活介護" }, "geometry": { "type": "Point", "coordinates": [ 141.179522100000014, 39.7388549 ] } },
{ "type": "Feature", "properties": { "緯度": 39.6460563, "経度": 141.0903028, "url": "https://www.kaigokensaku.mhlw.go.jp/03/index.php?action_kouhyou_detail_004_kani=true&JigyosyoCd=370100539-00&ServiceCd=210&Type=search", "url2": "https://morioka-fujimikai.or.jp", "内容": "指定短期入所生活介護事業所都南あけぼの荘【短期入所生活介護】湯沢4地割25-1", "サービスの種類": "短期入所生活介護" }, "geometry": { "type": "Point", "coordinates": [ 141.090302799999989, 39.6460563 ] } },
{ "type": "Feature", "properties": { "緯度": 39.739109809384502, "経度": 141.17990979570899, "url": "https://www.kaigokensaku.mhlw.go.jp/03/index.php?action_kouhyou_detail_004_kani=true&JigyosyoCd=370104499-00&ServiceCd=210&Type=search", "url2": "http://www.sg-miyagikai.jp/office/40/", "内容": "特別養護老人ホーム　なのりの杜【短期入所生活介護】岩手県盛岡市上米内字名乗沢1-58", "サービスの種類": "短期入所生活介護" }, "geometry": { "type": "Point", "coordinates": [ 141.179909795708994, 39.739109809384502 ] } },
{ "type": "Feature", "properties": { "緯度": 39.7392605, "経度": 141.179586, "url": "https://www.kaigokensaku.mhlw.go.jp/03/index.php?action_kouhyou_detail_004_kani=true&JigyosyoCd=370103715-00&ServiceCd=210&Type=search", "url2": "http://www.sg-miyagikai.jp/", "内容": "特別養護老人ホームなのりの里【短期入所生活介護】岩手県盛岡市上米内字名乗沢1番地46", "サービスの種類": "短期入所生活介護" }, "geometry": { "type": "Point", "coordinates": [ 141.179586, 39.7392605 ] } },
{ "type": "Feature", "properties": { "緯度": 39.6750634, "経度": 141.1575163, "url": "https://www.kaigokensaku.mhlw.go.jp/03/index.php?action_kouhyou_detail_004_kani=true&JigyosyoCd=370106890-00&ServiceCd=210&Type=search", "url2": "http://www.iwate-hanamizuki.jp", "内容": "ショートステイはなみずき【短期入所生活介護】岩手県盛岡市南仙北三丁目5-58", "サービスの種類": "短期入所生活介護" }, "geometry": { "type": "Point", "coordinates": [ 141.1575163, 39.6750634 ] } },
{ "type": "Feature", "properties": { "緯度": 39.7563834, "経度": 141.1623065, "url": "https://www.kaigokensaku.mhlw.go.jp/03/index.php?action_kouhyou_detail_004_kani=true&JigyosyoCd=370104713-00&ServiceCd=210&Type=search", "url2": "http://www.matsuzono.jp", "内容": "ショートステイまつぞの【短期入所生活介護】岩手県盛岡市西松園三丁目２１番１０号", "サービスの種類": "短期入所生活介護" }, "geometry": { "type": "Point", "coordinates": [ 141.1623065, 39.7563834 ] } },
{ "type": "Feature", "properties": { "緯度": 39.6460563, "経度": 141.0903028, "url": "https://www.kaigokensaku.mhlw.go.jp/03/index.php?action_kouhyou_detail_004_kani=true&JigyosyoCd=370105355-00&ServiceCd=210&Type=search", "url2": "https://morioka-fujimikai.or.jp", "内容": "指定短期入所生活介護事業所都南あけぼの荘【短期入所生活介護】岩手県盛岡市湯沢4地割25-1", "サービスの種類": "短期入所生活介護" }, "geometry": { "type": "Point", "coordinates": [ 141.090302799999989, 39.6460563 ] } },
{ "type": "Feature", "properties": { "緯度": 39.8772778, "経度": 141.1703243, "url": "https://www.kaigokensaku.mhlw.go.jp/03/index.php?action_kouhyou_detail_004_kani=true&JigyosyoCd=370106825-00&ServiceCd=210&Type=search", "url2": "https://www.ss-kouma.com", "内容": "ショートステイ好摩【短期入所生活介護】岩手県盛岡市好摩字野中４６－２", "サービスの種類": "短期入所生活介護" }, "geometry": { "type": "Point", "coordinates": [ 141.1703243, 39.8772778 ] } },
{ "type": "Feature", "properties": { "緯度": 39.847092671157199, "経度": 141.12926985707301, "url": "https://www.kaigokensaku.mhlw.go.jp/03/index.php?action_kouhyou_detail_004_kani=true&JigyosyoCd=372100206-00&ServiceCd=210&Type=search", "url2": "http://www.syuuhoukai.org/", "内容": "秀峰苑指定短期入所生活介護事業所【短期入所生活介護】岩手県盛岡市下田字石羽根９９－９０１", "サービスの種類": "短期入所生活介護" }, "geometry": { "type": "Point", "coordinates": [ 141.129269857073012, 39.847092671157199 ] } },
{ "type": "Feature", "properties": { "緯度": 39.761864401140102, "経度": 141.17731792209, "url": "https://www.kaigokensaku.mhlw.go.jp/03/index.php?action_kouhyou_detail_004_kani=true&JigyosyoCd=370105900-00&ServiceCd=210&Type=search", "url2": "http://sryokuaikai.com", "内容": "ショートステイサンタウン松園【短期入所生活介護】岩手県盛岡市北松園４丁目３６番５５号", "サービスの種類": "短期入所生活介護" }, "geometry": { "type": "Point", "coordinates": [ 141.177317922089998, 39.761864401140102 ] } },
{ "type": "Feature", "properties": { "緯度": 39.6811322, "経度": 141.0268761, "url": "https://www.kaigokensaku.mhlw.go.jp/03/index.php?action_kouhyou_detail_004_kani=true&JigyosyoCd=370103517-00&ServiceCd=210&Type=search", "url2": "http://www.shoujitsukai.or.jp", "内容": "特別養護老人ホーム繋松苑指定短期入所生活介護・指定介護予防短期入所生活介護事業所【短期入所生活介護】岩手県盛岡市繋字猿田１番地３７", "サービスの種類": "短期入所生活介護" }, "geometry": { "type": "Point", "coordinates": [ 141.02687610000001, 39.6811322 ] } },
{ "type": "Feature", "properties": { "緯度": 39.7381734, "経度": 141.1137086, "url": "https://www.kaigokensaku.mhlw.go.jp/03/index.php?action_kouhyou_detail_004_kani=true&JigyosyoCd=370106023-00&ServiceCd=210&Type=search", "url2": "http://itp.ne.jp/info/031453383000000899/", "内容": "ショートステイ・フォーユー【短期入所生活介護】岩手県盛岡市みたけ3丁目11番36号", "サービスの種類": "短期入所生活介護" }, "geometry": { "type": "Point", "coordinates": [ 141.1137086, 39.7381734 ] } },
{ "type": "Feature", "properties": { "緯度": 39.8313997, "経度": 141.1601739, "url": "https://www.kaigokensaku.mhlw.go.jp/03/index.php?action_kouhyou_detail_004_kani=true&JigyosyoCd=370106510-00&ServiceCd=210&Type=search", "url2": "http://www.three-point.info/", "内容": "ショートステイしぶたみ【短期入所生活介護】岩手県盛岡市渋民字岩鼻69-18", "サービスの種類": "短期入所生活介護" }, "geometry": { "type": "Point", "coordinates": [ 141.1601739, 39.8313997 ] } },
{ "type": "Feature", "properties": { "緯度": 39.7378292, "経度": 141.13514, "url": "https://www.kaigokensaku.mhlw.go.jp/03/index.php?action_kouhyou_detail_004_kani=true&JigyosyoCd=370102808-00&ServiceCd=210&Type=search", "url2": "https://yayo-i.or.jp/", "内容": "特別養護老人ホームコアトレース厨川【短期入所生活介護】岩手県盛岡市厨川二丁目7-20", "サービスの種類": "短期入所生活介護" }, "geometry": { "type": "Point", "coordinates": [ 141.13514, 39.7378292 ] } },
{ "type": "Feature", "properties": { "緯度": 39.6546806, "経度": 141.1682039, "url": "https://www.kaigokensaku.mhlw.go.jp/03/index.php?action_kouhyou_detail_004_kani=true&JigyosyoCd=370102691-00&ServiceCd=210&Type=search", "url2": "http://www.f-t-c.jp/danran", "内容": "あっとほーむだんらん【短期入所生活介護】岩手県盛岡市三本柳１３－３９－４", "サービスの種類": "短期入所生活介護" }, "geometry": { "type": "Point", "coordinates": [ 141.1682039, 39.6546806 ] } },
{ "type": "Feature", "properties": { "緯度": 39.847843177583599, "経度": 141.12819810830399, "url": "https://www.kaigokensaku.mhlw.go.jp/03/index.php?action_kouhyou_detail_004_kani=true&JigyosyoCd=370102741-00&ServiceCd=210&Type=search", "url2": "https://kaigo.nisshindo-g.com/gyokujyuso", "内容": "養護老人ホーム玉寿荘　短期入所生活介護事業所【短期入所生活介護】岩手県盛岡市下田字石羽根99番地902", "サービスの種類": "短期入所生活介護" }, "geometry": { "type": "Point", "coordinates": [ 141.128198108303991, 39.847843177583599 ] } },
{ "type": "Feature", "properties": { "緯度": 39.6219354, "経度": 141.1945612, "url": "https://www.kaigokensaku.mhlw.go.jp/03/index.php?action_kouhyou_detail_004_kani=true&JigyosyoCd=370103830-00&ServiceCd=210&Type=search", "url2": "http://www.casa-minami.com/", "内容": "カーサ南盛岡短期入所センター【短期入所生活介護】岩手県盛岡市乙部４地割１３９番１０", "サービスの種類": "短期入所生活介護" }, "geometry": { "type": "Point", "coordinates": [ 141.19456120000001, 39.6219354 ] } },
{ "type": "Feature", "properties": { "緯度": 39.7103773, "経度": 141.1664769, "url": "https://www.kaigokensaku.mhlw.go.jp/03/index.php?action_kouhyou_detail_004_kani=true&JigyosyoCd=370104614-00&ServiceCd=210&Type=search", "url2": "http://www.rnac.ne.jp/~seiwaso/", "内容": "養護老人ホーム清和荘短期入所生活介護事業所【短期入所生活介護】岩手県盛岡市加賀野四丁目９番１号", "サービスの種類": "短期入所生活介護" }, "geometry": { "type": "Point", "coordinates": [ 141.1664769, 39.7103773 ] } },
{ "type": "Feature", "properties": { "緯度": 39.8669401, "経度": 141.1653584, "url": "https://www.kaigokensaku.mhlw.go.jp/03/index.php?action_kouhyou_detail_004_kani=true&JigyosyoCd=372100875-00&ServiceCd=210&Type=search", "url2": "http://www.nisshindo-g.com/", "内容": "特別養護老人ホームすずらんガーデン短期入所生活介護事業所【短期入所生活介護】岩手県盛岡市好摩字芋田向83番地25", "サービスの種類": "短期入所生活介護" }, "geometry": { "type": "Point", "coordinates": [ 141.1653584, 39.8669401 ] } },
{ "type": "Feature", "properties": { "緯度": 39.8454343, "経度": 141.166084, "url": "https://www.kaigokensaku.mhlw.go.jp/03/index.php?action_kouhyou_detail_004_kani=true&JigyosyoCd=370105926-00&ServiceCd=210&Type=search", "url2": "http://www.nisshindo-g.com/", "内容": "特別養護老人ホームジャスミン短期入所事業所【短期入所生活介護】岩手県盛岡市渋民字泉田334番地", "サービスの種類": "短期入所生活介護" }, "geometry": { "type": "Point", "coordinates": [ 141.166084, 39.8454343 ] } },
{ "type": "Feature", "properties": { "緯度": 39.6888439, "経度": 141.1796875, "url": "https://www.kaigokensaku.mhlw.go.jp/03/index.php?action_kouhyou_detail_004_kani=true&JigyosyoCd=370100752-00&ServiceCd=210&Type=search", "url2": "http://sannow.jp/", "内容": "五月園指定短期入所生活介護事業所【短期入所生活介護】岩手県盛岡市東山二丁目5番15号", "サービスの種類": "短期入所生活介護" }, "geometry": { "type": "Point", "coordinates": [ 141.1796875, 39.6888439 ] } },
{ "type": "Feature", "properties": { "緯度": 39.7192946, "経度": 141.112401, "url": "https://www.kaigokensaku.mhlw.go.jp/03/index.php?action_kouhyou_detail_004_kani=true&JigyosyoCd=370100240-00&ServiceCd=210&Type=search", "url2": "http://www.wakeisou.or.jp/", "内容": "青山和敬荘【短期入所生活介護】岩手県盛岡市南青山町１３番３０号", "サービスの種類": "短期入所生活介護" }, "geometry": { "type": "Point", "coordinates": [ 141.112401, 39.7192946 ] } },
{ "type": "Feature", "properties": { "緯度": 39.7118304, "経度": 141.18122, "url": "https://www.kaigokensaku.mhlw.go.jp/03/index.php?action_kouhyou_detail_004_kani=true&JigyosyoCd=370104507-00&ServiceCd=210&Type=search", "url2": "http://www.wakeisou.or.jp", "内容": "特別養護老人ホーム浅岸和敬荘【短期入所生活介護】岩手県盛岡市浅岸三丁目23番50号", "サービスの種類": "短期入所生活介護" }, "geometry": { "type": "Point", "coordinates": [ 141.18122, 39.7118304 ] } },
{ "type": "Feature", "properties": { "緯度": 39.707694815731898, "経度": 141.11985137168901, "url": "https://www.kaigokensaku.mhlw.go.jp/03/index.php?action_kouhyou_detail_004_kani=true&JigyosyoCd=370106346-00&ServiceCd=210&Type=search", "url2": "http://www.sykz.co.jp", "内容": "中屋敷ケアセンターそよ風【短期入所生活介護】岩手県盛岡市中屋敷町6-17", "サービスの種類": "短期入所生活介護" }, "geometry": { "type": "Point", "coordinates": [ 141.119851371689009, 39.707694815731898 ] } },
{ "type": "Feature", "properties": { "緯度": 39.6113176, "経度": 141.1950503, "url": "https://www.kaigokensaku.mhlw.go.jp/03/index.php?action_kouhyou_detail_004_kani=true&JigyosyoCd=370101016-00&ServiceCd=210&Type=search", "url2": "http://nozomikai.or.jp", "内容": "希望の里短期入所センター【短期入所生活介護】岩手県盛岡市乙部５地割４１番地１", "サービスの種類": "短期入所生活介護" }, "geometry": { "type": "Point", "coordinates": [ 141.1950503, 39.6113176 ] } },
{ "type": "Feature", "properties": { "緯度": 39.7518141, "経度": 141.152177, "url": "https://www.kaigokensaku.mhlw.go.jp/03/index.php?action_kouhyou_detail_004_kani=true&JigyosyoCd=370101800-00&ServiceCd=210&Type=search", "url2": "http://sakuraginosato.jp", "内容": "さくらぎの里短期入所生活介護事業所【短期入所生活介護】岩手県盛岡市上田字松屋敷１０３番地１", "サービスの種類": "短期入所生活介護" }, "geometry": { "type": "Point", "coordinates": [ 141.152177, 39.7518141 ] } },
{ "type": "Feature", "properties": { "緯度": 39.6766808, "経度": 141.1466214, "url": "https://www.kaigokensaku.mhlw.go.jp/03/index.php?action_kouhyou_detail_004_kani=true&JigyosyoCd=370102253-00&ServiceCd=210&Type=search", "url2": "http://www.sykz.co.jp", "内容": "盛岡ケアセンターそよ風【短期入所生活介護】岩手県盛岡市向中野四丁目35-22", "サービスの種類": "短期入所生活介護" }, "geometry": { "type": "Point", "coordinates": [ 141.146621399999987, 39.6766808 ] } },
{ "type": "Feature", "properties": { "緯度": 39.751901775725003, "経度": 141.15950653320499, "url": "https://www.kaigokensaku.mhlw.go.jp/03/index.php?action_kouhyou_detail_004_kani=true&JigyosyoCd=370100315-00&ServiceCd=210&Type=search", "url2": "http://www.ikushinkai.jp/", "内容": "第二松園ハイツ指定短期入所生活介護事業所【短期入所生活介護】岩手県盛岡市西松園2丁目5番1号", "サービスの種類": "短期入所生活介護" }, "geometry": { "type": "Point", "coordinates": [ 141.15950653320499, 39.751901775725003 ] } },
{ "type": "Feature", "properties": { "緯度": 39.6908792, "経度": 141.0583394, "url": "https://www.kaigokensaku.mhlw.go.jp/03/index.php?action_kouhyou_detail_004_kani=true&JigyosyoCd=370100562-00&ServiceCd=210&Type=search", "url2": "http://senshoukai.or.jp/", "内容": "千年苑（本館）指定短期入所生活介護【短期入所生活介護】岩手県盛岡市上太田穴口５３番地", "サービスの種類": "短期入所生活介護" }, "geometry": { "type": "Point", "coordinates": [ 141.0583394, 39.6908792 ] } },
{ "type": "Feature", "properties": { "緯度": 39.690573732780699, "経度": 141.058779282279, "url": "https://www.kaigokensaku.mhlw.go.jp/03/index.php?action_kouhyou_detail_004_kani=true&JigyosyoCd=370105371-00&ServiceCd=210&Type=search", "url2": "https://senshoukai.or.jp/", "内容": "千年苑（新館）指定短期入所生活介護【短期入所生活介護】岩手県盛岡市上太田穴口５３番地", "サービスの種類": "短期入所生活介護" }, "geometry": { "type": "Point", "coordinates": [ 141.058779282279005, 39.690573732780699 ] } },
{ "type": "Feature", "properties": { "緯度": 39.7598529, "経度": 141.1740664, "url": "https://www.kaigokensaku.mhlw.go.jp/03/index.php?action_kouhyou_detail_004_kani=true&JigyosyoCd=370104515-00&ServiceCd=210&Type=search", "url2": "http://www.ikushinkai.jp/service/kita/", "内容": "北松園ハイツ指定短期入所生活介護事業所【短期入所生活介護】岩手県盛岡市北松園四丁目1番3号", "サービスの種類": "短期入所生活介護" }, "geometry": { "type": "Point", "coordinates": [ 141.174066399999987, 39.7598529 ] } },
{ "type": "Feature", "properties": { "緯度": 39.6282649, "経度": 141.7869303, "url": "https://www.kaigokensaku.mhlw.go.jp/03/index.php?action_kouhyou_detail_004_kani=true&JigyosyoCd=373000272-00&ServiceCd=210&Type=search", "url2": "http://niisatoshitoukai.jp/", "内容": "特別養護老人ホーム紫桐苑短期入所生活介護事業所【短期入所生活介護】岩手県宮古市茂市1-115-1", "サービスの種類": "短期入所生活介護" }, "geometry": { "type": "Point", "coordinates": [ 141.7869303, 39.6282649 ] } },
{ "type": "Feature", "properties": { "緯度": 39.6433354, "経度": 141.9148018, "url": "https://www.kaigokensaku.mhlw.go.jp/03/index.php?action_kouhyou_detail_004_kani=true&JigyosyoCd=370200180-00&ServiceCd=210&Type=search", "url2": "http://www.jien.jp/", "内容": "特別養護老人ホーム慈苑【短期入所生活介護】岩手県宮古市西ヶ丘四丁目５３番地８", "サービスの種類": "短期入所生活介護" }, "geometry": { "type": "Point", "coordinates": [ 141.9148018, 39.6433354 ] } },
{ "type": "Feature", "properties": { "緯度": 39.5657562, "経度": 141.9278787, "url": "https://www.kaigokensaku.mhlw.go.jp/03/index.php?action_kouhyou_detail_004_kani=true&JigyosyoCd=370200347-00&ServiceCd=210&Type=search", "url2": null, "内容": "宮古市養護老人ホーム清寿荘ショートステイ【短期入所生活介護】岩手県宮古市津軽石14-38-3", "サービスの種類": "短期入所生活介護" }, "geometry": { "type": "Point", "coordinates": [ 141.9278787, 39.5657562 ] } },
{ "type": "Feature", "properties": { "緯度": 39.6597734, "経度": 141.9516012, "url": "https://www.kaigokensaku.mhlw.go.jp/03/index.php?action_kouhyou_detail_004_kani=true&JigyosyoCd=370200131-00&ServiceCd=210&Type=search", "url2": "http://www.wakatakekai.or.jp/", "内容": "指定短期入所生活介護事業所サンホームみやこ【短期入所生活介護】岩手県宮古市崎鍬ヶ崎第4地割1番地20", "サービスの種類": "短期入所生活介護" }, "geometry": { "type": "Point", "coordinates": [ 141.9516012, 39.6597734 ] } },
{ "type": "Feature", "properties": { "緯度": 39.7308173, "経度": 141.9390699, "url": "https://www.kaigokensaku.mhlw.go.jp/03/index.php?action_kouhyou_detail_004_kani=true&JigyosyoCd=373000520-00&ServiceCd=210&Type=search", "url2": "http://www.tarouwasinkai.or.jp/", "内容": "特別養護老人ホームふれあい荘指定短期入所生活介護事業所【短期入所生活介護】岩手県宮古市田老字養呂地6番地2ふれあい荘短期入所生活介護事業所", "サービスの種類": "短期入所生活介護" }, "geometry": { "type": "Point", "coordinates": [ 141.9390699, 39.7308173 ] } },
{ "type": "Feature", "properties": { "緯度": 39.596174004956602, "経度": 141.67545962037701, "url": "https://www.kaigokensaku.mhlw.go.jp/03/index.php?action_kouhyou_detail_004_kani=true&JigyosyoCd=373000298-00&ServiceCd=210&Type=search", "url2": "http://www.shinseien-kawai.or.jp/", "内容": "心生会指定短期入所生活介護事業所【短期入所生活介護】岩手県宮古市川井2-24-3", "サービスの種類": "短期入所生活介護" }, "geometry": { "type": "Point", "coordinates": [ 141.675459620377012, 39.596174004956602 ] } },
{ "type": "Feature", "properties": { "緯度": 39.6591929, "経度": 141.9517345, "url": "https://www.kaigokensaku.mhlw.go.jp/03/index.php?action_kouhyou_detail_004_kani=true&JigyosyoCd=370200743-00&ServiceCd=210&Type=search", "url2": "http://www.wakatakekai.or.jp", "内容": "指定短期入所生活介護事業所サンホームみやこ絆【短期入所生活介護】岩手県宮古市崎鍬ヶ崎第4地割1番地43", "サービスの種類": "短期入所生活介護" }, "geometry": { "type": "Point", "coordinates": [ 141.951734499999986, 39.6591929 ] } },
{ "type": "Feature", "properties": { "緯度": 39.0868089, "経度": 141.7083854, "url": "https://www.kaigokensaku.mhlw.go.jp/03/index.php?action_kouhyou_detail_004_kani=true&JigyosyoCd=370300436-00&ServiceCd=210&Type=search", "url2": "www.seijinkai.hello-net.info/", "内容": "蔵ハウス大船渡　ショートスティ事業所【短期入所生活介護】岩手県大船渡市盛町字町３－１", "サービスの種類": "短期入所生活介護" }, "geometry": { "type": "Point", "coordinates": [ 141.7083854, 39.0868089 ] } },
{ "type": "Feature", "properties": { "緯度": 39.0107248852757, "経度": 141.708106457008, "url": "https://www.kaigokensaku.mhlw.go.jp/03/index.php?action_kouhyou_detail_004_kani=true&JigyosyoCd=370300527-00&ServiceCd=210&Type=search", "url2": "http://tenjinkai.com", "内容": "地域密着型介護老人福祉施設「つばきの丘」【短期入所生活介護】岩手県大船渡市末崎町字中野157－1", "サービスの種類": "短期入所生活介護" }, "geometry": { "type": "Point", "coordinates": [ 141.708106457008, 39.0107248852757 ] } },
{ "type": "Feature", "properties": { "緯度": 39.1252099, "経度": 141.8053139, "url": "https://www.kaigokensaku.mhlw.go.jp/03/index.php?action_kouhyou_detail_004_kani=true&JigyosyoCd=370300519-00&ServiceCd=210&Type=search", "url2": "http://www.caresono.jp/", "内容": "さんりくの園ショートステイ【短期入所生活介護】岩手県大船渡市三陸町越喜来字所通９１番地", "サービスの種類": "短期入所生活介護" }, "geometry": { "type": "Point", "coordinates": [ 141.805313899999987, 39.1252099 ] } },
{ "type": "Feature", "properties": { "緯度": 39.0704581, "経度": 141.7108469, "url": "https://www.kaigokensaku.mhlw.go.jp/03/index.php?action_kouhyou_detail_004_kani=true&JigyosyoCd=370300329-00&ServiceCd=210&Type=search", "url2": "http://www.tenjinkai.com", "内容": "介護老人福祉施設ひまわり【短期入所生活介護】岩手県大船渡市大船渡町字山馬越197番地", "サービスの種類": "短期入所生活介護" }, "geometry": { "type": "Point", "coordinates": [ 141.7108469, 39.0704581 ] } },
{ "type": "Feature", "properties": { "緯度": 39.1012852, "経度": 141.7174645, "url": "https://www.kaigokensaku.mhlw.go.jp/03/index.php?action_kouhyou_detail_004_kani=true&JigyosyoCd=370300139-00&ServiceCd=210&Type=search", "url2": "http://www.i-seijinkai.jp/", "内容": "富美岡荘ショートステイ事業所【短期入所生活介護】岩手県大船渡市猪川町字冨岡１４８", "サービスの種類": "短期入所生活介護" }, "geometry": { "type": "Point", "coordinates": [ 141.7174645, 39.1012852 ] } },
{ "type": "Feature", "properties": { "緯度": 39.100685791348702, "経度": 141.71067555012399, "url": "https://www.kaigokensaku.mhlw.go.jp/03/index.php?action_kouhyou_detail_004_kani=true&JigyosyoCd=370300550-00&ServiceCd=210&Type=search", "url2": "http://www.i-seijinkai.jp/", "内容": "百年の里ショートステイ事業所【短期入所生活介護】岩手県大船渡市立根町字宮田9番地1", "サービスの種類": "短期入所生活介護" }, "geometry": { "type": "Point", "coordinates": [ 141.710675550123995, 39.100685791348702 ] } },
{ "type": "Feature", "properties": { "緯度": 39.4712028, "経度": 141.2785316, "url": "https://www.kaigokensaku.mhlw.go.jp/03/index.php?action_kouhyou_detail_004_kani=true&JigyosyoCd=370501546-00&ServiceCd=210&Type=search", "url2": null, "内容": "結いの郷指定短期入所生活介護事業所【短期入所生活介護】岩手県花巻市大迫町大迫13-20-1", "サービスの種類": "短期入所生活介護" }, "geometry": { "type": "Point", "coordinates": [ 141.2785316, 39.4712028 ] } },
{ "type": "Feature", "properties": { "緯度": 39.5032076, "経度": 141.1611513, "url": "https://www.kaigokensaku.mhlw.go.jp/03/index.php?action_kouhyou_detail_004_kani=true&JigyosyoCd=370501447-00&ServiceCd=210&Type=search", "url2": "http://www.ishidoriyasou.jp/index.html", "内容": "いしどりや荘（ユニット型）【短期入所生活介護】岩手県花巻市石鳥谷町好地第14地割10番地", "サービスの種類": "短期入所生活介護" }, "geometry": { "type": "Point", "coordinates": [ 141.1611513, 39.5032076 ] } },
{ "type": "Feature", "properties": { "緯度": 39.4407613, "経度": 141.1278812, "url": "https://www.kaigokensaku.mhlw.go.jp/03/index.php?action_kouhyou_detail_004_kani=true&JigyosyoCd=370501744-00&ServiceCd=210&Type=search", "url2": null, "内容": "ショートステイ花巻【短期入所生活介護】岩手県花巻市二枚橋町南１丁目６２", "サービスの種類": "短期入所生活介護" }, "geometry": { "type": "Point", "coordinates": [ 141.1278812, 39.4407613 ] } },
{ "type": "Feature", "properties": { "緯度": 39.386051, "経度": 141.1424178, "url": "https://www.kaigokensaku.mhlw.go.jp/03/index.php?action_kouhyou_detail_004_kani=true&JigyosyoCd=370501926-00&ServiceCd=210&Type=search", "url2": "https://kanshanokokoro.com/hanagoyomi/", "内容": "特別養護老人ホーム花ごよみ【短期入所生活介護】岩手県花巻市高木第19地割101番地17", "サービスの種類": "短期入所生活介護" }, "geometry": { "type": "Point", "coordinates": [ 141.1424178, 39.386051 ] } },
{ "type": "Feature", "properties": { "緯度": 39.383734, "経度": 141.2332545, "url": "https://www.kaigokensaku.mhlw.go.jp/03/index.php?action_kouhyou_detail_004_kani=true&JigyosyoCd=370501850-00&ServiceCd=210&Type=search", "url2": "https://central-hikari.com", "内容": "ショートステイ光の苑【短期入所生活介護】岩手県花巻市東和町土沢8区205", "サービスの種類": "短期入所生活介護" }, "geometry": { "type": "Point", "coordinates": [ 141.233254499999987, 39.383734 ] } },
{ "type": "Feature", "properties": { "緯度": 39.399251027321299, "経度": 141.19626379944, "url": "https://www.kaigokensaku.mhlw.go.jp/03/index.php?action_kouhyou_detail_004_kani=true&JigyosyoCd=370501082-00&ServiceCd=210&Type=search", "url2": "http://www.ginganosato.com", "内容": "短期入所生活介護銀河の里【短期入所生活介護】岩手県花巻市幸田6-140", "サービスの種類": "短期入所生活介護" }, "geometry": { "type": "Point", "coordinates": [ 141.196263799440004, 39.399251027321299 ] } },
{ "type": "Feature", "properties": { "緯度": 39.4417641, "経度": 141.1317224, "url": "https://www.kaigokensaku.mhlw.go.jp/03/index.php?action_kouhyou_detail_004_kani=true&JigyosyoCd=370501074-00&ServiceCd=210&Type=search", "url2": null, "内容": "ショートステイいいね【短期入所生活介護】岩手県花巻市二枚橋町大通り2丁目１８－２三光ビル２・３階", "サービスの種類": "短期入所生活介護" }, "geometry": { "type": "Point", "coordinates": [ 141.1317224, 39.4417641 ] } },
{ "type": "Feature", "properties": { "緯度": 39.3625567, "経度": 141.126318, "url": "https://www.kaigokensaku.mhlw.go.jp/03/index.php?action_kouhyou_detail_004_kani=true&JigyosyoCd=370501462-00&ServiceCd=210&Type=search", "url2": "https://sanga295672.wixsite.com/sanga-hanamaki/tokuyo", "内容": "特別養護老人ホームサンガ（ショート）【短期入所生活介護】岩手県花巻市十二丁目577番1", "サービスの種類": "短期入所生活介護" }, "geometry": { "type": "Point", "coordinates": [ 141.126318, 39.3625567 ] } },
{ "type": "Feature", "properties": { "緯度": 39.483245308534002, "経度": 141.14812165582001, "url": "https://www.kaigokensaku.mhlw.go.jp/03/index.php?action_kouhyou_detail_004_kani=true&JigyosyoCd=370501371-00&ServiceCd=210&Type=search", "url2": null, "内容": "ショートステイよろこび【短期入所生活介護】岩手県花巻市石鳥谷町八幡第4地割106番地1", "サービスの種類": "短期入所生活介護" }, "geometry": { "type": "Point", "coordinates": [ 141.148121655820006, 39.483245308534002 ] } },
{ "type": "Feature", "properties": { "緯度": 39.2860925, "経度": 141.1174905, "url": "https://www.kaigokensaku.mhlw.go.jp/03/index.php?action_kouhyou_detail_004_kani=true&JigyosyoCd=370501322-00&ServiceCd=210&Type=search", "url2": "http://www.joylife.jpn.com", "内容": "ショートステイこころ【短期入所生活介護】岩手県花巻市諏訪５７番２", "サービスの種類": "短期入所生活介護" }, "geometry": { "type": "Point", "coordinates": [ 141.1174905, 39.2860925 ] } },
{ "type": "Feature", "properties": { "緯度": 39.414675, "経度": 141.1107282, "url": "https://www.kaigokensaku.mhlw.go.jp/03/index.php?action_kouhyou_detail_004_kani=true&JigyosyoCd=370500472-00&ServiceCd=210&Type=search", "url2": "http://matsuzonofukushikai.jp/", "内容": "花巻あすかの里指定短期入所生活介護事業所【短期入所生活介護】岩手県花巻市西宮野目第14地割56番地2", "サービスの種類": "短期入所生活介護" }, "geometry": { "type": "Point", "coordinates": [ 141.110728200000011, 39.414675 ] } },
{ "type": "Feature", "properties": { "緯度": 39.4128057, "経度": 141.1076564, "url": "https://www.kaigokensaku.mhlw.go.jp/03/index.php?action_kouhyou_detail_004_kani=true&JigyosyoCd=370501033-00&ServiceCd=210&Type=search", "url2": "http://matsuzonofukushikai.jp/", "内容": "花巻あすかの杜指定短期入所生活介護事業所【短期入所生活介護】岩手県花巻市天下田100番地1", "サービスの種類": "短期入所生活介護" }, "geometry": { "type": "Point", "coordinates": [ 141.1076564, 39.4128057 ] } },
{ "type": "Feature", "properties": { "緯度": 39.3685697, "経度": 141.1024949, "url": "https://www.kaigokensaku.mhlw.go.jp/03/index.php?action_kouhyou_detail_004_kani=true&JigyosyoCd=370500894-00&ServiceCd=210&Type=search", "url2": "https://www.siriuscare.jp", "内容": "シリウスケアセンターすわ【短期入所生活介護】岩手県花巻市南諏訪町4番8号", "サービスの種類": "短期入所生活介護" }, "geometry": { "type": "Point", "coordinates": [ 141.102494900000011, 39.3685697 ] } },
{ "type": "Feature", "properties": { "緯度": 39.3724806, "経度": 141.2522536, "url": "https://www.kaigokensaku.mhlw.go.jp/03/index.php?action_kouhyou_detail_004_kani=true&JigyosyoCd=372400119-00&ServiceCd=210&Type=search", "url2": "http://towaso.jp/", "内容": "東和荘指定短期入所生活介護事業所【短期入所生活介護】岩手県花巻市東和町東晴山７区１６番地", "サービスの種類": "短期入所生活介護" }, "geometry": { "type": "Point", "coordinates": [ 141.252253599999989, 39.3724806 ] } },
{ "type": "Feature", "properties": { "緯度": 39.3718728, "経度": 141.1213173, "url": "https://www.kaigokensaku.mhlw.go.jp/03/index.php?action_kouhyou_detail_004_kani=true&JigyosyoCd=370501785-00&ServiceCd=210&Type=search", "url2": "https://kanshanokokoro.com/hanaakari/", "内容": "特別養護老人ホーム花あかり【短期入所生活介護】岩手県花巻市南城106番地", "サービスの種類": "短期入所生活介護" }, "geometry": { "type": "Point", "coordinates": [ 141.121317299999987, 39.3718728 ] } },
{ "type": "Feature", "properties": { "緯度": 39.3713793, "経度": 141.1214843, "url": "https://www.kaigokensaku.mhlw.go.jp/03/index.php?action_kouhyou_detail_004_kani=true&JigyosyoCd=370501793-00&ServiceCd=210&Type=search", "url2": null, "内容": "特別養護老人ホーム花みずき【短期入所生活介護】岩手県花巻市南城107番地1特別養護老人ホーム　花みずき", "サービスの種類": "短期入所生活介護" }, "geometry": { "type": "Point", "coordinates": [ 141.1214843, 39.3713793 ] } },
{ "type": "Feature", "properties": { "緯度": 39.380032, "経度": 141.0974227, "url": "https://www.kaigokensaku.mhlw.go.jp/03/index.php?action_kouhyou_detail_004_kani=true&JigyosyoCd=370501504-00&ServiceCd=210&Type=search", "url2": "http://nakanekotlc.blog.jp", "内容": "ショートステイ中根子【短期入所生活介護】岩手県花巻市中根子字拾田屋5番地1", "サービスの種類": "短期入所生活介護" }, "geometry": { "type": "Point", "coordinates": [ 141.09742270000001, 39.380032 ] } },
{ "type": "Feature", "properties": { "緯度": 39.3938797, "経度": 141.2021824, "url": "https://www.kaigokensaku.mhlw.go.jp/03/index.php?action_kouhyou_detail_004_kani=true&JigyosyoCd=370501728-00&ServiceCd=210&Type=search", "url2": "https://koda-story.jimdosite.com", "内容": "ショートステイ幸田物語【短期入所生活介護】岩手県花巻市幸田第3地割116番地", "サービスの種類": "短期入所生活介護" }, "geometry": { "type": "Point", "coordinates": [ 141.2021824, 39.3938797 ] } },
{ "type": "Feature", "properties": { "緯度": 39.406328292023296, "経度": 141.020092360327, "url": "https://www.kaigokensaku.mhlw.go.jp/03/index.php?action_kouhyou_detail_004_kani=true&JigyosyoCd=370500233-00&ServiceCd=210&Type=search", "url2": "http://ootanisou.jp", "内容": "大谷荘指定短期入所生活介護事業所【短期入所生活介護】岩手県花巻市湯口字松原53番地1", "サービスの種類": "短期入所生活介護" }, "geometry": { "type": "Point", "coordinates": [ 141.020092360326998, 39.406328292023296 ] } },
{ "type": "Feature", "properties": { "緯度": 39.3912805, "経度": 141.0987083, "url": "https://www.kaigokensaku.mhlw.go.jp/03/index.php?action_kouhyou_detail_004_kani=true&JigyosyoCd=370500290-00&ServiceCd=210&Type=search", "url2": "http://www.iris-hanamaki.jp/", "内容": "アイリス花巻指定短期入所生活介護事業所【短期入所生活介護】岩手県花巻市南万丁目970-2", "サービスの種類": "短期入所生活介護" }, "geometry": { "type": "Point", "coordinates": [ 141.0987083, 39.3912805 ] } },
{ "type": "Feature", "properties": { "緯度": 39.4695421, "経度": 141.283334, "url": "https://www.kaigokensaku.mhlw.go.jp/03/index.php?action_kouhyou_detail_004_kani=true&JigyosyoCd=372300145-00&ServiceCd=210&Type=search", "url2": "http://oohasamatoujukai.or.jp/", "内容": "桐の里短期入所生活介護事業所【短期入所生活介護】岩手県花巻市大迫町大迫第１１地割１番地１", "サービスの種類": "短期入所生活介護" }, "geometry": { "type": "Point", "coordinates": [ 141.283334, 39.4695421 ] } },
{ "type": "Feature", "properties": { "緯度": 39.5032076, "経度": 141.1611513, "url": "https://www.kaigokensaku.mhlw.go.jp/03/index.php?action_kouhyou_detail_004_kani=true&JigyosyoCd=372300103-00&ServiceCd=210&Type=search", "url2": "https://www.ishidoriyasou.jp/", "内容": "いしどりや荘【短期入所生活介護】岩手県花巻市石鳥谷町好地１４－１０", "サービスの種類": "短期入所生活介護" }, "geometry": { "type": "Point", "coordinates": [ 141.1611513, 39.5032076 ] } },
{ "type": "Feature", "properties": { "緯度": 39.5016688, "経度": 141.1579155, "url": "https://www.kaigokensaku.mhlw.go.jp/03/index.php?action_kouhyou_detail_004_kani=true&JigyosyoCd=372300269-00&ServiceCd=210&Type=search", "url2": "http://www.houjyukai-iwate.com", "内容": "宝寿荘指定短期入所生活介護事業所【短期入所生活介護】岩手県花巻市石鳥谷上口１丁目3-3", "サービスの種類": "短期入所生活介護" }, "geometry": { "type": "Point", "coordinates": [ 141.1579155, 39.5016688 ] } },
{ "type": "Feature", "properties": { "緯度": 39.3302467, "経度": 141.1586049, "url": "https://www.kaigokensaku.mhlw.go.jp/03/index.php?action_kouhyou_detail_004_kani=true&JigyosyoCd=370600165-00&ServiceCd=210&Type=search", "url2": "http://hakuaikai-kitakami.or.jp/hatten.htm", "内容": "特別養護老人ホーム八天の里【短期入所生活介護】岩手県北上市更木34-320-1", "サービスの種類": "短期入所生活介護" }, "geometry": { "type": "Point", "coordinates": [ 141.1586049, 39.3302467 ] } },
{ "type": "Feature", "properties": { "緯度": 39.2575977, "経度": 141.0853418, "url": "https://www.kaigokensaku.mhlw.go.jp/03/index.php?action_kouhyou_detail_004_kani=true&JigyosyoCd=370600132-00&ServiceCd=210&Type=search", "url2": "http://risshokai.jp/", "内容": "特別養護老人ホーム敬愛園【短期入所生活介護】岩手県北上市相去町高前檀6番地14", "サービスの種類": "短期入所生活介護" }, "geometry": { "type": "Point", "coordinates": [ 141.0853418, 39.2575977 ] } },
{ "type": "Feature", "properties": { "緯度": 39.2901085, "経度": 141.2047886, "url": "https://www.kaigokensaku.mhlw.go.jp/03/index.php?action_kouhyou_detail_004_kani=true&JigyosyoCd=370601411-00&ServiceCd=210&Type=search", "url2": null, "内容": "地域密着型特別養護老人ホーム浮牛の里短期入所生活介護【短期入所生活介護】岩手県北上市口内町久田２５－１１地域密着型特別養護老人ホーム", "サービスの種類": "短期入所生活介護" }, "geometry": { "type": "Point", "coordinates": [ 141.2047886, 39.2901085 ] } },
{ "type": "Feature", "properties": { "緯度": 39.295658415300998, "経度": 141.09260411611601, "url": "https://www.kaigokensaku.mhlw.go.jp/03/index.php?action_kouhyou_detail_004_kani=true&JigyosyoCd=372500694-00&ServiceCd=210&Type=search", "url2": "https://yamadori-iwate.com", "内容": "ショートステイすずの里【短期入所生活介護】岩手県北上市北鬼柳15-128-2", "サービスの種類": "短期入所生活介護" }, "geometry": { "type": "Point", "coordinates": [ 141.092604116116007, 39.295658415300998 ] } },
{ "type": "Feature", "properties": { "緯度": 39.2962291, "経度": 141.1401585, "url": "https://www.kaigokensaku.mhlw.go.jp/03/index.php?action_kouhyou_detail_004_kani=true&JigyosyoCd=370601650-00&ServiceCd=210&Type=search", "url2": "https://koutokukai.info/", "内容": "えびす指定短期入所生活介護事業所【短期入所生活介護】岩手県北上市小鳥崎２地割165番地", "サービスの種類": "短期入所生活介護" }, "geometry": { "type": "Point", "coordinates": [ 141.140158500000013, 39.2962291 ] } },
{ "type": "Feature", "properties": { "緯度": 39.3267719, "経度": 141.1403956, "url": "https://www.kaigokensaku.mhlw.go.jp/03/index.php?action_kouhyou_detail_004_kani=true&JigyosyoCd=370601528-00&ServiceCd=210&Type=search", "url2": null, "内容": "ショートステイ北上【短期入所生活介護】岩手県北上市二子町字宿西22番地1", "サービスの種類": "短期入所生活介護" }, "geometry": { "type": "Point", "coordinates": [ 141.1403956, 39.3267719 ] } },
{ "type": "Feature", "properties": { "緯度": 39.2675327, "経度": 141.0897853, "url": "https://www.kaigokensaku.mhlw.go.jp/03/index.php?action_kouhyou_detail_004_kani=true&JigyosyoCd=370601015-00&ServiceCd=210&Type=search", "url2": "http://risshokai.jp", "内容": "北星荘短期入所生活介護事業所【短期入所生活介護】岩手県北上市下鬼柳１７地割１２７番地５", "サービスの種類": "短期入所生活介護" }, "geometry": { "type": "Point", "coordinates": [ 141.089785299999988, 39.2675327 ] } },
{ "type": "Feature", "properties": { "緯度": 39.2953481, "経度": 141.0383269, "url": "https://www.kaigokensaku.mhlw.go.jp/03/index.php?action_kouhyou_detail_004_kani=true&JigyosyoCd=370600074-00&ServiceCd=210&Type=search", "url2": "http://www.waganosato.or.jp/", "内容": "特別養護老人ホームわがの里【短期入所生活介護】岩手県北上市下江釣子１０地割７４番地３", "サービスの種類": "短期入所生活介護" }, "geometry": { "type": "Point", "coordinates": [ 141.038326899999987, 39.2953481 ] } },
{ "type": "Feature", "properties": { "緯度": 39.3325567, "経度": 141.0984936, "url": "https://www.kaigokensaku.mhlw.go.jp/03/index.php?action_kouhyou_detail_004_kani=true&JigyosyoCd=370600504-00&ServiceCd=210&Type=search", "url2": "http://www.keiwakai.info", "内容": "特別養護老人ホームいいとよ【短期入所生活介護】岩手県北上市村崎野１２地割７４番地２８", "サービスの種類": "短期入所生活介護" }, "geometry": { "type": "Point", "coordinates": [ 141.098493600000012, 39.3325567 ] } },
{ "type": "Feature", "properties": { "緯度": 39.3194084, "経度": 141.1155286, "url": "https://www.kaigokensaku.mhlw.go.jp/03/index.php?action_kouhyou_detail_004_kani=true&JigyosyoCd=370601551-00&ServiceCd=210&Type=search", "url2": null, "内容": "ショートステイ紅音【短期入所生活介護】岩手県北上市村崎野14地割432-106", "サービスの種類": "短期入所生活介護" }, "geometry": { "type": "Point", "coordinates": [ 141.1155286, 39.3194084 ] } },
{ "type": "Feature", "properties": { "緯度": 39.2968162, "経度": 141.1179151, "url": "https://www.kaigokensaku.mhlw.go.jp/03/index.php?action_kouhyou_detail_004_kani=true&JigyosyoCd=370600868-00&ServiceCd=210&Type=search", "url2": "https://mirakukai.com/", "内容": "老人短期入所事業さくら爽【短期入所生活介護】岩手県北上市さくら通り三丁目7番7号", "サービスの種類": "短期入所生活介護" }, "geometry": { "type": "Point", "coordinates": [ 141.1179151, 39.2968162 ] } },
{ "type": "Feature", "properties": { "緯度": 40.1731791, "経度": 141.7576646, "url": "https://www.kaigokensaku.mhlw.go.jp/03/index.php?action_kouhyou_detail_004_kani=true&JigyosyoCd=370700619-00&ServiceCd=210&Type=search", "url2": "http://kohakukai.org", "内容": "特別養護老人ホームこはく苑【短期入所生活介護】岩手県久慈市小久慈町19-118-1", "サービスの種類": "短期入所生活介護" }, "geometry": { "type": "Point", "coordinates": [ 141.7576646, 40.1731791 ] } },
{ "type": "Feature", "properties": { "緯度": 40.1456594, "経度": 141.569896, "url": "https://www.kaigokensaku.mhlw.go.jp/03/index.php?action_kouhyou_detail_004_kani=true&JigyosyoCd=373100254-00&ServiceCd=210&Type=search", "url2": "http://aizanso.sakura.ne.jp", "内容": "愛山荘ショートステイ【短期入所生活介護】岩手県久慈市山形町川井12-55-1", "サービスの種類": "短期入所生活介護" }, "geometry": { "type": "Point", "coordinates": [ 141.569896, 40.1456594 ] } },
{ "type": "Feature", "properties": { "緯度": 40.1788572, "経度": 141.824237, "url": "https://www.kaigokensaku.mhlw.go.jp/03/index.php?action_kouhyou_detail_004_kani=true&JigyosyoCd=370700056-00&ServiceCd=210&Type=search", "url2": "https://jikeikai.jimdo.com/", "内容": "特別養護老人ホーム和光苑【短期入所生活介護】岩手県久慈市長内町第４６地割２番地の１１", "サービスの種類": "短期入所生活介護" }, "geometry": { "type": "Point", "coordinates": [ 141.824237, 40.1788572 ] } },
{ "type": "Feature", "properties": { "緯度": 40.2039449, "経度": 141.7780957, "url": "https://www.kaigokensaku.mhlw.go.jp/03/index.php?action_kouhyou_detail_004_kani=true&JigyosyoCd=370700239-00&ServiceCd=210&Type=search", "url2": "https://khjd.jp", "内容": "ぎんたらす久慈短期入所生活介護事業所【短期入所生活介護】岩手県久慈市旭町第7地割105番地10", "サービスの種類": "短期入所生活介護" }, "geometry": { "type": "Point", "coordinates": [ 141.7780957, 40.2039449 ] } },
{ "type": "Feature", "properties": { "緯度": 39.3330404, "経度": 141.5487347, "url": "https://www.kaigokensaku.mhlw.go.jp/03/index.php?action_kouhyou_detail_004_kani=true&JigyosyoCd=370800484-00&ServiceCd=210&Type=search", "url2": "http://www.t-chouju.jp", "内容": "特別養護老人ホーム遠野長寿の郷（空床利用型）【短期入所生活介護】岩手県遠野市松崎町白岩18-7", "サービスの種類": "短期入所生活介護" }, "geometry": { "type": "Point", "coordinates": [ 141.548734700000011, 39.3330404 ] } },
{ "type": "Feature", "properties": { "緯度": 39.284662753701298, "経度": 141.592767498564, "url": "https://www.kaigokensaku.mhlw.go.jp/03/index.php?action_kouhyou_detail_004_kani=true&JigyosyoCd=370800443-00&ServiceCd=210&Type=search", "url2": "http://www.tono-shakyo.jp", "内容": "ショートステイ上郷【短期入所生活介護】岩手県遠野市上郷町細越７－４", "サービスの種類": "短期入所生活介護" }, "geometry": { "type": "Point", "coordinates": [ 141.592767498564001, 39.284662753701298 ] } },
{ "type": "Feature", "properties": { "緯度": 39.3330404, "経度": 141.5487347, "url": "https://www.kaigokensaku.mhlw.go.jp/03/index.php?action_kouhyou_detail_004_kani=true&JigyosyoCd=370800161-00&ServiceCd=210&Type=search", "url2": "http://www.t-chouju.jp", "内容": "特別養護老人ホーム遠野長寿の郷【短期入所生活介護】岩手県遠野市松崎町白岩１８－７", "サービスの種類": "短期入所生活介護" }, "geometry": { "type": "Point", "coordinates": [ 141.548734700000011, 39.3330404 ] } },
{ "type": "Feature", "properties": { "緯度": 39.3458139, "経度": 141.3629591, "url": "https://www.kaigokensaku.mhlw.go.jp/03/index.php?action_kouhyou_detail_004_kani=true&JigyosyoCd=372900183-00&ServiceCd=210&Type=search", "url2": "http://www.tomori-kai.jp/", "内容": "みやもり荘指定短期入所生活介護事業所【短期入所生活介護】岩手県遠野市宮守町下宮守２８地割１９番地１", "サービスの種類": "短期入所生活介護" }, "geometry": { "type": "Point", "coordinates": [ 141.362959100000012, 39.3458139 ] } },
{ "type": "Feature", "properties": { "緯度": 38.8310414, "経度": 141.185579, "url": "https://www.kaigokensaku.mhlw.go.jp/03/index.php?action_kouhyou_detail_004_kani=true&JigyosyoCd=370901902-00&ServiceCd=210&Type=search", "url2": "http://nioukai.jp", "内容": "ソエルいちのまち【短期入所生活介護】岩手県一関市花泉町涌津字一ノ町76番地", "サービスの種類": "短期入所生活介護" }, "geometry": { "type": "Point", "coordinates": [ 141.185579, 38.8310414 ] } },
{ "type": "Feature", "properties": { "緯度": 38.9498725, "経度": 141.062766, "url": "https://www.kaigokensaku.mhlw.go.jp/03/index.php?action_kouhyou_detail_004_kani=true&JigyosyoCd=370902082-00&ServiceCd=210&Type=search", "url2": "http://ichinosekikai.com", "内容": "特別養護老人ホームあけぼの苑短期入所生活介護【短期入所生活介護】岩手県一関市厳美町字古館３番地", "サービスの種類": "短期入所生活介護" }, "geometry": { "type": "Point", "coordinates": [ 141.062766, 38.9498725 ] } },
{ "type": "Feature", "properties": { "緯度": 38.9591881, "経度": 141.370459, "url": "https://www.kaigokensaku.mhlw.go.jp/03/index.php?action_kouhyou_detail_004_kani=true&JigyosyoCd=370902074-00&ServiceCd=210&Type=search", "url2": "https://jukeikai.or.jp/index.html", "内容": "ひなた苑短期入所生活介護事業所【短期入所生活介護】岩手県一関市千厩町奥玉字上川原31番地特別養護老人ホームひなた苑", "サービスの種類": "短期入所生活介護" }, "geometry": { "type": "Point", "coordinates": [ 141.370459, 38.9591881 ] } },
{ "type": "Feature", "properties": { "緯度": 38.8997928, "経度": 141.3818269, "url": "https://www.kaigokensaku.mhlw.go.jp/03/index.php?action_kouhyou_detail_004_kani=true&JigyosyoCd=370902124-00&ServiceCd=210&Type=search", "url2": "https://www.jukeikai.or.jp", "内容": "五訓の森短期入所生活介護事業所【短期入所生活介護】岩手県一関市千厩町小梨字時ノ沢109番地3特別養護老人ホーム五訓の森", "サービスの種類": "短期入所生活介護" }, "geometry": { "type": "Point", "coordinates": [ 141.3818269, 38.8997928 ] } },
{ "type": "Feature", "properties": { "緯度": 38.859251, "経度": 141.3498585, "url": "https://www.kaigokensaku.mhlw.go.jp/03/index.php?action_kouhyou_detail_004_kani=true&JigyosyoCd=370901258-00&ServiceCd=210&Type=search", "url2": null, "内容": "特別養護老人ホーム光栄荘短期入所生活介護事業所【短期入所生活介護】岩手県一関市藤沢町藤沢字町裏55番地", "サービスの種類": "短期入所生活介護" }, "geometry": { "type": "Point", "coordinates": [ 141.349858500000011, 38.859251 ] } },
{ "type": "Feature", "properties": { "緯度": 39.016464604148403, "経度": 141.394573808367, "url": "https://www.kaigokensaku.mhlw.go.jp/03/index.php?action_kouhyou_detail_004_kani=true&JigyosyoCd=370901894-00&ServiceCd=210&Type=search", "url2": "http://i-group.link/99_blank009.html", "内容": "リビングハウスおおはら短期入所生活介護事業【短期入所生活介護】岩手県一関市大東町大原字立町110番地1", "サービスの種類": "短期入所生活介護" }, "geometry": { "type": "Point", "coordinates": [ 141.394573808366999, 39.016464604148403 ] } },
{ "type": "Feature", "properties": { "緯度": 38.948928, "経度": 141.058853, "url": "https://www.kaigokensaku.mhlw.go.jp/03/index.php?action_kouhyou_detail_004_kani=true&JigyosyoCd=370902157-00&ServiceCd=210&Type=search", "url2": "http://ichinosekikai.com", "内容": "短期入所生活介護あけぼの苑【短期入所生活介護】岩手県一関市厳美町字古館3番地", "サービスの種類": "短期入所生活介護" }, "geometry": { "type": "Point", "coordinates": [ 141.058853, 38.948928 ] } },
{ "type": "Feature", "properties": { "緯度": 38.9942405, "経度": 141.2473757, "url": "https://www.kaigokensaku.mhlw.go.jp/03/index.php?action_kouhyou_detail_004_kani=true&JigyosyoCd=372700492-00&ServiceCd=210&Type=search", "url2": "http://hi-aikoukai.com", "内容": "特別養護老人ホームやすらぎ荘短期入所生活介護事業【短期入所生活介護】岩手県一関市東山町長坂字南山谷12", "サービスの種類": "短期入所生活介護" }, "geometry": { "type": "Point", "coordinates": [ 141.2473757, 38.9942405 ] } },
{ "type": "Feature", "properties": { "緯度": 38.9671416, "経度": 141.1758923, "url": "https://www.kaigokensaku.mhlw.go.jp/03/index.php?action_kouhyou_detail_004_kani=true&JigyosyoCd=370901324-00&ServiceCd=210&Type=search", "url2": null, "内容": "特別養護老人ホーム舞川の里短期入所生活介護事業【短期入所生活介護】岩手県一関市舞川字堀切72-4", "サービスの種類": "短期入所生活介護" }, "geometry": { "type": "Point", "coordinates": [ 141.175892299999987, 38.9671416 ] } },
{ "type": "Feature", "properties": { "緯度": 38.929773, "経度": 141.138759, "url": "https://www.kaigokensaku.mhlw.go.jp/03/index.php?action_kouhyou_detail_004_kani=true&JigyosyoCd=371501131-00&ServiceCd=210&Type=search", "url2": "http://www.swc-kouseikai.info", "内容": "短期入所生活介護事業所クラリス【短期入所生活介護】岩手県一関市上大槻街5-16", "サービスの種類": "短期入所生活介護" }, "geometry": { "type": "Point", "coordinates": [ 141.138759, 38.929773 ] } },
{ "type": "Feature", "properties": { "緯度": 39.0140999, "経度": 141.3802849, "url": "https://www.kaigokensaku.mhlw.go.jp/03/index.php?action_kouhyou_detail_004_kani=true&JigyosyoCd=372700534-00&ServiceCd=210&Type=search", "url2": "http://www.sippoukai.com/", "内容": "ショートステイサービスやまぶき【短期入所生活介護】岩手県一関市大東町大原字有南田2番地１", "サービスの種類": "短期入所生活介護" }, "geometry": { "type": "Point", "coordinates": [ 141.3802849, 39.0140999 ] } },
{ "type": "Feature", "properties": { "緯度": 39.04106, "経度": 141.344834, "url": "https://www.kaigokensaku.mhlw.go.jp/03/index.php?action_kouhyou_detail_004_kani=true&JigyosyoCd=370901340-00&ServiceCd=210&Type=search", "url2": "http://shuuwakai.com", "内容": "ショートステイひより【短期入所生活介護】岩手県一関市大東町沖田字峯岸5番地", "サービスの種類": "短期入所生活介護" }, "geometry": { "type": "Point", "coordinates": [ 141.344834, 39.04106 ] } },
{ "type": "Feature", "properties": { "緯度": 38.923698620480501, "経度": 141.11073132476599, "url": "https://www.kaigokensaku.mhlw.go.jp/03/index.php?action_kouhyou_detail_004_kani=true&JigyosyoCd=370900052-00&ServiceCd=210&Type=search", "url2": "http://www.fukkouen.or.jp/", "内容": "福光園アネックス短期入所生活介護【短期入所生活介護】岩手県一関市萩荘字高梨南方21番地1", "サービスの種類": "短期入所生活介護" }, "geometry": { "type": "Point", "coordinates": [ 141.110731324765993, 38.923698620480501 ] } },
{ "type": "Feature", "properties": { "緯度": 38.9377329, "経度": 141.0795018, "url": "https://www.kaigokensaku.mhlw.go.jp/03/index.php?action_kouhyou_detail_004_kani=true&JigyosyoCd=370901159-00&ServiceCd=210&Type=search", "url2": "https://www.fukkouen.or.jp", "内容": "福光園短期入所生活介護【短期入所生活介護】岩手県一関市萩荘字大袋56番地4", "サービスの種類": "短期入所生活介護" }, "geometry": { "type": "Point", "coordinates": [ 141.0795018, 38.9377329 ] } },
{ "type": "Feature", "properties": { "緯度": 38.935289, "経度": 141.4409416, "url": "https://www.kaigokensaku.mhlw.go.jp/03/index.php?action_kouhyou_detail_004_kani=true&JigyosyoCd=372700237-00&ServiceCd=210&Type=search", "url2": "http://www.kouyouhaitsu.com", "内容": "孝養ハイツ短期入所生活介護事業所【短期入所生活介護】岩手県一関市室根町折壁字八幡沖119", "サービスの種類": "短期入所生活介護" }, "geometry": { "type": "Point", "coordinates": [ 141.4409416, 38.935289 ] } },
{ "type": "Feature", "properties": { "緯度": 38.9003654, "経度": 141.2741715, "url": "https://www.kaigokensaku.mhlw.go.jp/03/index.php?action_kouhyou_detail_004_kani=true&JigyosyoCd=372700294-00&ServiceCd=210&Type=search", "url2": null, "内容": "寿松苑短期入所生活介護事業【短期入所生活介護】岩手県一関市川崎町薄衣字久伝２６番地", "サービスの種類": "短期入所生活介護" }, "geometry": { "type": "Point", "coordinates": [ 141.2741715, 38.9003654 ] } },
{ "type": "Feature", "properties": { "緯度": 38.9172269143153, "経度": 141.325627333066, "url": "https://www.kaigokensaku.mhlw.go.jp/03/index.php?action_kouhyou_detail_004_kani=true&JigyosyoCd=372700765-00&ServiceCd=210&Type=search", "url2": "https://www.jukeikai.or.jp", "内容": "千寿荘短期入所生活介護事業所【短期入所生活介護】岩手県一関市千厩町千厩字脇谷28番地5", "サービスの種類": "短期入所生活介護" }, "geometry": { "type": "Point", "coordinates": [ 141.325627333065995, 38.9172269143153 ] } },
{ "type": "Feature", "properties": { "緯度": 38.8778281, "経度": 141.1423813, "url": "https://www.kaigokensaku.mhlw.go.jp/03/index.php?action_kouhyou_detail_004_kani=true&JigyosyoCd=370900185-00&ServiceCd=210&Type=search", "url2": "http://www.iwate-tukushikai.jp/", "内容": "関生園短期入所生活介護施設【短期入所生活介護】岩手県一関市真柴字はの木立43-102", "サービスの種類": "短期入所生活介護" }, "geometry": { "type": "Point", "coordinates": [ 141.142381300000011, 38.8778281 ] } },
{ "type": "Feature", "properties": { "緯度": 38.906087, "経度": 141.1798576, "url": "https://www.kaigokensaku.mhlw.go.jp/03/index.php?action_kouhyou_detail_004_kani=true&JigyosyoCd=370900177-00&ServiceCd=210&Type=search", "url2": "https://www.iwate-tukushikai.jp/", "内容": "明生園短期入所生活介護施設【短期入所生活介護】岩手県一関市滝沢字寺下２番地１", "サービスの種類": "短期入所生活介護" }, "geometry": { "type": "Point", "coordinates": [ 141.1798576, 38.906087 ] } },
{ "type": "Feature", "properties": { "緯度": 38.9075855, "経度": 141.1404556, "url": "https://www.kaigokensaku.mhlw.go.jp/03/index.php?action_kouhyou_detail_004_kani=true&JigyosyoCd=370900490-00&ServiceCd=210&Type=search", "url2": "http://www.riha.jp", "内容": "特別養護老人ホーム一関ケアサポート【短期入所生活介護】岩手県一関市真柴字柧木立44-15", "サービスの種類": "短期入所生活介護" }, "geometry": { "type": "Point", "coordinates": [ 141.1404556, 38.9075855 ] } },
{ "type": "Feature", "properties": { "緯度": 38.855722010682904, "経度": 141.16447857185801, "url": "https://www.kaigokensaku.mhlw.go.jp/03/index.php?action_kouhyou_detail_004_kani=true&JigyosyoCd=372600189-00&ServiceCd=210&Type=search", "url2": "https://www.nioukai.or.jp", "内容": "寿光荘短期入所生活介護【短期入所生活介護】岩手県一関市花泉町金沢字如来堂１０７番地", "サービスの種類": "短期入所生活介護" }, "geometry": { "type": "Point", "coordinates": [ 141.164478571858012, 38.855722010682904 ] } },
{ "type": "Feature", "properties": { "緯度": 38.8308767, "経度": 141.1853271, "url": "https://www.kaigokensaku.mhlw.go.jp/03/index.php?action_kouhyou_detail_004_kani=true&JigyosyoCd=372600163-00&ServiceCd=210&Type=search", "url2": "https://www.nioukai.or.jp", "内容": "ソエル花泉【短期入所生活介護】岩手県一関市花泉町涌津一ノ町７６番地", "サービスの種類": "短期入所生活介護" }, "geometry": { "type": "Point", "coordinates": [ 141.1853271, 38.8308767 ] } },
{ "type": "Feature", "properties": { "緯度": 38.9065692, "経度": 141.1464467, "url": "https://www.kaigokensaku.mhlw.go.jp/03/index.php?action_kouhyou_detail_004_kani=true&JigyosyoCd=370901308-00&ServiceCd=210&Type=search", "url2": "http://www.iwate-tukushikai.jp", "内容": "真生園短期入所生活介護施設【短期入所生活介護】岩手県一関市字沢161番地216", "サービスの種類": "短期入所生活介護" }, "geometry": { "type": "Point", "coordinates": [ 141.146446700000013, 38.9065692 ] } },
{ "type": "Feature", "properties": { "緯度": 38.8484599, "経度": 141.1601257, "url": "https://www.kaigokensaku.mhlw.go.jp/03/index.php?action_kouhyou_detail_004_kani=true&JigyosyoCd=370901738-00&ServiceCd=210&Type=search", "url2": "https://www.nioukai.or.jp", "内容": "特別養護老人ホーム寿光荘清水【短期入所生活介護】岩手県一関市花泉町花泉字上舘70番3", "サービスの種類": "短期入所生活介護" }, "geometry": { "type": "Point", "coordinates": [ 141.1601257, 38.8484599 ] } },
{ "type": "Feature", "properties": { "緯度": 39.0221729, "経度": 141.6390769, "url": "https://www.kaigokensaku.mhlw.go.jp/03/index.php?action_kouhyou_detail_004_kani=true&JigyosyoCd=371000340-00&ServiceCd=210&Type=search", "url2": null, "内容": "高寿園指定短期入所生活介護事業所（ユニット型）【短期入所生活介護】岩手県陸前高田市高田町字東和野６７番地", "サービスの種類": "短期入所生活介護" }, "geometry": { "type": "Point", "coordinates": [ 141.6390769, 39.0221729 ] } },
{ "type": "Feature", "properties": { "緯度": 39.0332048, "経度": 141.6363461, "url": "https://www.kaigokensaku.mhlw.go.jp/03/index.php?action_kouhyou_detail_004_kani=true&JigyosyoCd=371000282-00&ServiceCd=210&Type=search", "url2": "http://www.tenjinkai.com/", "内容": "地域密着型介護老人福祉施設「陸前高田」【短期入所生活介護】岩手県陸前高田市高田町字大隅8番地6地域密着型介護老人福祉施設「陸前高田」", "サービスの種類": "短期入所生活介護" }, "geometry": { "type": "Point", "coordinates": [ 141.6363461, 39.0332048 ] } },
{ "type": "Feature", "properties": { "緯度": 39.0221729, "経度": 141.6390769, "url": "https://www.kaigokensaku.mhlw.go.jp/03/index.php?action_kouhyou_detail_004_kani=true&JigyosyoCd=371000076-00&ServiceCd=210&Type=search", "url2": "https://rikutaka-koujyukai.com/index.html", "内容": "高寿園指定短期入所生活介護事業所【短期入所生活介護】岩手県陸前高田市高田町字東和野６７番地", "サービスの種類": "短期入所生活介護" }, "geometry": { "type": "Point", "coordinates": [ 141.6390769, 39.0221729 ] } },
{ "type": "Feature", "properties": { "緯度": 39.344304454822698, "経度": 141.84845165137301, "url": "https://www.kaigokensaku.mhlw.go.jp/03/index.php?action_kouhyou_detail_004_kani=true&JigyosyoCd=371100769-00&ServiceCd=210&Type=search", "url2": "http://www.iwate-tokueikai.jp/", "内容": "ショートステイ三峯の杜【短期入所生活介護】岩手県釜石市鵜住居町第２地割２２番地1", "サービスの種類": "短期入所生活介護" }, "geometry": { "type": "Point", "coordinates": [ 141.848451651373011, 39.344304454822698 ] } },
{ "type": "Feature", "properties": { "緯度": 39.2429889, "経度": 141.8718358, "url": "https://www.kaigokensaku.mhlw.go.jp/03/index.php?action_kouhyou_detail_004_kani=true&JigyosyoCd=371100140-00&ServiceCd=210&Type=search", "url2": "http://aizen-iwate.jp", "内容": "特養あいぜんの里指定居宅サービス事業所【短期入所生活介護】岩手県釜石市大字平田第2地割51番地7", "サービスの種類": "短期入所生活介護" }, "geometry": { "type": "Point", "coordinates": [ 141.871835800000014, 39.2429889 ] } },
{ "type": "Feature", "properties": { "緯度": 39.2630666, "経度": 141.8378071, "url": "https://www.kaigokensaku.mhlw.go.jp/03/index.php?action_kouhyou_detail_004_kani=true&JigyosyoCd=371100389-00&ServiceCd=210&Type=search", "url2": "http://www.rakusuikai.com", "内容": "アミーガはまゆり指定短期入所生活介護事業所【短期入所生活介護】岩手県釜石市小佐野町三丁目９番５０号", "サービスの種類": "短期入所生活介護" }, "geometry": { "type": "Point", "coordinates": [ 141.8378071, 39.2630666 ] } },
{ "type": "Feature", "properties": { "緯度": 39.2547298, "経度": 141.7825942, "url": "https://www.kaigokensaku.mhlw.go.jp/03/index.php?action_kouhyou_detail_004_kani=true&JigyosyoCd=371100066-00&ServiceCd=210&Type=search", "url2": "http://www.senninnosato.jp", "内容": "仙人の里指定短期入所生活介護事業所【短期入所生活介護】岩手県釜石市甲子町第7地割144番地4", "サービスの種類": "短期入所生活介護" }, "geometry": { "type": "Point", "coordinates": [ 141.7825942, 39.2547298 ] } },
{ "type": "Feature", "properties": { "緯度": 40.262686, "経度": 141.2861856, "url": "https://www.kaigokensaku.mhlw.go.jp/03/index.php?action_kouhyou_detail_004_kani=true&JigyosyoCd=371300534-00&ServiceCd=210&Type=search", "url2": "https://3palace.com", "内容": "地域密着型特別養護老人ホームサンパレス【短期入所生活介護】岩手県二戸市石切所字森合92番地1", "サービスの種類": "短期入所生活介護" }, "geometry": { "type": "Point", "coordinates": [ 141.28618560000001, 40.262686 ] } },
{ "type": "Feature", "properties": { "緯度": 40.268823592196597, "経度": 141.301364802412, "url": "https://www.kaigokensaku.mhlw.go.jp/03/index.php?action_kouhyou_detail_004_kani=true&JigyosyoCd=371300609-00&ServiceCd=210&Type=search", "url2": "https://sannomaru-himawari.com", "内容": "短期入所生活介護施設慶愛荘【短期入所生活介護】岩手県二戸市福岡字城の外16番", "サービスの種類": "短期入所生活介護" }, "geometry": { "type": "Point", "coordinates": [ 141.301364802411996, 40.268823592196597 ] } },
{ "type": "Feature", "properties": { "緯度": 40.2401287, "経度": 141.2431679, "url": "https://www.kaigokensaku.mhlw.go.jp/03/index.php?action_kouhyou_detail_004_kani=true&JigyosyoCd=371300120-00&ServiceCd=210&Type=search", "url2": "http://www.3palace.com/", "内容": "特別養護老人ホームサントピア【短期入所生活介護】岩手県二戸市似鳥字上平15-1", "サービスの種類": "短期入所生活介護" }, "geometry": { "type": "Point", "coordinates": [ 141.2431679, 40.2401287 ] } },
{ "type": "Feature", "properties": { "緯度": 40.299037, "経度": 141.3080681, "url": "https://www.kaigokensaku.mhlw.go.jp/03/index.php?action_kouhyou_detail_004_kani=true&JigyosyoCd=371300377-00&ServiceCd=210&Type=search", "url2": "http://www.itutuboshi.com", "内容": "白梅荘ショートステイサービス【短期入所生活介護】岩手県二戸市堀野字大畑１番地１", "サービスの種類": "短期入所生活介護" }, "geometry": { "type": "Point", "coordinates": [ 141.308068100000014, 40.299037 ] } },
{ "type": "Feature", "properties": { "緯度": 40.2986426, "経度": 141.3078626, "url": "https://www.kaigokensaku.mhlw.go.jp/03/index.php?action_kouhyou_detail_004_kani=true&JigyosyoCd=371300542-00&ServiceCd=210&Type=search", "url2": "http://www.itutuboshi.com/", "内容": "白梅の森ショートステイサービス【短期入所生活介護】岩手県二戸市堀野字大畑1番地1", "サービスの種類": "短期入所生活介護" }, "geometry": { "type": "Point", "coordinates": [ 141.3078626, 40.2986426 ] } },
{ "type": "Feature", "properties": { "緯度": 40.184918706385403, "経度": 141.15735028773199, "url": "https://www.kaigokensaku.mhlw.go.jp/03/index.php?action_kouhyou_detail_004_kani=true&JigyosyoCd=373200179-00&ServiceCd=210&Type=search", "url2": "http://keisenkai.jp/", "内容": "浄心園やすらぎホーム【短期入所生活介護】岩手県二戸市浄法寺町下前田25番地1", "サービスの種類": "短期入所生活介護" }, "geometry": { "type": "Point", "coordinates": [ 141.157350287731987, 40.184918706385403 ] } },
{ "type": "Feature", "properties": { "緯度": 40.3032087, "経度": 141.3087429, "url": "https://www.kaigokensaku.mhlw.go.jp/03/index.php?action_kouhyou_detail_004_kani=true&JigyosyoCd=371300252-00&ServiceCd=210&Type=search", "url2": "http://www.itutuboshi.com", "内容": "わくわく荘ショートステイサービス【短期入所生活介護】岩手県二戸市仁左平字横手６－１", "サービスの種類": "短期入所生活介護" }, "geometry": { "type": "Point", "coordinates": [ 141.3087429, 40.3032087 ] } },
{ "type": "Feature", "properties": { "緯度": 40.3088588, "経度": 141.305967, "url": "https://www.kaigokensaku.mhlw.go.jp/03/index.php?action_kouhyou_detail_004_kani=true&JigyosyoCd=371300583-00&ServiceCd=210&Type=search", "url2": "http://keisenkai.jp", "内容": "短期入所生活介護事業所いずみ【短期入所生活介護】岩手県二戸市金田一字荒田110-1ケアセンターいずみ", "サービスの種類": "短期入所生活介護" }, "geometry": { "type": "Point", "coordinates": [ 141.305967, 40.3088588 ] } },
{ "type": "Feature", "properties": { "緯度": 40.3089412, "経度": 141.3062234, "url": "https://www.kaigokensaku.mhlw.go.jp/03/index.php?action_kouhyou_detail_004_kani=true&JigyosyoCd=371300617-00&ServiceCd=210&Type=search", "url2": "http://keisenkai.jp", "内容": "短期入所生活介護事業所いずみ【短期入所生活介護】岩手県二戸市金田一字荒田110-1", "サービスの種類": "短期入所生活介護" }, "geometry": { "type": "Point", "coordinates": [ 141.3062234, 40.3089412 ] } },
{ "type": "Feature", "properties": { "緯度": 40.262686, "経度": 141.2861856, "url": "https://www.kaigokensaku.mhlw.go.jp/03/index.php?action_kouhyou_detail_004_kani=true&JigyosyoCd=371300393-00&ServiceCd=210&Type=search", "url2": "https://3palace.com", "内容": "サンパレス指定短期入所生活介護事業所【短期入所生活介護】岩手県二戸市石切所字森合９２番地１", "サービスの種類": "短期入所生活介護" }, "geometry": { "type": "Point", "coordinates": [ 141.28618560000001, 40.262686 ] } },
{ "type": "Feature", "properties": { "緯度": 39.9540355, "経度": 141.0844853, "url": "https://www.kaigokensaku.mhlw.go.jp/03/index.php?action_kouhyou_detail_004_kani=true&JigyosyoCd=372100867-00&ServiceCd=210&Type=search", "url2": "http://www.shoujitsukai.or.jp", "内容": "特別養護老人ホーム麗峰苑【短期入所生活介護】岩手県八幡平市平舘第１３地割１番地１", "サービスの種類": "短期入所生活介護" }, "geometry": { "type": "Point", "coordinates": [ 141.084485300000011, 39.9540355 ] } },
{ "type": "Feature", "properties": { "緯度": 40.135683, "経度": 140.954487, "url": "https://www.kaigokensaku.mhlw.go.jp/03/index.php?action_kouhyou_detail_004_kani=true&JigyosyoCd=373200112-00&ServiceCd=210&Type=search", "url2": "http://www.ashirokai.jp", "内容": "りんどう苑短期入所事業所【短期入所生活介護】岩手県八幡平市丑山口27番地5", "サービスの種類": "短期入所生活介護" }, "geometry": { "type": "Point", "coordinates": [ 140.954487, 40.135683 ] } },
{ "type": "Feature", "properties": { "緯度": 39.919262411485597, "経度": 141.08598366005, "url": "https://www.kaigokensaku.mhlw.go.jp/03/index.php?action_kouhyou_detail_004_kani=true&JigyosyoCd=372100487-00&ServiceCd=210&Type=search", "url2": "https://nishinekai.jp", "内容": "西根会指定短期入所生活介護事業所【短期入所生活介護】岩手県八幡平市田頭第24地割36番地", "サービスの種類": "短期入所生活介護" }, "geometry": { "type": "Point", "coordinates": [ 141.085983660050005, 39.919262411485597 ] } },
{ "type": "Feature", "properties": { "緯度": 39.9176457, "経度": 140.985338, "url": "https://www.kaigokensaku.mhlw.go.jp/03/index.php?action_kouhyou_detail_004_kani=true&JigyosyoCd=371400235-00&ServiceCd=210&Type=search", "url2": "http://michinoku.or.jp/", "内容": "富士見荘空床利用型短期入所生活介護事業所【短期入所生活介護】岩手県八幡平市松尾寄木11地割13番地1", "サービスの種類": "短期入所生活介護" }, "geometry": { "type": "Point", "coordinates": [ 140.985338, 39.9176457 ] } },
{ "type": "Feature", "properties": { "緯度": 39.9175901, "経度": 140.9853492, "url": "https://www.kaigokensaku.mhlw.go.jp/03/index.php?action_kouhyou_detail_004_kani=true&JigyosyoCd=372100610-00&ServiceCd=210&Type=search", "url2": "http://michinoku.or.jp/", "内容": "富士見荘短期入所生活介護事業所【短期入所生活介護】岩手県八幡平市松尾寄木第１１地割１３番地１", "サービスの種類": "短期入所生活介護" }, "geometry": { "type": "Point", "coordinates": [ 140.9853492, 39.9175901 ] } },
{ "type": "Feature", "properties": { "緯度": 39.952799, "経度": 141.0656482, "url": "https://www.kaigokensaku.mhlw.go.jp/03/index.php?action_kouhyou_detail_004_kani=true&JigyosyoCd=371400201-00&ServiceCd=210&Type=search", "url2": "http://michinoku.or.jp/", "内容": "はらからの里短期入所生活介護事業所【短期入所生活介護】岩手県八幡平市野駄21-299-1", "サービスの種類": "短期入所生活介護" }, "geometry": { "type": "Point", "coordinates": [ 141.0656482, 39.952799 ] } },
{ "type": "Feature", "properties": { "緯度": 39.129900848569399, "経度": 141.129480930689, "url": "https://www.kaigokensaku.mhlw.go.jp/03/index.php?action_kouhyou_detail_004_kani=true&JigyosyoCd=371500745-00&ServiceCd=210&Type=search", "url2": "http://www.fukujyusou.jp/fukuharasansou/", "内容": "特別養護老人ホーム福寿荘福原山荘【短期入所生活介護】岩手県奥州市水沢字大橋34番地4", "サービスの種類": "短期入所生活介護" }, "geometry": { "type": "Point", "coordinates": [ 141.129480930688999, 39.129900848569399 ] } },
{ "type": "Feature", "properties": { "緯度": 39.0380033, "経度": 141.0644674, "url": "https://www.kaigokensaku.mhlw.go.jp/03/index.php?action_kouhyou_detail_004_kani=true&JigyosyoCd=371501230-00&ServiceCd=210&Type=search", "url2": "http://www.hagoromosou.net", "内容": "地域密着型羽衣荘指定短期入所生活介護事業所【短期入所生活介護】岩手県奥州市衣川古戸33番地1", "サービスの種類": "短期入所生活介護" }, "geometry": { "type": "Point", "coordinates": [ 141.064467400000012, 39.0380033 ] } },
{ "type": "Feature", "properties": { "緯度": 39.120751752573902, "経度": 141.109278942853, "url": "https://www.kaigokensaku.mhlw.go.jp/03/index.php?action_kouhyou_detail_004_kani=true&JigyosyoCd=370400244-00&ServiceCd=210&Type=search", "url2": "https://jyusuikai.jp/", "内容": "指定短期入所生活介護事業所立生苑【短期入所生活介護】岩手県奥州市水沢字見分森19番地1", "サービスの種類": "短期入所生活介護" }, "geometry": { "type": "Point", "coordinates": [ 141.109278942852995, 39.120751752573902 ] } },
{ "type": "Feature", "properties": { "緯度": 39.125847470281798, "経度": 141.20661876256599, "url": "https://www.kaigokensaku.mhlw.go.jp/03/index.php?action_kouhyou_detail_004_kani=true&JigyosyoCd=371501271-00&ServiceCd=210&Type=search", "url2": "https://www.aigokai.jp/engo_jyouzanen/?active-tab=tab-1", "内容": "短期入所事業所静山園【短期入所生活介護】岩手県奥州市水沢羽田町字門下１１－２", "サービスの種類": "短期入所生活介護" }, "geometry": { "type": "Point", "coordinates": [ 141.206618762565995, 39.125847470281798 ] } },
{ "type": "Feature", "properties": { "緯度": 39.1354442, "経度": 141.1630392, "url": "https://www.kaigokensaku.mhlw.go.jp/03/index.php?action_kouhyou_detail_004_kani=true&JigyosyoCd=371500711-00&ServiceCd=210&Type=search", "url2": null, "内容": "ショートステイ美郷【短期入所生活介護】岩手県奥州市水沢東中通り二丁目6番1号", "サービスの種類": "短期入所生活介護" }, "geometry": { "type": "Point", "coordinates": [ 141.163039199999986, 39.1354442 ] } },
{ "type": "Feature", "properties": { "緯度": 39.1854693303384, "経度": 141.15989382394301, "url": "https://www.kaigokensaku.mhlw.go.jp/03/index.php?action_kouhyou_detail_004_kani=true&JigyosyoCd=371200403-00&ServiceCd=210&Type=search", "url2": "https://www.seiaiikuseikai.or.jp", "内容": "聖愛園ユニット型ショートステイサービス【短期入所生活介護】岩手県奥州市江刺愛宕字八日市64特別養護老人ホーム聖愛園（ユニット型）", "サービスの種類": "短期入所生活介護" }, "geometry": { "type": "Point", "coordinates": [ 141.159893823943008, 39.1854693303384 ] } },
{ "type": "Feature", "properties": { "緯度": 39.1862928, "経度": 141.1601847, "url": "https://www.kaigokensaku.mhlw.go.jp/03/index.php?action_kouhyou_detail_004_kani=true&JigyosyoCd=371501297-00&ServiceCd=210&Type=search", "url2": "https://www.seiaiikuseikai.or.jp", "内容": "聖愛園にっかわショートステイサービス【短期入所生活介護】岩手県奥州市江刺愛宕字八日市1-2", "サービスの種類": "短期入所生活介護" }, "geometry": { "type": "Point", "coordinates": [ 141.1601847, 39.1862928 ] } },
{ "type": "Feature", "properties": { "緯度": 39.09767, "経度": 141.0784779, "url": "https://www.kaigokensaku.mhlw.go.jp/03/index.php?action_kouhyou_detail_004_kani=true&JigyosyoCd=371500893-00&ServiceCd=210&Type=search", "url2": "http://www.swc-kouseikai.info/index.html", "内容": "さくら指定短期入所生活介護事業所【短期入所生活介護】岩手県奥州市胆沢小山字道場251番特別養護老人ホームさくら・112号室～123号室", "サービスの種類": "短期入所生活介護" }, "geometry": { "type": "Point", "coordinates": [ 141.0784779, 39.09767 ] } },
{ "type": "Feature", "properties": { "緯度": 39.185499495827202, "経度": 141.16000163558201, "url": "https://www.kaigokensaku.mhlw.go.jp/03/index.php?action_kouhyou_detail_004_kani=true&JigyosyoCd=371200130-00&ServiceCd=210&Type=search", "url2": "https://www.seiaiikuseikai.or.jp", "内容": "聖愛園ショートステイサービス【短期入所生活介護】岩手県奥州市江刺愛宕字八日市５１－３", "サービスの種類": "短期入所生活介護" }, "geometry": { "type": "Point", "coordinates": [ 141.160001635582006, 39.185499495827202 ] } },
{ "type": "Feature", "properties": { "緯度": 39.0539715, "経度": 141.135478, "url": "https://www.kaigokensaku.mhlw.go.jp/03/index.php?action_kouhyou_detail_004_kani=true&JigyosyoCd=371501107-00&ServiceCd=210&Type=search", "url2": "http://www.yuuaifukushikai.com", "内容": "ショートステイ優愛【短期入所生活介護】岩手県奥州市前沢字竹沢147番地", "サービスの種類": "短期入所生活介護" }, "geometry": { "type": "Point", "coordinates": [ 141.135478, 39.0539715 ] } },
{ "type": "Feature", "properties": { "緯度": 39.1284907, "経度": 141.210274, "url": "https://www.kaigokensaku.mhlw.go.jp/03/index.php?action_kouhyou_detail_004_kani=true&JigyosyoCd=371500513-00&ServiceCd=210&Type=search", "url2": "http://aigokai.jp/", "内容": "短期入所生活介護特別養護老人ホーム愛護苑【短期入所生活介護】岩手県奥州市水沢羽田町字水無沢491番地3", "サービスの種類": "短期入所生活介護" }, "geometry": { "type": "Point", "coordinates": [ 141.210274, 39.1284907 ] } },
{ "type": "Feature", "properties": { "緯度": 39.0557437, "経度": 141.1366971, "url": "https://www.kaigokensaku.mhlw.go.jp/03/index.php?action_kouhyou_detail_004_kani=true&JigyosyoCd=371500737-00&ServiceCd=210&Type=search", "url2": "http://tsu2ji.oshushi.com", "内容": "まえさわ介護センター【短期入所生活介護】岩手県奥州市前沢字立石１８０番地１", "サービスの種類": "短期入所生活介護" }, "geometry": { "type": "Point", "coordinates": [ 141.1366971, 39.0557437 ] } },
{ "type": "Feature", "properties": { "緯度": 39.0402937, "経度": 141.120734, "url": "https://www.kaigokensaku.mhlw.go.jp/03/index.php?action_kouhyou_detail_004_kani=true&JigyosyoCd=372500140-00&ServiceCd=210&Type=search", "url2": "https://tsu2ji.oshushi.com", "内容": "まえさわ苑短期入所生活介護事業所【短期入所生活介護】岩手県奥州市前沢字塔ケ崎7番地", "サービスの種類": "短期入所生活介護" }, "geometry": { "type": "Point", "coordinates": [ 141.120734, 39.0402937 ] } },
{ "type": "Feature", "properties": { "緯度": 39.1169715, "経度": 141.0722784, "url": "https://www.kaigokensaku.mhlw.go.jp/03/index.php?action_kouhyou_detail_004_kani=true&JigyosyoCd=372500181-00&ServiceCd=210&Type=search", "url2": "https://www.oshuisawakai.iwate.jp", "内容": "やまゆり荘短期入所生活介護事業所【短期入所生活介護】岩手県奥州市胆沢南都田字加賀谷地416番地", "サービスの種類": "短期入所生活介護" }, "geometry": { "type": "Point", "coordinates": [ 141.072278399999988, 39.1169715 ] } },
{ "type": "Feature", "properties": { "緯度": 39.038138, "経度": 141.0645464, "url": "https://www.kaigokensaku.mhlw.go.jp/03/index.php?action_kouhyou_detail_004_kani=true&JigyosyoCd=372500199-00&ServiceCd=210&Type=search", "url2": "http://hagoromosou.net", "内容": "羽衣荘指定短期入所生活介護事業所【短期入所生活介護】岩手県奥州市衣川古戸45番地", "サービスの種類": "短期入所生活介護" }, "geometry": { "type": "Point", "coordinates": [ 141.064546400000012, 39.038138 ] } },
{ "type": "Feature", "properties": { "緯度": 39.1310084, "経度": 141.0615512, "url": "https://www.kaigokensaku.mhlw.go.jp/03/index.php?action_kouhyou_detail_004_kani=true&JigyosyoCd=371500463-00&ServiceCd=210&Type=search", "url2": "https://www.oshuisawakai.iwate.jp", "内容": "やなぎの里短期入所生活介護事業所【短期入所生活介護】岩手県奥州市胆沢若柳字相馬檀1番地", "サービスの種類": "短期入所生活介護" }, "geometry": { "type": "Point", "coordinates": [ 141.0615512, 39.1310084 ] } },
{ "type": "Feature", "properties": { "緯度": 39.175891, "経度": 141.3118273, "url": "https://www.kaigokensaku.mhlw.go.jp/03/index.php?action_kouhyou_detail_004_kani=true&JigyosyoCd=371200262-00&ServiceCd=210&Type=search", "url2": "https://esashijyuseikai.or.jp", "内容": "江寿園指定短期入所生活介護事業所【短期入所生活介護】岩手県奥州市江刺伊手字新田149番地", "サービスの種類": "短期入所生活介護" }, "geometry": { "type": "Point", "coordinates": [ 141.3118273, 39.175891 ] } },
{ "type": "Feature", "properties": { "緯度": 39.1813143, "経度": 141.1820638, "url": "https://www.kaigokensaku.mhlw.go.jp/03/index.php?action_kouhyou_detail_004_kani=true&JigyosyoCd=371200080-00&ServiceCd=210&Type=search", "url2": "http://esashijyuseikai.or.jp", "内容": "さくらの郷指定短期入所生活介護事業所【短期入所生活介護】岩手県奥州市江刺岩谷堂字下惣田２９０番地１", "サービスの種類": "短期入所生活介護" }, "geometry": { "type": "Point", "coordinates": [ 141.1820638, 39.1813143 ] } },
{ "type": "Feature", "properties": { "緯度": 39.1414708, "経度": 141.1479459, "url": "https://www.kaigokensaku.mhlw.go.jp/03/index.php?action_kouhyou_detail_004_kani=true&JigyosyoCd=371500372-00&ServiceCd=210&Type=search", "url2": "http://www.carenet.fujitsu.com/sclist/iwate/", "内容": "株式会社ケアネットショートステイ水沢【短期入所生活介護】岩手県奥州市水沢花園町一丁目19番16号", "サービスの種類": "短期入所生活介護" }, "geometry": { "type": "Point", "coordinates": [ 141.1479459, 39.1414708 ] } },
{ "type": "Feature", "properties": { "緯度": 39.064018, "経度": 141.134979, "url": "https://www.kaigokensaku.mhlw.go.jp/03/index.php?action_kouhyou_detail_004_kani=true&JigyosyoCd=371501172-00&ServiceCd=210&Type=search", "url2": null, "内容": "ショートステイこじょうの里【短期入所生活介護】岩手県奥州市前沢古城字上ノ台96-1", "サービスの種類": "短期入所生活介護" }, "geometry": { "type": "Point", "coordinates": [ 141.134979, 39.064018 ] } },
{ "type": "Feature", "properties": { "緯度": 39.1166269, "経度": 141.1639952, "url": "https://www.kaigokensaku.mhlw.go.jp/03/index.php?action_kouhyou_detail_004_kani=true&JigyosyoCd=370400087-00&ServiceCd=210&Type=search", "url2": "http://www.fukujyusou.jp/", "内容": "福寿荘短期入所生活介護事業所【短期入所生活介護】岩手県奥州市水沢上姉体二丁目1番地22", "サービスの種類": "短期入所生活介護" }, "geometry": { "type": "Point", "coordinates": [ 141.163995199999988, 39.1166269 ] } },
{ "type": "Feature", "properties": { "緯度": 39.128810077329398, "経度": 141.212518146311, "url": "https://www.kaigokensaku.mhlw.go.jp/03/index.php?action_kouhyou_detail_004_kani=true&JigyosyoCd=370400491-00&ServiceCd=210&Type=search", "url2": "http://www.mirakukai.com", "内容": "老人短期入所施設（特別養護老人ホームいこいの森）【短期入所生活介護】岩手県奥州市水沢羽田町字水無沢497番1", "サービスの種類": "短期入所生活介護" }, "geometry": { "type": "Point", "coordinates": [ 141.212518146310998, 39.128810077329398 ] } },
{ "type": "Feature", "properties": { "緯度": 39.1293505, "経度": 141.0693561, "url": "https://www.kaigokensaku.mhlw.go.jp/03/index.php?action_kouhyou_detail_004_kani=true&JigyosyoCd=372500512-00&ServiceCd=210&Type=search", "url2": "https://www.oshuisawakai.iwate.jp", "内容": "ぬくもりの家短期入所生活介護事業所【短期入所生活介護】岩手県奥州市胆沢南都田字大持30番地", "サービスの種類": "短期入所生活介護" }, "geometry": { "type": "Point", "coordinates": [ 141.0693561, 39.1293505 ] } },
{ "type": "Feature", "properties": { "緯度": 39.7069244, "経度": 141.0521169, "url": "https://www.kaigokensaku.mhlw.go.jp/03/index.php?action_kouhyou_detail_004_kani=true&JigyosyoCd=371600388-00&ServiceCd=210&Type=search", "url2": "http://www.short-wa.jp", "内容": "ショートステイわ【短期入所生活介護】岩手県滝沢市大釜白山48番地2", "サービスの種類": "短期入所生活介護" }, "geometry": { "type": "Point", "coordinates": [ 141.052116899999987, 39.7069244 ] } },
{ "type": "Feature", "properties": { "緯度": 39.7497165, "経度": 141.0779822, "url": "https://www.kaigokensaku.mhlw.go.jp/03/index.php?action_kouhyou_detail_004_kani=true&JigyosyoCd=371600552-00&ServiceCd=210&Type=search", "url2": "http://www.reitakukai.net/", "内容": "れいたく苑ショートステイ【短期入所生活介護】岩手県滝沢市高屋敷15番地", "サービスの種類": "短期入所生活介護" }, "geometry": { "type": "Point", "coordinates": [ 141.0779822, 39.7497165 ] } },
{ "type": "Feature", "properties": { "緯度": 39.738551866643398, "経度": 141.102243677475, "url": "https://www.kaigokensaku.mhlw.go.jp/03/index.php?action_kouhyou_detail_004_kani=true&JigyosyoCd=371600495-00&ServiceCd=210&Type=search", "url2": "http://www.mirakukai.com/", "内容": "特別養護老人ホームいこいの麓・滝沢あなぐち【短期入所生活介護】岩手県滝沢市穴口221番地2", "サービスの種類": "短期入所生活介護" }, "geometry": { "type": "Point", "coordinates": [ 141.102243677475002, 39.738551866643398 ] } },
{ "type": "Feature", "properties": { "緯度": 39.640873, "経度": 140.9309291, "url": "https://www.kaigokensaku.mhlw.go.jp/03/index.php?action_kouhyou_detail_004_kani=true&JigyosyoCd=372102053-00&ServiceCd=210&Type=search", "url2": "http://ousyuku.blog55.fc2.com/", "内容": "特別養護老人ホームおうしゅく【短期入所生活介護】岩手県岩手郡雫石町鶯宿第９地割６７番地１特別養護老人ホームおうしゅく", "サービスの種類": "短期入所生活介護" }, "geometry": { "type": "Point", "coordinates": [ 140.930929099999986, 39.640873 ] } },
{ "type": "Feature", "properties": { "緯度": 39.644829103026098, "経度": 140.94454558161499, "url": "https://www.kaigokensaku.mhlw.go.jp/03/index.php?action_kouhyou_detail_004_kani=true&JigyosyoCd=372100214-00&ServiceCd=210&Type=search", "url2": "http://www.oumeisou.jrc.or.jp/", "内容": "日赤鶯鳴荘指定短期入所生活介護事業所【短期入所生活介護】岩手県岩手郡雫石町南畑第３２地割１５番地３０", "サービスの種類": "短期入所生活介護" }, "geometry": { "type": "Point", "coordinates": [ 140.944545581614989, 39.644829103026098 ] } },
{ "type": "Feature", "properties": { "緯度": 40.0403547, "経度": 141.4545002, "url": "https://www.kaigokensaku.mhlw.go.jp/03/index.php?action_kouhyou_detail_004_kani=true&JigyosyoCd=372100420-00&ServiceCd=210&Type=search", "url2": "http://seishinseii-sw.or.jp", "内容": "誠心会ショートステイ事業所【短期入所生活介護】岩手県岩手郡葛巻町葛巻第７地割１０４番地２", "サービスの種類": "短期入所生活介護" }, "geometry": { "type": "Point", "coordinates": [ 141.454500200000012, 40.0403547 ] } },
{ "type": "Feature", "properties": { "緯度": 40.0839015, "経度": 141.4400827, "url": "https://www.kaigokensaku.mhlw.go.jp/03/index.php?action_kouhyou_detail_004_kani=true&JigyosyoCd=372101659-00&ServiceCd=210&Type=search", "url2": "https://seishinseii-sw.or.jp/sumire/", "内容": "地域密着型特別養護老人ホームすみれ荘【短期入所生活介護】岩手県岩手郡葛巻町葛巻第60地割132番地5", "サービスの種類": "短期入所生活介護" }, "geometry": { "type": "Point", "coordinates": [ 141.4400827, 40.0839015 ] } },
{ "type": "Feature", "properties": { "緯度": 40.0150909, "経度": 141.2318665, "url": "https://www.kaigokensaku.mhlw.go.jp/03/index.php?action_kouhyou_detail_004_kani=true&JigyosyoCd=372100404-00&ServiceCd=210&Type=search", "url2": "http://www.syunyoukai.jp/", "内容": "特別養護老人ホームあんずの里【短期入所生活介護】岩手県岩手郡岩手町大字五日市第２地割３０７番地", "サービスの種類": "短期入所生活介護" }, "geometry": { "type": "Point", "coordinates": [ 141.2318665, 40.0150909 ] } },
{ "type": "Feature", "properties": { "緯度": 39.965823391936198, "経度": 141.224226021318, "url": "https://www.kaigokensaku.mhlw.go.jp/03/index.php?action_kouhyou_detail_004_kani=true&JigyosyoCd=372101717-00&ServiceCd=210&Type=search", "url2": "http://lavender.nisshindo-g.com/", "内容": "特別養護老人ホームラベンダー短期入所事業所【短期入所生活介護】岩手県岩手郡岩手町大字江刈内第10地割28番地3", "サービスの種類": "短期入所生活介護" }, "geometry": { "type": "Point", "coordinates": [ 141.224226021318003, 39.965823391936198 ] } },
{ "type": "Feature", "properties": { "緯度": 39.533046840055199, "経度": 141.166436140656, "url": "https://www.kaigokensaku.mhlw.go.jp/03/index.php?action_kouhyou_detail_004_kani=true&JigyosyoCd=372201053-00&ServiceCd=210&Type=search", "url2": "https://shiwa-hidamari.jp/", "内容": "ショートステイ陽だまり【短期入所生活介護】岩手県紫波郡紫波町南日詰字小路口43番地1", "サービスの種類": "短期入所生活介護" }, "geometry": { "type": "Point", "coordinates": [ 141.166436140656003, 39.533046840055199 ] } },
{ "type": "Feature", "properties": { "緯度": 39.5408574163799, "経度": 141.17001437906799, "url": "https://www.kaigokensaku.mhlw.go.jp/03/index.php?action_kouhyou_detail_004_kani=true&JigyosyoCd=372200865-00&ServiceCd=210&Type=search", "url2": "https://www.peaceheart.jp/shotstai-siwa", "内容": "ショートステイ紫波【短期入所生活介護】岩手県紫波郡紫波町桜町字三本木18番地", "サービスの種類": "短期入所生活介護" }, "geometry": { "type": "Point", "coordinates": [ 141.170014379067993, 39.5408574163799 ] } },
{ "type": "Feature", "properties": { "緯度": 39.5415171, "経度": 141.1716048, "url": "https://www.kaigokensaku.mhlw.go.jp/03/index.php?action_kouhyou_detail_004_kani=true&JigyosyoCd=372200139-00&ServiceCd=210&Type=search", "url2": "https://shiwakai.jp", "内容": "にいやま荘短期入所生活介護事業所【短期入所生活介護】岩手県紫波郡紫波町桜町字三本木４６番地1", "サービスの種類": "短期入所生活介護" }, "geometry": { "type": "Point", "coordinates": [ 141.171604800000011, 39.5415171 ] } },
{ "type": "Feature", "properties": { "緯度": 39.5415171, "経度": 141.1716048, "url": "https://www.kaigokensaku.mhlw.go.jp/03/index.php?action_kouhyou_detail_004_kani=true&JigyosyoCd=372200857-00&ServiceCd=210&Type=search", "url2": "https://shiwakai.jp/", "内容": "にいやま荘桜町ユニット短期入所生活介護事業所【短期入所生活介護】岩手県紫波郡紫波町桜町字三本木46番地1", "サービスの種類": "短期入所生活介護" }, "geometry": { "type": "Point", "coordinates": [ 141.171604800000011, 39.5415171 ] } },
{ "type": "Feature", "properties": { "緯度": 39.5477695, "経度": 141.100695, "url": "https://www.kaigokensaku.mhlw.go.jp/03/index.php?action_kouhyou_detail_004_kani=true&JigyosyoCd=372200295-00&ServiceCd=210&Type=search", "url2": "http://mozunosato.com", "内容": "百寿の郷短期入所センター【短期入所生活介護】岩手県紫波郡紫波町土舘字関沢２４番地１", "サービスの種類": "短期入所生活介護" }, "geometry": { "type": "Point", "coordinates": [ 141.100695, 39.5477695 ] } },
{ "type": "Feature", "properties": { "緯度": 39.613425807371399, "経度": 141.14688876043499, "url": "https://www.kaigokensaku.mhlw.go.jp/03/index.php?action_kouhyou_detail_004_kani=true&JigyosyoCd=372200808-00&ServiceCd=210&Type=search", "url2": "http://www.ccnansyou.com/", "内容": "ショートステイやはば【短期入所生活介護】岩手県紫波郡矢巾町又兵エ新田第５地割３３５番地医療福祉多機能ビル　ケアセンター南昌", "サービスの種類": "短期入所生活介護" }, "geometry": { "type": "Point", "coordinates": [ 141.14688876043499, 39.613425807371399 ] } },
{ "type": "Feature", "properties": { "緯度": 39.6232767, "経度": 141.0890684, "url": "https://www.kaigokensaku.mhlw.go.jp/03/index.php?action_kouhyou_detail_004_kani=true&JigyosyoCd=372200659-00&ServiceCd=210&Type=search", "url2": "http://www.shiwasou.jp/", "内容": "悠和荘短期入所生活介護事業【短期入所生活介護】岩手県紫波郡矢巾町広宮沢1-2-312", "サービスの種類": "短期入所生活介護" }, "geometry": { "type": "Point", "coordinates": [ 141.0890684, 39.6232767 ] } },
{ "type": "Feature", "properties": { "緯度": 39.3413696000001, "経度": 140.7733811, "url": "https://www.kaigokensaku.mhlw.go.jp/03/index.php?action_kouhyou_detail_004_kani=true&JigyosyoCd=372400127-00&ServiceCd=210&Type=search", "url2": "https://www.koujyukai.or.jp", "内容": "特別養護老人ホーム光寿苑【短期入所生活介護】岩手県和賀郡西和賀町湯本30地割76番地1", "サービスの種類": "短期入所生活介護" }, "geometry": { "type": "Point", "coordinates": [ 140.7733811, 39.3413696000001 ] } },
{ "type": "Feature", "properties": { "緯度": 39.431738, "経度": 140.7495021, "url": "https://www.kaigokensaku.mhlw.go.jp/03/index.php?action_kouhyou_detail_004_kani=true&JigyosyoCd=372400200-00&ServiceCd=210&Type=search", "url2": "https://yasuragikai.com/", "内容": "ショートステイぶなの園【短期入所生活介護】岩手県和賀郡西和賀町沢内字太田２地割１３５番地", "サービスの種類": "短期入所生活介護" }, "geometry": { "type": "Point", "coordinates": [ 140.7495021, 39.431738 ] } },
{ "type": "Feature", "properties": { "緯度": 39.2417158, "経度": 141.0705714, "url": "https://www.kaigokensaku.mhlw.go.jp/03/index.php?action_kouhyou_detail_004_kani=true&JigyosyoCd=372500546-00&ServiceCd=210&Type=search", "url2": "http://yamadori.wel-n.net", "内容": "特別養護老人ホーム　「あすなろ」【短期入所生活介護】岩手県胆沢郡金ヶ崎町六原坊主屋敷36番地1", "サービスの種類": "短期入所生活介護" }, "geometry": { "type": "Point", "coordinates": [ 141.0705714, 39.2417158 ] } },
{ "type": "Feature", "properties": { "緯度": 39.1870123, "経度": 141.1051842, "url": "https://www.kaigokensaku.mhlw.go.jp/03/index.php?action_kouhyou_detail_004_kani=true&JigyosyoCd=372500314-00&ServiceCd=210&Type=search", "url2": "http://www.yuaikai-kanegasaki.com/", "内容": "友愛園短期入所生活介護事業所【短期入所生活介護】岩手県胆沢郡金ケ崎町西根揚場後8番地2", "サービスの種類": "短期入所生活介護" }, "geometry": { "type": "Point", "coordinates": [ 141.1051842, 39.1870123 ] } },
{ "type": "Feature", "properties": { "緯度": 39.2212217, "経度": 141.0930066, "url": "https://www.kaigokensaku.mhlw.go.jp/03/index.php?action_kouhyou_detail_004_kani=true&JigyosyoCd=372500652-00&ServiceCd=210&Type=search", "url2": "https://furusato.oshushi.com", "内容": "穂の香の郷短期入所生活介護事業所【短期入所生活介護】岩手県胆沢郡金ヶ崎町西根北荒巻21番地19", "サービスの種類": "短期入所生活介護" }, "geometry": { "type": "Point", "coordinates": [ 141.0930066, 39.2212217 ] } },
{ "type": "Feature", "properties": { "緯度": 38.9717689, "経度": 141.1077917, "url": "https://www.kaigokensaku.mhlw.go.jp/03/index.php?action_kouhyou_detail_004_kani=true&JigyosyoCd=372600106-00&ServiceCd=210&Type=search", "url2": "https://www.tousenkai.or.jp/", "内容": "慶泉荘短期入所生活介護事業【短期入所生活介護】岩手県西磐井郡平泉町平泉字片岡69番地7", "サービスの種類": "短期入所生活介護" }, "geometry": { "type": "Point", "coordinates": [ 141.1077917, 38.9717689 ] } },
{ "type": "Feature", "properties": { "緯度": 39.0040998, "経度": 141.1363608, "url": "https://www.kaigokensaku.mhlw.go.jp/03/index.php?action_kouhyou_detail_004_kani=true&JigyosyoCd=372600296-00&ServiceCd=210&Type=search", "url2": "http://www.cc-ikoi.com/yui/", "内容": "いこいの結短期入所生活介護施設【短期入所生活介護】岩手県西磐井郡平泉町長島字竜ヶ坂42番地", "サービスの種類": "短期入所生活介護" }, "geometry": { "type": "Point", "coordinates": [ 141.1363608, 39.0040998 ] } },
{ "type": "Feature", "properties": { "緯度": 39.146201397173897, "経度": 141.56889256312101, "url": "https://www.kaigokensaku.mhlw.go.jp/03/index.php?action_kouhyou_detail_004_kani=true&JigyosyoCd=372800110-00&ServiceCd=210&Type=search", "url2": "https://care-net.biz/03/narusekai/", "内容": "すみた荘ショートステイ【短期入所生活介護】岩手県気仙郡住田町世田米字川向８番地２", "サービスの種類": "短期入所生活介護" }, "geometry": { "type": "Point", "coordinates": [ 141.568892563121011, 39.146201397173897 ] } },
{ "type": "Feature", "properties": { "緯度": 39.3729315, "経度": 141.9546958, "url": "https://www.kaigokensaku.mhlw.go.jp/03/index.php?action_kouhyou_detail_004_kani=true&JigyosyoCd=372900225-00&ServiceCd=210&Type=search", "url2": "http://www.tsutsumifukushikai.jp", "内容": "特別養護老人ホームらふたぁヒルズ【短期入所生活介護】岩手県上閉伊郡大槌町吉里吉里29地割21番５７", "サービスの種類": "短期入所生活介護" }, "geometry": { "type": "Point", "coordinates": [ 141.9546958, 39.3729315 ] } },
{ "type": "Feature", "properties": { "緯度": 39.3729315, "経度": 141.9546958, "url": "https://www.kaigokensaku.mhlw.go.jp/03/index.php?action_kouhyou_detail_004_kani=true&JigyosyoCd=372900092-00&ServiceCd=210&Type=search", "url2": "http:/tsutsumifukushikai.jp", "内容": "ゆーらっぷ指定短期入所生活介護事業所【短期入所生活介護】岩手県上閉伊郡大槌町吉里吉里第３２地割１８番２５号", "サービスの種類": "短期入所生活介護" }, "geometry": { "type": "Point", "coordinates": [ 141.9546958, 39.3729315 ] } },
{ "type": "Feature", "properties": { "緯度": 39.4736553, "経度": 141.9342874, "url": "https://www.kaigokensaku.mhlw.go.jp/03/index.php?action_kouhyou_detail_004_kani=true&JigyosyoCd=373000215-00&ServiceCd=210&Type=search", "url2": "https://seiju-kai.net", "内容": "特別養護老人ホーム平安荘【短期入所生活介護】岩手県下閉伊郡山田町山田第16地割9番地10", "サービスの種類": "短期入所生活介護" }, "geometry": { "type": "Point", "coordinates": [ 141.934287399999988, 39.4736553 ] } },
{ "type": "Feature", "properties": { "緯度": 39.8482054, "経度": 141.7953865, "url": "https://www.kaigokensaku.mhlw.go.jp/03/index.php?action_kouhyou_detail_004_kani=true&JigyosyoCd=373000116-00&ServiceCd=210&Type=search", "url2": "http://www.hyakurakuen.org/", "内容": "特別養護老人ホーム百楽苑【短期入所生活介護】岩手県下閉伊郡岩泉町岩泉字中家４０", "サービスの種類": "短期入所生活介護" }, "geometry": { "type": "Point", "coordinates": [ 141.7953865, 39.8482054 ] } },
{ "type": "Feature", "properties": { "緯度": 39.9320084, "経度": 141.8938176, "url": "https://www.kaigokensaku.mhlw.go.jp/03/index.php?action_kouhyou_detail_004_kani=true&JigyosyoCd=373000256-00&ServiceCd=210&Type=search", "url2": "http://www.jyuseikai.jp/", "内容": "特別養護老人ホーム寿生苑【短期入所生活介護】岩手県下閉伊郡田野畑村田野畑120番地18", "サービスの種類": "短期入所生活介護" }, "geometry": { "type": "Point", "coordinates": [ 141.8938176, 39.9320084 ] } },
{ "type": "Feature", "properties": { "緯度": 39.9413869, "経度": 141.8276811, "url": "https://www.kaigokensaku.mhlw.go.jp/03/index.php?action_kouhyou_detail_004_kani=true&JigyosyoCd=373000843-00&ServiceCd=210&Type=search", "url2": "http://www.riasclub.com", "内容": "ショートステイリアス倶楽部【短期入所生活介護】岩手県下閉伊郡田野畑村奥地13番地", "サービスの種類": "短期入所生活介護" }, "geometry": { "type": "Point", "coordinates": [ 141.8276811, 39.9413869 ] } },
{ "type": "Feature", "properties": { "緯度": 40.0136984, "経度": 141.8542857, "url": "https://www.kaigokensaku.mhlw.go.jp/03/index.php?action_kouhyou_detail_004_kani=true&JigyosyoCd=373000173-00&ServiceCd=210&Type=search", "url2": "https://www.unetorisou.com", "内容": "うねとり荘指定短期入所生活介護事業所【短期入所生活介護】岩手県下閉伊郡普代村第２４地割字鳥居５番地１", "サービスの種類": "短期入所生活介護" }, "geometry": { "type": "Point", "coordinates": [ 141.8542857, 40.0136984 ] } },
{ "type": "Feature", "properties": { "緯度": 40.317469681289303, "経度": 141.47382635125601, "url": "https://www.kaigokensaku.mhlw.go.jp/03/index.php?action_kouhyou_detail_004_kani=true&JigyosyoCd=373100577-00&ServiceCd=210&Type=search", "url2": "http://karumai-shakyo.or.jp/", "内容": "特別養護老人ホームいちい荘【短期入所生活介護】岩手県九戸郡軽米町大字軽米3-22-7", "サービスの種類": "短期入所生活介護" }, "geometry": { "type": "Point", "coordinates": [ 141.473826351256008, 40.317469681289303 ] } },
{ "type": "Feature", "properties": { "緯度": 40.3267455, "経度": 141.4606327, "url": "https://www.kaigokensaku.mhlw.go.jp/03/index.php?action_kouhyou_detail_004_kani=true&JigyosyoCd=373100478-00&ServiceCd=210&Type=search", "url2": "http://www.keisenkai.jp/kutsuroginoie", "内容": "くつろぎの家短期入所事業所【短期入所生活介護】岩手県九戸郡軽米町大字山内第12地割字太田向96番地2", "サービスの種類": "短期入所生活介護" }, "geometry": { "type": "Point", "coordinates": [ 141.4606327, 40.3267455 ] } },
{ "type": "Feature", "properties": { "緯度": 40.0830032, "経度": 141.8283022, "url": "https://www.kaigokensaku.mhlw.go.jp/03/index.php?action_kouhyou_detail_004_kani=true&JigyosyoCd=373100619-00&ServiceCd=210&Type=search", "url2": null, "内容": "特別養護老人ホーム結の里短期入所生活介護【短期入所生活介護】岩手県九戸郡野田村大字玉川第５地割４５－２２", "サービスの種類": "短期入所生活介護" }, "geometry": { "type": "Point", "coordinates": [ 141.8283022, 40.0830032 ] } },
{ "type": "Feature", "properties": { "緯度": 40.1086692, "経度": 141.802198, "url": "https://www.kaigokensaku.mhlw.go.jp/03/index.php?action_kouhyou_detail_004_kani=true&JigyosyoCd=373100296-00&ServiceCd=210&Type=search", "url2": "http://hakuju.wixsite.com/nodahakujukai", "内容": "野田白寿会指定短期入所生活介護事業所【短期入所生活介護】岩手県九戸郡野田村大字野田第22地割44番地1", "サービスの種類": "短期入所生活介護" }, "geometry": { "type": "Point", "coordinates": [ 141.802198, 40.1086692 ] } },
{ "type": "Feature", "properties": { "緯度": 40.2142998, "経度": 141.4216045, "url": "https://www.kaigokensaku.mhlw.go.jp/03/index.php?action_kouhyou_detail_004_kani=true&JigyosyoCd=373100684-00&ServiceCd=210&Type=search", "url2": "http://www.oritsumesou.or.jp", "内容": "地域密着型特別養護老人ホーム折爪荘【短期入所生活介護】岩手県九戸郡九戸村大字伊保内第9地割73番地", "サービスの種類": "短期入所生活介護" }, "geometry": { "type": "Point", "coordinates": [ 141.4216045, 40.2142998 ] } },
{ "type": "Feature", "properties": { "緯度": 40.2142998, "経度": 141.4216045, "url": "https://www.kaigokensaku.mhlw.go.jp/03/index.php?action_kouhyou_detail_004_kani=true&JigyosyoCd=373100320-00&ServiceCd=210&Type=search", "url2": "http://www.oritsumesou.or.jp", "内容": "ショートステイおりつめ【短期入所生活介護】岩手県九戸郡九戸村大字伊保内第9地割73番地", "サービスの種類": "短期入所生活介護" }, "geometry": { "type": "Point", "coordinates": [ 141.4216045, 40.2142998 ] } },
{ "type": "Feature", "properties": { "緯度": 40.214385578714698, "経度": 141.421604024468, "url": "https://www.kaigokensaku.mhlw.go.jp/03/index.php?action_kouhyou_detail_004_kani=true&JigyosyoCd=373100775-00&ServiceCd=210&Type=search", "url2": "http://www.oritsumesou.or.jp", "内容": "特別養護老人ホーム折爪荘【短期入所生活介護】岩手県九戸郡九戸村大字伊保内第9地割73番地", "サービスの種類": "短期入所生活介護" }, "geometry": { "type": "Point", "coordinates": [ 141.421604024467996, 40.214385578714698 ] } },
{ "type": "Feature", "properties": { "緯度": 40.2111307, "経度": 141.4205852, "url": "https://www.kaigokensaku.mhlw.go.jp/03/index.php?action_kouhyou_detail_004_kani=true&JigyosyoCd=373100635-00&ServiceCd=210&Type=search", "url2": "http://www.oritsumesou.or.jp", "内容": "地域密着型特別養護老人ホームおりつめの里【短期入所生活介護】岩手県九戸郡九戸村大字伊保内第7地割35番地1", "サービスの種類": "短期入所生活介護" }, "geometry": { "type": "Point", "coordinates": [ 141.4205852, 40.2111307 ] } },
{ "type": "Feature", "properties": { "緯度": 40.3978942, "経度": 141.6417347, "url": "https://www.kaigokensaku.mhlw.go.jp/03/index.php?action_kouhyou_detail_004_kani=true&JigyosyoCd=373100601-00&ServiceCd=210&Type=search", "url2": null, "内容": "短期入所者生活介護じょうない【短期入所生活介護】岩手県九戸郡洋野町種市第56地割80番地", "サービスの種類": "短期入所生活介護" }, "geometry": { "type": "Point", "coordinates": [ 141.6417347, 40.3978942 ] } },
{ "type": "Feature", "properties": { "緯度": 40.410607012240497, "経度": 141.71403520800601, "url": "https://www.kaigokensaku.mhlw.go.jp/03/index.php?action_kouhyou_detail_004_kani=true&JigyosyoCd=373100759-00&ServiceCd=210&Type=search", "url2": "https://hironokai.or.jp/", "内容": "ひろの会指定短期入所生活介護事業所【短期入所生活介護】岩手県九戸郡洋野町種市第23地割81番地6", "サービスの種類": "短期入所生活介護" }, "geometry": { "type": "Point", "coordinates": [ 141.71403520800601, 40.410607012240497 ] } },
{ "type": "Feature", "properties": { "緯度": 40.2766863, "経度": 141.6346269, "url": "https://www.kaigokensaku.mhlw.go.jp/03/index.php?action_kouhyou_detail_004_kani=true&JigyosyoCd=373100189-00&ServiceCd=210&Type=search", "url2": "http://m-kujihirasou.jp/", "内容": "久慈平荘ショートステイ事業所【短期入所生活介護】岩手県九戸郡洋野町大野第６０地割４１番地８", "サービスの種類": "短期入所生活介護" }, "geometry": { "type": "Point", "coordinates": [ 141.6346269, 40.2766863 ] } },
{ "type": "Feature", "properties": { "緯度": 40.1659783, "経度": 141.3364543, "url": "https://www.kaigokensaku.mhlw.go.jp/03/index.php?action_kouhyou_detail_004_kani=true&JigyosyoCd=373200518-00&ServiceCd=210&Type=search", "url2": "http://iwate-jikoukai.jp/", "内容": "地域密着型慶寿園指定短期入所生活介護事業所【短期入所生活介護】岩手県二戸郡一戸町姉帯字下村24番地1", "サービスの種類": "短期入所生活介護" }, "geometry": { "type": "Point", "coordinates": [ 141.336454300000014, 40.1659783 ] } },
{ "type": "Feature", "properties": { "緯度": 40.2084923, "経度": 141.3064928, "url": "https://www.kaigokensaku.mhlw.go.jp/03/index.php?action_kouhyou_detail_004_kani=true&JigyosyoCd=373200245-00&ServiceCd=210&Type=search", "url2": "https://yuaiservice.co.jp", "内容": "株式会社結愛サービス公社短期入所生活介護事業所【短期入所生活介護】岩手県二戸郡一戸町一戸字砂森93番地2", "サービスの種類": "短期入所生活介護" }, "geometry": { "type": "Point", "coordinates": [ 141.3064928, 40.2084923 ] } },
{ "type": "Feature", "properties": { "緯度": 40.207159, "経度": 141.305068, "url": "https://www.kaigokensaku.mhlw.go.jp/03/index.php?action_kouhyou_detail_004_kani=true&JigyosyoCd=373200492-00&ServiceCd=210&Type=search", "url2": null, "内容": "一戸町有料老人ホーム【短期入所生活介護】岩手県二戸郡一戸町一戸字砂森60番地1岩手県立一戸病院　5階", "サービスの種類": "短期入所生活介護" }, "geometry": { "type": "Point", "coordinates": [ 141.305068, 40.207159 ] } },
{ "type": "Feature", "properties": { "緯度": 40.2078646, "経度": 141.3069816, "url": "https://www.kaigokensaku.mhlw.go.jp/03/index.php?action_kouhyou_detail_004_kani=true&JigyosyoCd=373200500-00&ServiceCd=210&Type=search", "url2": "https://yuaiservice.co.jp", "内容": "一戸町特別養護老人ホーム【短期入所生活介護】岩手県二戸郡一戸町一戸字田中72番地1", "サービスの種類": "短期入所生活介護" }, "geometry": { "type": "Point", "coordinates": [ 141.3069816, 40.2078646 ] } },
{ "type": "Feature", "properties": { "緯度": 40.1659644, "経度": 141.3364821, "url": "https://www.kaigokensaku.mhlw.go.jp/03/index.php?action_kouhyou_detail_004_kani=true&JigyosyoCd=373200153-00&ServiceCd=210&Type=search", "url2": "http://iwate-jikoukai.jp/about/", "内容": "慶寿園指定短期入所生活介護事業所【短期入所生活介護】岩手県二戸郡一戸町姉帯字下村24番地1", "サービスの種類": "短期入所生活介護" }, "geometry": { "type": "Point", "coordinates": [ 141.336482100000012, 40.1659644 ] } }
]
}
